{
  "type": "FeatureCollection",
  "features": [
    {
      "type": "Feature",
      "properties": {
        "object_id": "09-139-00737",
        "stcode11": "09",
        "dtcode11": "139",
        "sdtcode11": "00737",
        "stname": "UTTAR PRADESH",
        "dtname": "Baghpat",
        "sdtname": "Khekada",
        "st_area_sh": 0.0,
        "st_length_": 0.0,
        "remarks": "",
        "dist_lgd": 124,
        "state_lgd": 9,
        "subdt_lgd": 737,
        "ac_no": 52,
        "st_length(shape)": 99117.97340211042,
        "st_area(shape)": 243643650.37356412
      },
      "geometry": {
        "type": "Polygon",
        "coordinates": [
          [
            [
              77.28510423279668,
              28.928619383657473
            ],
            [
              77.28633279662704,
              28.928460593358682
            ],
            [
              77.28730459140644,
              28.928477070325386
            ],
            [
              77.28729760520848,
              28.92844429800795
            ],
            [
              77.28711443512879,
              28.927585053885487
            ],
            [
              77.28711202225394,
              28.927575214165763
            ],
            [
              77.28698662283016,
              28.927063795905894
            ],
            [
              77.28698646113341,
              28.927063136252162
            ],
            [
              77.28686392823369,
              28.926563406096335
            ],
            [
              77.28686353836488,
              28.92656181395666
            ],
            [
              77.28674694782077,
              28.926086321333578
            ],
            [
              77.28676277344114,
              28.92606315303711
            ],
            [
              77.28677155267641,
              28.92605029792079
            ],
            [
              77.28685001961817,
              28.925935417925963
            ],
            [
              77.28685034390998,
              28.925934943033017
            ],
            [
              77.28719987479379,
              28.92542321083054
            ],
            [
              77.28719630668544,
              28.92541590813607
            ],
            [
              77.2871920711289,
              28.925407237365082
            ],
            [
              77.28680077217766,
              28.924606310690436
            ],
            [
              77.28679917137983,
              28.92460303278647
            ],
            [
              77.2867620197546,
              28.92452699073084
            ],
            [
              77.28656676643602,
              28.922997629692755
            ],
            [
              77.28632192701208,
              28.92237556022233
            ],
            [
              77.28632106822266,
              28.92237337831321
            ],
            [
              77.28573617064963,
              28.9208873129606
            ],
            [
              77.2855879944418,
              28.92018443325623
            ],
            [
              77.28558781657537,
              28.92018359507095
            ],
            [
              77.28547716569193,
              28.919658718312323
            ],
            [
              77.28549180194288,
              28.91963157228914
            ],
            [
              77.28552902004341,
              28.919562544269983
            ],
            [
              77.28553281991707,
              28.919555495922307
            ],
            [
              77.28593411532079,
              28.918811203755883
            ],
            [
              77.28593474773473,
              28.91880289019943
            ],
            [
              77.2859876369454,
              28.91810777529242
            ],
            [
              77.28594253073835,
              28.917862776231814
            ],
            [
              77.28594247234787,
              28.917862456990846
            ],
            [
              77.28581729480797,
              28.917182538356236
            ],
            [
              77.28576126957866,
              28.916259237735336
            ],
            [
              77.28579385866053,
              28.915828505720885
            ],
            [
              77.28579428985188,
              28.915822811954424
            ],
            [
              77.28585688805411,
              28.91499544798782
            ],
            [
              77.28592220276181,
              28.91413217410984
            ],
            [
              77.28577676821224,
              28.913595565986167
            ],
            [
              77.28541079456548,
              28.912245249213136
            ],
            [
              77.28514040166498,
              28.911816202199947
            ],
            [
              77.28434248569026,
              28.91055010774982
            ],
            [
              77.28436114100379,
              28.91052609771909
            ],
            [
              77.28512696286835,
              28.909540440781708
            ],
            [
              77.28560109457361,
              28.908777055087906
            ],
            [
              77.28690505310742,
              28.908413456692404
            ],
            [
              77.28899029800341,
              28.90778356880761
            ],
            [
              77.28900041123687,
              28.907780513705045
            ],
            [
              77.28953346793321,
              28.907619494336913
            ],
            [
              77.28953978129302,
              28.907625060372798
            ],
            [
              77.28956964758127,
              28.907651397202237
            ],
            [
              77.28988319375141,
              28.907927875709078
            ],
            [
              77.2916276932871,
              28.909466138931165
            ],
            [
              77.29361903279484,
              28.911663183964396
            ],
            [
              77.29565905200784,
              28.910758549623402
            ],
            [
              77.29754516286322,
              28.909918369931024
            ],
            [
              77.29847375227071,
              28.90949514581002
            ],
            [
              77.29861802529862,
              28.909429390215113
            ],
            [
              77.29861833970897,
              28.90942924709544
            ],
            [
              77.29935467527264,
              28.90909364591266
            ],
            [
              77.2996265764445,
              28.909735499891365
            ],
            [
              77.30060767687195,
              28.909236739190973
            ],
            [
              77.3006080442829,
              28.909236552820545
            ],
            [
              77.30176579302106,
              28.908647989367076
            ],
            [
              77.30340233482254,
              28.907887381690536
            ],
            [
              77.30341679859694,
              28.90787672619497
            ],
            [
              77.30379434164622,
              28.907598574123345
            ],
            [
              77.30379703299879,
              28.907596590858887
            ],
            [
              77.30444825768089,
              28.90711680567346
            ],
            [
              77.3050235846029,
              28.90682105212491
            ],
            [
              77.30502434906921,
              28.9068206589292
            ],
            [
              77.30558541703274,
              28.906532233725788
            ],
            [
              77.30589177308735,
              28.906080747626575
            ],
            [
              77.30589189795317,
              28.906080563609642
            ],
            [
              77.30597919802909,
              28.905951906607225
            ],
            [
              77.30668013727563,
              28.905280966911995
            ],
            [
              77.30668099067515,
              28.905280149052704
            ],
            [
              77.30723478138655,
              28.9047500600708
            ],
            [
              77.30723570215974,
              28.904749177721957
            ],
            [
              77.3073221461412,
              28.904666434284977
            ],
            [
              77.30838270075891,
              28.904097319619716
            ],
            [
              77.31068774633691,
              28.90326402613065
            ],
            [
              77.31189253625324,
              28.902194203719834
            ],
            [
              77.31295849872895,
              28.90137359269359
            ],
            [
              77.31416995234808,
              28.900874054122678
            ],
            [
              77.31465764412256,
              28.90123441838166
            ],
            [
              77.31660099562784,
              28.900378195260952
            ],
            [
              77.31762315175872,
              28.900076871795616
            ],
            [
              77.31788377907377,
              28.90000004183194
            ],
            [
              77.31788546610987,
              28.899999544799883
            ],
            [
              77.31826963513272,
              28.899886295348892
            ],
            [
              77.31844180085018,
              28.900053852618647
            ],
            [
              77.31856172234734,
              28.900170563804004
            ],
            [
              77.3194268439834,
              28.901012531349537
            ],
            [
              77.32098435290447,
              28.903017516688994
            ],
            [
              77.32234560778375,
              28.905287517650045
            ],
            [
              77.32276097978797,
              28.906350992633282
            ],
            [
              77.3229197722858,
              28.90694060636566
            ],
            [
              77.32295244131774,
              28.90708840915433
            ],
            [
              77.3229817210061,
              28.907220877945278
            ],
            [
              77.32298181263427,
              28.90722129394472
            ],
            [
              77.3230710216302,
              28.907624893659083
            ],
            [
              77.32307603422947,
              28.907647568292756
            ],
            [
              77.3239501120689,
              28.90865162793632
            ],
            [
              77.32607221304438,
              28.907462887134255
            ],
            [
              77.32696428324064,
              28.908517541818465
            ],
            [
              77.32824075692002,
              28.90853886211335
            ],
            [
              77.32990337142428,
              28.908317961092425
            ],
            [
              77.32992273640684,
              28.90831538805664
            ],
            [
              77.32992835357233,
              28.90828364031234
            ],
            [
              77.33005293373256,
              28.907579675703303
            ],
            [
              77.33006067541369,
              28.90757764997364
            ],
            [
              77.33010783606778,
              28.9075653068623
            ],
            [
              77.33035270783107,
              28.907501220328918
            ],
            [
              77.33036044322397,
              28.907499196170516
            ],
            [
              77.33089626223982,
              28.90735896373238
            ],
            [
              77.33143403868465,
              28.9071666926217
            ],
            [
              77.33317465210843,
              28.90598826335606
            ],
            [
              77.33464310923874,
              28.905056833122593
            ],
            [
              77.33645266386897,
              28.90421491804827
            ],
            [
              77.33851957504832,
              28.902924465824558
            ],
            [
              77.33854494706522,
              28.902908732684715
            ],
            [
              77.3391072996196,
              28.902560021962458
            ],
            [
              77.33910933879528,
              28.902558757393013
            ],
            [
              77.33996818480075,
              28.902026192990892
            ],
            [
              77.33995167825744,
              28.902011736087438
            ],
            [
              77.33972595498273,
              28.90181404915324
            ],
            [
              77.3396902837811,
              28.90178280902626
            ],
            [
              77.3386213532717,
              28.90084664365982
            ],
            [
              77.33649211158804,
              28.897943479659386
            ],
            [
              77.33507273032,
              28.895727846789843
            ],
            [
              77.3347220352196,
              28.895180418264584
            ],
            [
              77.3347458037437,
              28.89516442677201
            ],
            [
              77.3348100323882,
              28.895121219135635
            ],
            [
              77.33547614664613,
              28.89467309594708
            ],
            [
              77.33546902929412,
              28.894654051246803
            ],
            [
              77.3354525191575,
              28.894609876022653
            ],
            [
              77.33540619932653,
              28.89448594101293
            ],
            [
              77.33522386198507,
              28.893998073032364
            ],
            [
              77.33490509480652,
              28.89294857178285
            ],
            [
              77.33485658308624,
              28.892788852292135
            ],
            [
              77.33485602613077,
              28.892787018965773
            ],
            [
              77.33485012779259,
              28.892767600332917
            ],
            [
              77.33486791892679,
              28.892750449170514
            ],
            [
              77.33521456532021,
              28.89241626795366
            ],
            [
              77.33521470455908,
              28.89241613267555
            ],
            [
              77.33541444855577,
              28.892223571976537
            ],
            [
              77.33600752618781,
              28.891019751203924
            ],
            [
              77.33601331942306,
              28.891007992074307
            ],
            [
              77.33601333738937,
              28.89100795510824
            ],
            [
              77.33613286632276,
              28.890765334968126
            ],
            [
              77.3361329678324,
              28.890765128901716
            ],
            [
              77.33617712991007,
              28.890675489175155
            ],
            [
              77.33617719638544,
              28.8906753546813
            ],
            [
              77.3362193372537,
              28.890589817336725
            ],
            [
              77.33621940013576,
              28.890589689134863
            ],
            [
              77.33626019622608,
              28.89050688171359
            ],
            [
              77.33626029324414,
              28.89050668508483
            ],
            [
              77.33629672621711,
              28.89043273297747
            ],
            [
              77.33629679359076,
              28.89043259612372
            ],
            [
              77.33643062729674,
              28.890160942701645
            ],
            [
              77.33698488333548,
              28.889197473704915
            ],
            [
              77.3372255671529,
              28.888945381123754
            ],
            [
              77.33722610344714,
              28.888944820330064
            ],
            [
              77.3377256592716,
              28.888421584339458
            ],
            [
              77.33869717018338,
              28.887548904210323
            ],
            [
              77.33955473519126,
              28.88665755126766
            ],
            [
              77.3403913748429,
              28.886099619330118
            ],
            [
              77.34039401499152,
              28.886097858248036
            ],
            [
              77.34083063394883,
              28.885806689390396
            ],
            [
              77.34167846660894,
              28.885367971727824
            ],
            [
              77.3426542427217,
              28.885182936305437
            ],
            [
              77.343775205449,
              28.884446869638044
            ],
            [
              77.34505179321441,
              28.884451293256912
            ],
            [
              77.34530338257939,
              28.884535381307963
            ],
            [
              77.34561642120141,
              28.88464000636211
            ],
            [
              77.34561809116951,
              28.88464056403281
            ],
            [
              77.3473221548393,
              28.885210102352655
            ],
            [
              77.34900347586105,
              28.885892030891366
            ],
            [
              77.3505352938633,
              28.886437301342365
            ],
            [
              77.35070931011026,
              28.88646628162239
            ],
            [
              77.35070945024745,
              28.886466305218754
            ],
            [
              77.35154164144183,
              28.88660490234238
            ],
            [
              77.35155833663138,
              28.886578611297868
            ],
            [
              77.35215291085669,
              28.88564232219033
            ],
            [
              77.35237546038347,
              28.885419707304827
            ],
            [
              77.35237902669515,
              28.88541613871101
            ],
            [
              77.35355480911267,
              28.884240010972043
            ],
            [
              77.355749083433,
              28.88231411987853
            ],
            [
              77.3560196874376,
              28.882134114691112
            ],
            [
              77.35600731673784,
              28.882118162091285
            ],
            [
              77.35506464713657,
              28.880902441084682
            ],
            [
              77.35441840001945,
              28.88022719807593
            ],
            [
              77.35441425788771,
              28.880222871028025
            ],
            [
              77.35336852277726,
              28.879130217634916
            ],
            [
              77.35198292894367,
              28.877094774935223
            ],
            [
              77.35105056391701,
              28.875251299626964
            ],
            [
              77.35086605265262,
              28.874855987884473
            ],
            [
              77.35086345741976,
              28.87485042717133
            ],
            [
              77.35037138276499,
              28.873796168322354
            ],
            [
              77.35037099379447,
              28.873795335268824
            ],
            [
              77.35028534661868,
              28.873611836784672
            ],
            [
              77.34977347129839,
              28.872763621316352
            ],
            [
              77.34977262867868,
              28.872762225013606
            ],
            [
              77.34954928414282,
              28.872392124662326
            ],
            [
              77.34934636011006,
              28.871719283069794
            ],
            [
              77.34934514918105,
              28.871715267183912
            ],
            [
              77.34912227536243,
              28.870976274672877
            ],
            [
              77.34917927526384,
              28.87065377774962
            ],
            [
              77.3491796022506,
              28.870651929085856
            ],
            [
              77.34925232087285,
              28.87024050067426
            ],
            [
              77.34925970771941,
              28.870239282911346
            ],
            [
              77.34942760015107,
              28.87021159610763
            ],
            [
              77.35091576991202,
              28.86996618112141
            ],
            [
              77.35091388255161,
              28.86993609489885
            ],
            [
              77.35090704906723,
              28.86982710238119
            ],
            [
              77.3509016924132,
              28.869741662721413
            ],
            [
              77.35090168343002,
              28.86974151404035
            ],
            [
              77.35086379069472,
              28.869137195319887
            ],
            [
              77.35086368918509,
              28.869135563751964
            ],
            [
              77.35083050272354,
              28.868606305055238
            ],
            [
              77.35084509585533,
              28.868600791995178
            ],
            [
              77.35092662425558,
              28.868569992644165
            ],
            [
              77.350976390024,
              28.868551193321924
            ],
            [
              77.35097705028575,
              28.868550943943944
            ],
            [
              77.35202136426142,
              28.86815643272908
            ],
            [
              77.35381702734409,
              28.867934585938446
            ],
            [
              77.35388243457825,
              28.86794768976647
            ],
            [
              77.35573313474346,
              28.868318470693954
            ],
            [
              77.35755045171605,
              28.86886841264789
            ],
            [
              77.35887866116929,
              28.869125148149067
            ],
            [
              77.35945574878924,
              28.86886633896219
            ],
            [
              77.36070563772614,
              28.86922239318034
            ],
            [
              77.36183433943958,
              28.86900621903957
            ],
            [
              77.3625580824196,
              28.869018156089297
            ],
            [
              77.36312553740478,
              28.86921199489302
            ],
            [
              77.36425831387638,
              28.86970025778856
            ],
            [
              77.36500661679626,
              28.87034989238551
            ],
            [
              77.36502518317654,
              28.870339432850933
            ],
            [
              77.36674212239932,
              28.869372207699122
            ],
            [
              77.36795446984212,
              28.868805173868807
            ],
            [
              77.36940211121068,
              28.86792334891495
            ],
            [
              77.37093927508721,
              28.867311320280045
            ],
            [
              77.37273005223307,
              28.866418334361498
            ],
            [
              77.37378714025208,
              28.865982872790806
            ],
            [
              77.37461804056738,
              28.8663319376345
            ],
            [
              77.37461926407279,
              28.86633236087811
            ],
            [
              77.37594200188764,
              28.866789717846373
            ],
            [
              77.37685086968139,
              28.867056195378083
            ],
            [
              77.37784717140008,
              28.86769306518674
            ],
            [
              77.37879945656815,
              28.867708674645595
            ],
            [
              77.37958351782623,
              28.86757058332537
            ],
            [
              77.38071233991393,
              28.866959779068157
            ],
            [
              77.38081695861023,
              28.866903170170023
            ],
            [
              77.38217598387098,
              28.865701127325032
            ],
            [
              77.38359655540677,
              28.866998982352204
            ],
            [
              77.38539524221869,
              28.868437170879265
            ],
            [
              77.38710159659246,
              28.868834020612365
            ],
            [
              77.38850534537791,
              28.86912528581758
            ],
            [
              77.39102223256455,
              28.869032194353746
            ],
            [
              77.39205167762564,
              28.869008726182
            ],
            [
              77.39205748972553,
              28.869008594020098
            ],
            [
              77.39273777670365,
              28.86899308623796
            ],
            [
              77.39406112896614,
              28.8694842443367
            ],
            [
              77.39574217600175,
              28.871088102688965
            ],
            [
              77.39659648461672,
              28.87214181161055
            ],
            [
              77.39676590687931,
              28.872368654889367
            ],
            [
              77.39677452711275,
              28.87238019665337
            ],
            [
              77.39707831937554,
              28.872786950976515
            ],
            [
              77.39698664899575,
              28.873523381884944
            ],
            [
              77.39870869783584,
              28.874993696659622
            ],
            [
              77.4000256352289,
              28.876179414987735
            ],
            [
              77.40002707343164,
              28.87618070898352
            ],
            [
              77.40232110656258,
              28.875362668370112
            ],
            [
              77.40233829043568,
              28.875350727329455
            ],
            [
              77.40233364075576,
              28.875329342794426
            ],
            [
              77.40330037083359,
              28.874657430358727
            ],
            [
              77.40390415279057,
              28.874029936713658
            ],
            [
              77.40463203161416,
              28.87293487397411
            ],
            [
              77.40577705212304,
              28.871024799967586
            ],
            [
              77.40690895004231,
              28.868829394938576
            ],
            [
              77.4079492090228,
              28.86737040939032
            ],
            [
              77.40727606275283,
              28.865850128749905
            ],
            [
              77.40601347343448,
              28.863364344808545
            ],
            [
              77.40497711943054,
              28.86190524084883
            ],
            [
              77.40477278504274,
              28.86074472731277
            ],
            [
              77.40502552065806,
              28.859591620653145
            ],
            [
              77.40531002699,
              28.858740907675987
            ],
            [
              77.40474596224666,
              28.857473929212073
            ],
            [
              77.40360348037679,
              28.855627342689274
            ],
            [
              77.40213694114958,
              28.85379225303853
            ],
            [
              77.40258678959607,
              28.85232368324352
            ],
            [
              77.40224076843012,
              28.85156335936024
            ],
            [
              77.40130223018082,
              28.84998838770356
            ],
            [
              77.40364862341475,
              28.84891956031464
            ],
            [
              77.4054325715678,
              28.848327949887
            ],
            [
              77.40715972733028,
              28.847718628284486
            ],
            [
              77.40836921633387,
              28.84726861835999
            ],
            [
              77.41010544058916,
              28.84622335437091
            ],
            [
              77.41162712469668,
              28.84450374021495
            ],
            [
              77.41104836531197,
              28.84394091897919
            ],
            [
              77.41286768193437,
              28.842561533365846
            ],
            [
              77.413513537386,
              28.84173339606566
            ],
            [
              77.414151176846,
              28.840385202799567
            ],
            [
              77.41364073344033,
              28.839286800152703
            ],
            [
              77.41231347170972,
              28.837168885695846
            ],
            [
              77.40827210755334,
              28.836415844197603
            ],
            [
              77.40724016966733,
              28.837489288624653
            ],
            [
              77.4029367274167,
              28.8356081591006
            ],
            [
              77.40271683690315,
              28.83337394399289
            ],
            [
              77.4022234587929,
              28.832376398303186
            ],
            [
              77.40042833919098,
              28.831693142044344
            ],
            [
              77.39707723780396,
              28.830732984814357
            ],
            [
              77.3928380116214,
              28.829439618615922
            ],
            [
              77.39007725698794,
              28.82848892769615
            ],
            [
              77.39257280828825,
              28.82574546076498
            ],
            [
              77.39433210397496,
              28.823593750726292
            ],
            [
              77.39621862536042,
              28.82172921105587
            ],
            [
              77.39922706977224,
              28.82176136932156
            ],
            [
              77.40216322136321,
              28.821607802888494
            ],
            [
              77.40004945495696,
              28.819778847195288
            ],
            [
              77.40139609873812,
              28.81822413667812
            ],
            [
              77.40343929619061,
              28.816144004715277
            ],
            [
              77.4054904886491,
              28.813678206658622
            ],
            [
              77.40489146057662,
              28.813182092352534
            ],
            [
              77.40359507843392,
              28.812339213358925
            ],
            [
              77.40174383299136,
              28.81162148864297
            ],
            [
              77.39983549781584,
              28.81090281522825
            ],
            [
              77.39905000374489,
              28.810219149643757
            ],
            [
              77.39842384205924,
              28.80920262007455
            ],
            [
              77.39789920078049,
              28.80788583114585
            ],
            [
              77.39667374691767,
              28.806389910998075
            ],
            [
              77.39429273440933,
              28.803701074911114
            ],
            [
              77.39493604762869,
              28.802990328049834
            ],
            [
              77.39704047604756,
              28.80161567870398
            ],
            [
              77.3986076517394,
              28.800433536029075
            ],
            [
              77.401039101956,
              28.798896421368568
            ],
            [
              77.40273804702531,
              28.797783464664278
            ],
            [
              77.4022793708345,
              28.796954149328297
            ],
            [
              77.40289988211701,
              28.79459925469029
            ],
            [
              77.40354054979784,
              28.793100093216964
            ],
            [
              77.40449556314944,
              28.79113638612292
            ],
            [
              77.40484683317162,
              28.7898170196841
            ],
            [
              77.40487803166144,
              28.788324726236443
            ],
            [
              77.40515782004151,
              28.78769188895541
            ],
            [
              77.40567896867044,
              28.786442362247424
            ],
            [
              77.40573690012482,
              28.78458148635442
            ],
            [
              77.4059911107738,
              28.782438643391085
            ],
            [
              77.40476591293084,
              28.781848477118775
            ],
            [
              77.40345538681399,
              28.78078726618446
            ],
            [
              77.4022696851991,
              28.78013062803778
            ],
            [
              77.40132544803767,
              28.77976305002662
            ],
            [
              77.40014510397513,
              28.779760639940594
            ],
            [
              77.39849001375971,
              28.77970018069875
            ],
            [
              77.39736039037477,
              28.779094736006837
            ],
            [
              77.3964069886008,
              28.778257325942945
            ],
            [
              77.39512721361272,
              28.776643016772898
            ],
            [
              77.39393106099784,
              28.777395104630934
            ],
            [
              77.39276167278855,
              28.777778607621023
            ],
            [
              77.39199335630246,
              28.778101546675437
            ],
            [
              77.3912218633735,
              28.778575392110152
            ],
            [
              77.38956502144326,
              28.779504436694868
            ],
            [
              77.388862245142,
              28.779425872077045
            ],
            [
              77.3877657749809,
              28.779961487072985
            ],
            [
              77.38627068010746,
              28.780440259939553
            ],
            [
              77.38474421786093,
              28.780599812614106
            ],
            [
              77.38234050223039,
              28.780828863174428
            ],
            [
              77.3817536849576,
              28.78066829674907
            ],
            [
              77.3802180158777,
              28.781263762206695
            ],
            [
              77.37954445278945,
              28.781604967750766
            ],
            [
              77.37882936597553,
              28.781207463361806
            ],
            [
              77.37648758199735,
              28.782108371931066
            ],
            [
              77.37493496530129,
              28.78260286818056
            ],
            [
              77.37353282090695,
              28.78318368697903
            ],
            [
              77.37189978702668,
              28.78387811072437
            ],
            [
              77.37049051180554,
              28.784794249656983
            ],
            [
              77.36911252760075,
              28.786029578957336
            ],
            [
              77.36776848534066,
              28.786560981045714
            ],
            [
              77.36606297897652,
              28.786180668223516
            ],
            [
              77.3638759630437,
              28.786060771196716
            ],
            [
              77.36339835665488,
              28.786136764991724
            ],
            [
              77.36250965603926,
              28.786742720702218
            ],
            [
              77.3610597176785,
              28.787775514357925
            ],
            [
              77.36183595101721,
              28.78887857311037
            ],
            [
              77.36088655842435,
              28.78965124823256
            ],
            [
              77.36038954573046,
              28.789743685631638
            ],
            [
              77.35940563716942,
              28.790348049772728
            ],
            [
              77.3581337143553,
              28.791065062891533
            ],
            [
              77.35836022185924,
              28.792947384363654
            ],
            [
              77.35794087840314,
              28.79386297362854
            ],
            [
              77.3584423108082,
              28.79445831020956
            ],
            [
              77.35769580811215,
              28.79553622409118
            ],
            [
              77.35948637415393,
              28.79729340160682
            ],
            [
              77.35875747125093,
              28.798438698260487
            ],
            [
              77.35719826541228,
              28.8001237761431
            ],
            [
              77.35507734212815,
              28.80225241539352
            ],
            [
              77.3529606382309,
              28.80417981433837
            ],
            [
              77.3504253688186,
              28.805194525769085
            ],
            [
              77.34823736384068,
              28.805996905234128
            ],
            [
              77.34754297870244,
              28.80373785078055
            ],
            [
              77.34682603507082,
              28.802535094668734
            ],
            [
              77.34544929772763,
              28.800130513777013
            ],
            [
              77.3446099137228,
              28.798422522637775
            ],
            [
              77.34378061779857,
              28.79713401066421
            ],
            [
              77.34357157983196,
              28.796224800699623
            ],
            [
              77.34301490193525,
              28.795544635679676
            ],
            [
              77.34249379283217,
              28.795871439341422
            ],
            [
              77.34135244463616,
              28.79492995893117
            ],
            [
              77.34065679197506,
              28.79540481192449
            ],
            [
              77.34002183129122,
              28.795712941307237
            ],
            [
              77.33906363880185,
              28.795998918706506
            ],
            [
              77.33837120660105,
              28.79632285779777
            ],
            [
              77.3370200856165,
              28.797172564821757
            ],
            [
              77.33512769194405,
              28.79839901964567
            ],
            [
              77.33319256631181,
              28.798953822987126
            ],
            [
              77.33093238798897,
              28.79957027004229
            ],
            [
              77.32916998413137,
              28.80006081360656
            ],
            [
              77.32856677080798,
              28.80021846981205
            ],
            [
              77.32731094670204,
              28.800616815659186
            ],
            [
              77.32628871960425,
              28.80122033036016
            ],
            [
              77.32577187929542,
              28.801345872994567
            ],
            [
              77.32419363725758,
              28.8021245792109
            ],
            [
              77.3232952581931,
              28.80051612470764
            ],
            [
              77.32209704663957,
              28.798684596070554
            ],
            [
              77.32094511628951,
              28.797357016058694
            ],
            [
              77.32010955641283,
              28.796370185901743
            ],
            [
              77.31965831467929,
              28.795222060024024
            ],
            [
              77.31759935089525,
              28.795338502363528
            ],
            [
              77.31559930042418,
              28.795372041713406
            ],
            [
              77.31429463940785,
              28.794947589124167
            ],
            [
              77.31374228510255,
              28.794955088351614
            ],
            [
              77.31259768859846,
              28.795053273389314
            ],
            [
              77.31119823465836,
              28.794610427993764
            ],
            [
              77.30941034200289,
              28.793641069991004
            ],
            [
              77.30679881280952,
              28.792020445791355
            ],
            [
              77.30462038836404,
              28.790625122902327
            ],
            [
              77.30331527010519,
              28.791978527339776
            ],
            [
              77.30241603225129,
              28.793053619371374
            ],
            [
              77.30259179661977,
              28.793727508179206
            ],
            [
              77.30181549231418,
              28.79440211374449
            ],
            [
              77.30057688801391,
              28.7953205101085
            ],
            [
              77.30089208438922,
              28.79571161009786
            ],
            [
              77.29969335181283,
              28.79654680408797
            ],
            [
              77.29853814800185,
              28.797131127859654
            ],
            [
              77.2992486920354,
              28.797730182694067
            ],
            [
              77.29858582159397,
              28.798440230174016
            ],
            [
              77.29716379029587,
              28.799909003699867
            ],
            [
              77.29645479226292,
              28.80098726504373
            ],
            [
              77.2974048217613,
              28.802831566116108
            ],
            [
              77.29816306364151,
              28.80473970661961
            ],
            [
              77.29828901463087,
              28.805077292323674
            ],
            [
              77.29864418244304,
              28.80625738610154
            ],
            [
              77.29825689536787,
              28.806552755968422
            ],
            [
              77.29976604438396,
              28.808959964879016
            ],
            [
              77.29764393262872,
              28.810215631206216
            ],
            [
              77.29448466018242,
              28.811873046150335
            ],
            [
              77.2927116957303,
              28.812832639001048
            ],
            [
              77.29164783171912,
              28.813586173803294
            ],
            [
              77.29214536902913,
              28.81434936233897
            ],
            [
              77.29253163112656,
              28.815848657319716
            ],
            [
              77.29249724541411,
              28.817424691130658
            ],
            [
              77.29287803317821,
              28.819175473054205
            ],
            [
              77.29315779011726,
              28.821192896924124
            ],
            [
              77.29317977458719,
              28.82193125310482
            ],
            [
              77.29269869620984,
              28.82215792730038
            ],
            [
              77.29269357491442,
              28.822392653111688
            ],
            [
              77.29253763995749,
              28.824302061289025
            ],
            [
              77.29262626594681,
              28.825477621320765
            ],
            [
              77.29282656510232,
              28.82677247380219
            ],
            [
              77.29317367682306,
              28.827449235046714
            ],
            [
              77.2926307036243,
              28.82789289784233
            ],
            [
              77.29089154906457,
              28.829037515765208
            ],
            [
              77.28940939891436,
              28.829750392307087
            ],
            [
              77.28726595486607,
              28.831089382869926
            ],
            [
              77.28474020130757,
              28.83248894461353
            ],
            [
              77.28282954758032,
              28.833630559377234
            ],
            [
              77.28134729771712,
              28.834343354097797
            ],
            [
              77.27997052264469,
              28.834588309388693
            ],
            [
              77.2778844710616,
              28.835039225624907
            ],
            [
              77.27630633592328,
              28.83491174130957
            ],
            [
              77.27489661962937,
              28.834921282906205
            ],
            [
              77.27381132540877,
              28.834902796996374
            ],
            [
              77.27276128467317,
              28.83414693286641
            ],
            [
              77.2713391752216,
              28.833854337328418
            ],
            [
              77.26876839360949,
              28.833827249144118
            ],
            [
              77.26774790385346,
              28.83389368766066
            ],
            [
              77.26663368927059,
              28.833891430706586
            ],
            [
              77.26511713544164,
              28.833563620981966
            ],
            [
              77.26315453214151,
              28.83359715432104
            ],
            [
              77.26182526177791,
              28.832551312286107
            ],
            [
              77.26146794429725,
              28.83234393168208
            ],
            [
              77.26045513064535,
              28.832494317936423
            ],
            [
              77.25956818803272,
              28.832982293664994
            ],
            [
              77.25890897912441,
              28.833507712385778
            ],
            [
              77.25837266873009,
              28.834504850615087
            ],
            [
              77.25791459261391,
              28.83454731776519
            ],
            [
              77.25644736168395,
              28.831989575356346
            ],
            [
              77.25500306204822,
              28.830119862186024
            ],
            [
              77.25340352364996,
              28.828381642778943
            ],
            [
              77.25306145057968,
              28.82748683831729
            ],
            [
              77.25223561227098,
              28.82693594483471
            ],
            [
              77.25237556799563,
              28.826636445151088
            ],
            [
              77.2515486238608,
              28.826135845277733
            ],
            [
              77.2515619943855,
              28.825532270297245
            ],
            [
              77.25061562821683,
              28.825264426369515
            ],
            [
              77.25072781791435,
              28.823639431012907
            ],
            [
              77.24902648781797,
              28.822652793909064
            ],
            [
              77.2487997970577,
              28.822701378742398
            ],
            [
              77.24861703840641,
              28.82274054912626
            ],
            [
              77.24749132808286,
              28.823229019968842
            ],
            [
              77.24705941629762,
              28.823289301280376
            ],
            [
              77.2449375111549,
              28.823279863291578
            ],
            [
              77.24247321583657,
              28.823454085813363
            ],
            [
              77.24086732634925,
              28.82375141381877
            ],
            [
              77.24007642262363,
              28.82335859082477
            ],
            [
              77.23808411922357,
              28.82305336783214
            ],
            [
              77.23602913317964,
              28.822801205345645
            ],
            [
              77.23348407392737,
              28.82245928938775
            ],
            [
              77.23068160243045,
              28.822627483855737
            ],
            [
              77.22929765610712,
              28.82331449075819
            ],
            [
              77.22864942640821,
              28.82410902889528
            ],
            [
              77.22875607439872,
              28.824842155952048
            ],
            [
              77.22891453811317,
              28.826009528988095
            ],
            [
              77.22905374913444,
              28.82666196435837
            ],
            [
              77.22760442432302,
              28.82820774880651
            ],
            [
              77.22602421587304,
              28.830103342853896
            ],
            [
              77.22701641857905,
              28.831122654947006
            ],
            [
              77.22427872459728,
              28.832510645659255
            ],
            [
              77.22299815190526,
              28.833382200645474
            ],
            [
              77.22203260131538,
              28.833920665655672
            ],
            [
              77.22125537264334,
              28.83497699007452
            ],
            [
              77.22058179967365,
              28.83621115392497
            ],
            [
              77.2195618075843,
              28.83780492816366
            ],
            [
              77.219343994874,
              28.838095236058553
            ],
            [
              77.21885700737867,
              28.838744304829532
            ],
            [
              77.21857890962796,
              28.839114956186503
            ],
            [
              77.2175354059327,
              28.84038329536742
            ],
            [
              77.21664896188506,
              28.841505396103045
            ],
            [
              77.21668980738272,
              28.84242695274908
            ],
            [
              77.21670118813904,
              28.843877288914616
            ],
            [
              77.21670574888574,
              28.844458504220835
            ],
            [
              77.21673592509278,
              28.844873263941487
            ],
            [
              77.2167607590188,
              28.84521461212445
            ],
            [
              77.21680383593161,
              28.84580670135575
            ],
            [
              77.21684681492808,
              28.846397430689425
            ],
            [
              77.21686347238838,
              28.846455943910264
            ],
            [
              77.21706209618591,
              28.847153659050026
            ],
            [
              77.21720324397492,
              28.847649469835904
            ],
            [
              77.2172912869576,
              28.84841315378589
            ],
            [
              77.2172991579961,
              28.8487862901285
            ],
            [
              77.21731577143899,
              28.849573882065496
            ],
            [
              77.2173326992922,
              28.85079222929925
            ],
            [
              77.2173205271201,
              28.85133484591082
            ],
            [
              77.21723492306343,
              28.85151837428146
            ],
            [
              77.21692383917546,
              28.852185311053777
            ],
            [
              77.21670650616552,
              28.852651248963145
            ],
            [
              77.2165062312645,
              28.85299340877494
            ],
            [
              77.21587478479003,
              28.854072192049436
            ],
            [
              77.21480128904237,
              28.855299338665574
            ],
            [
              77.21423590916547,
              28.855817620331603
            ],
            [
              77.21378697161067,
              28.85594522064896
            ],
            [
              77.21355354797736,
              28.855995881191085
            ],
            [
              77.21315651597797,
              28.85608204890234
            ],
            [
              77.21268951420109,
              28.856183401299713
            ],
            [
              77.21154318664344,
              28.85654259727124
            ],
            [
              77.21096484767027,
              28.85695230573896
            ],
            [
              77.21016550337426,
              28.857646262113402
            ],
            [
              77.20991443682875,
              28.857715766384107
            ],
            [
              77.2099156495544,
              28.857715801001696
            ],
            [
              77.20986336221497,
              28.857835452689276
            ],
            [
              77.20978856668778,
              28.858006607209944
            ],
            [
              77.20953210935225,
              28.858479983791344
            ],
            [
              77.20934479175091,
              28.858830422328012
            ],
            [
              77.20921980555217,
              28.859220441182114
            ],
            [
              77.20913926080716,
              28.860015745240812
            ],
            [
              77.20923836744086,
              28.860582540647698
            ],
            [
              77.20923155461777,
              28.860745059317225
            ],
            [
              77.20923158516048,
              28.860988666909634
            ],
            [
              77.20913275341125,
              28.861161716209832
            ],
            [
              77.20889598624844,
              28.861355070088408
            ],
            [
              77.20854272915284,
              28.861613489664016
            ],
            [
              77.20819392500614,
              28.861840258368343
            ],
            [
              77.20787187179025,
              28.86192699869681
            ],
            [
              77.20762321632299,
              28.86199396919227
            ],
            [
              77.20727212237057,
              28.862112501946367
            ],
            [
              77.20619662697311,
              28.862387255260476
            ],
            [
              77.20512291473143,
              28.862504075647923
            ],
            [
              77.20415032763793,
              28.862556076723394
            ],
            [
              77.20353026641139,
              28.862557193875368
            ],
            [
              77.20262968108453,
              28.862621540232873
            ],
            [
              77.20239004560105,
              28.86267959195777
            ],
            [
              77.20119281590611,
              28.86301494193526
            ],
            [
              77.20053480714705,
              28.863161026111545
            ],
            [
              77.20001616212281,
              28.86335445730361
            ],
            [
              77.1991969704489,
              28.863633993730883
            ],
            [
              77.19903426938127,
              28.8636952948229
            ],
            [
              77.19869596294697,
              28.86369179314059
            ],
            [
              77.19856343179816,
              28.863725533901892
            ],
            [
              77.19774935423315,
              28.86400497807226
            ],
            [
              77.1973939717236,
              28.864164157295072
            ],
            [
              77.19687379597013,
              28.864285420617673
            ],
            [
              77.19619632431208,
              28.86448142619976
            ],
            [
              77.19527502922467,
              28.864780649373085
            ],
            [
              77.19494876830004,
              28.8648626551919
            ],
            [
              77.19426786956917,
              28.865139910046036
            ],
            [
              77.19354443740626,
              28.865489018629358
            ],
            [
              77.19343583378334,
              28.865541427297725
            ],
            [
              77.1928004688576,
              28.86579086570082
            ],
            [
              77.19216937003118,
              28.865999631089526
            ],
            [
              77.1916761185834,
              28.866183593794204
            ],
            [
              77.19122812336131,
              28.866326219125543
            ],
            [
              77.19097088988138,
              28.866388796226882
            ],
            [
              77.190453099155,
              28.866514759827407
            ],
            [
              77.19033827829199,
              28.8669045980193
            ],
            [
              77.19018664896025,
              28.86724992062418
            ],
            [
              77.19017077303425,
              28.867279209919786
            ],
            [
              77.190097837918,
              28.86741377096269
            ],
            [
              77.18998752659775,
              28.86745872084329
            ],
            [
              77.18979802878519,
              28.867535938333198
            ],
            [
              77.18942174876719,
              28.867677391217136
            ],
            [
              77.18930304628387,
              28.86788232794725
            ],
            [
              77.18928113727239,
              28.86812290738439
            ],
            [
              77.18926971968514,
              28.868248285163983
            ],
            [
              77.18929095316349,
              28.868527640079925
            ],
            [
              77.18938881203728,
              28.86928394979271
            ],
            [
              77.18948583727452,
              28.869756058824066
            ],
            [
              77.18958448756406,
              28.87006122504995
            ],
            [
              77.18958970677586,
              28.8700656516414
            ],
            [
              77.18960154567297,
              28.870385761280883
            ],
            [
              77.18965911510631,
              28.870687082798316
            ],
            [
              77.18977710971718,
              28.871181408642933
            ],
            [
              77.18983288521483,
              28.871397044116865
            ],
            [
              77.18989206712408,
              28.87157683427125
            ],
            [
              77.18992594169512,
              28.871679744090198
            ],
            [
              77.1900222303138,
              28.871872165094835
            ],
            [
              77.19004550386617,
              28.871911725240928
            ],
            [
              77.19006989492276,
              28.87195318907848
            ],
            [
              77.19026670771667,
              28.872287741361095
            ],
            [
              77.19061365414741,
              28.872701652200718
            ],
            [
              77.19080424970122,
              28.8729917879525
            ],
            [
              77.19103345484596,
              28.873412122087114
            ],
            [
              77.19119425957007,
              28.873747854355233
            ],
            [
              77.19138011381581,
              28.874056111365196
            ],
            [
              77.19173987471406,
              28.874591614937845
            ],
            [
              77.19191264859097,
              28.87493023112472
            ],
            [
              77.19195903130404,
              28.875021132826703
            ],
            [
              77.19194854167647,
              28.87507927988785
            ],
            [
              77.19181212172079,
              28.875835556075533
            ],
            [
              77.19167994001661,
              28.876130940084316
            ],
            [
              77.19142525326053,
              28.876694483824977
            ],
            [
              77.19096426300953,
              28.87716754009719
            ],
            [
              77.19073286417888,
              28.877404994843804
            ],
            [
              77.18958528886128,
              28.878407113043423
            ],
            [
              77.18866917166318,
              28.879583819692936
            ],
            [
              77.18860704597478,
              28.87966361529076
            ],
            [
              77.18868235713494,
              28.880077430672056
            ],
            [
              77.18885010134457,
              28.880255158304827
            ],
            [
              77.1891722982909,
              28.8805528777198
            ],
            [
              77.18949300942374,
              28.880849223685054
            ],
            [
              77.1908562630545,
              28.882306763808838
            ],
            [
              77.19245307326928,
              28.883900337311434
            ],
            [
              77.19404452413504,
              28.885236832641304
            ],
            [
              77.19546426383087,
              28.886206181648355
            ],
            [
              77.19702759742826,
              28.886934076258637
            ],
            [
              77.1982442118687,
              28.887505204178122
            ],
            [
              77.19886708482206,
              28.887630375304735
            ],
            [
              77.20042008060715,
              28.88762305815196
            ],
            [
              77.20110899859854,
              28.88772007271762
            ],
            [
              77.20248181030395,
              28.88791868392828
            ],
            [
              77.20376267584675,
              28.888132319114895
            ],
            [
              77.20532442212102,
              28.888296230118108
            ],
            [
              77.20599151464427,
              28.888330419078073
            ],
            [
              77.20617388701997,
              28.88822818408104
            ],
            [
              77.20685680157034,
              28.888041057642464
            ],
            [
              77.20757418268151,
              28.88802930210813
            ],
            [
              77.20821651224563,
              28.888104486851848
            ],
            [
              77.21039510916762,
              28.887653832977804
            ],
            [
              77.21039572720852,
              28.887653706345425
            ],
            [
              77.21046953908049,
              28.887622258243894
            ],
            [
              77.21197052690219,
              28.886982744329178
            ],
            [
              77.21316532126438,
              28.88603831100513
            ],
            [
              77.21421469814497,
              28.885488736800472
            ],
            [
              77.2154084468682,
              28.884738286927963
            ],
            [
              77.21640665391358,
              28.883711345990836
            ],
            [
              77.21750487578944,
              28.88210229286641
            ],
            [
              77.21774879533854,
              28.88174490705431
            ],
            [
              77.21860398430248,
              28.880427812118874
            ],
            [
              77.21912851958005,
              28.879619944977744
            ],
            [
              77.22056134593295,
              28.878788822693533
            ],
            [
              77.22204268759938,
              28.87855236931247
            ],
            [
              77.22351877142647,
              28.878550571132035
            ],
            [
              77.22412365292138,
              28.87877781495889
            ],
            [
              77.22509464460691,
              28.8791425916584
            ],
            [
              77.22666779229877,
              28.880086514260075
            ],
            [
              77.22810077765348,
              28.881186118091048
            ],
            [
              77.22843537943555,
              28.882213655051725
            ],
            [
              77.22832900992277,
              28.883713143295402
            ],
            [
              77.22773907639422,
              28.886091296073875
            ],
            [
              77.22740190004053,
              28.887824673326893
            ],
            [
              77.22740240758866,
              28.887843890744602
            ],
            [
              77.22741693514345,
              28.88839505779555
            ],
            [
              77.22742888183842,
              28.888848275679127
            ],
            [
              77.22759731685248,
              28.889774802689
            ],
            [
              77.22754618744146,
              28.89074105137248
            ],
            [
              77.22766465726113,
              28.891487956333393
            ],
            [
              77.22757005028868,
              28.89209853537336
            ],
            [
              77.22750003559544,
              28.893294789363647
            ],
            [
              77.22749869081746,
              28.893317747119987
            ],
            [
              77.22750410316704,
              28.893330224056786
            ],
            [
              77.22771435565592,
              28.89381492562098
            ],
            [
              77.22788013255509,
              28.894191596246397
            ],
            [
              77.227956799273,
              28.89436579514406
            ],
            [
              77.22843508388983,
              28.894678178990002
            ],
            [
              77.22895833367821,
              28.894935681228855
            ],
            [
              77.22989152515494,
              28.895425488976382
            ],
            [
              77.23053813968296,
              28.8959380817114
            ],
            [
              77.23139059866678,
              28.896726956905894
            ],
            [
              77.23238737739085,
              28.897853107645403
            ],
            [
              77.23247279010637,
              28.89794960538637
            ],
            [
              77.23287740658171,
              28.8988902513452
            ],
            [
              77.23292609706677,
              28.90044581180302
            ],
            [
              77.23279996282108,
              28.901024261820684
            ],
            [
              77.23277757231263,
              28.90112694506774
            ],
            [
              77.23249662959742,
              28.9024153112378
            ],
            [
              77.23258865481174,
              28.903361139324506
            ],
            [
              77.23260193730152,
              28.903568865059675
            ],
            [
              77.23261948768724,
              28.903843327068913
            ],
            [
              77.23273137375419,
              28.904024066091587
            ],
            [
              77.23282128074106,
              28.90416929989588
            ],
            [
              77.2331249930538,
              28.904466514286813
            ],
            [
              77.2333865447353,
              28.904949385786452
            ],
            [
              77.23358688970491,
              28.905446806620755
            ],
            [
              77.23406562078443,
              28.906494486823046
            ],
            [
              77.23434883893228,
              28.907270225381218
            ],
            [
              77.23436009033118,
              28.907335446028195
            ],
            [
              77.23441323825666,
              28.90764358682434
            ],
            [
              77.23460189075453,
              28.908551718613904
            ],
            [
              77.23474616468074,
              28.909063601693646
            ],
            [
              77.23463273261318,
              28.90975118795942
            ],
            [
              77.23449637913285,
              28.910804561991387
            ],
            [
              77.23436309070426,
              28.91112832923098
            ],
            [
              77.23434914885104,
              28.911162192195714
            ],
            [
              77.234345350774,
              28.91154639370111
            ],
            [
              77.23712706040808,
              28.911360452661356
            ],
            [
              77.23724274904366,
              28.911352719625686
            ],
            [
              77.2395230190861,
              28.911229591753457
            ],
            [
              77.24045761912119,
              28.911189691937725
            ],
            [
              77.24046815456285,
              28.91118924214075
            ],
            [
              77.24223399986629,
              28.911113854723
            ],
            [
              77.24333614199008,
              28.911376575339116
            ],
            [
              77.243411233063,
              28.911943779345666
            ],
            [
              77.24341132738608,
              28.911944490208477
            ],
            [
              77.24341519643002,
              28.91197371578663
            ],
            [
              77.2441577860647,
              28.911796942039018
            ],
            [
              77.2442621936569,
              28.91263824514872
            ],
            [
              77.2462221918427,
              28.913078200859054
            ],
            [
              77.24659993880957,
              28.913143580628088
            ],
            [
              77.24660506998649,
              28.913144469196283
            ],
            [
              77.24726463103438,
              28.91325862419884
            ],
            [
              77.24828171527719,
              28.913194875378064
            ],
            [
              77.24883129827978,
              28.913393892351348
            ],
            [
              77.24994597190177,
              28.91446044373247
            ],
            [
              77.24995520837952,
              28.914469281335133
            ],
            [
              77.25020111679866,
              28.91470457328364
            ],
            [
              77.25136973964334,
              28.915294836228046
            ],
            [
              77.25316625702386,
              28.916124107780252
            ],
            [
              77.25317078273625,
              28.916126197035002
            ],
            [
              77.25363377892525,
              28.9163399157019
            ],
            [
              77.2543436761718,
              28.916989362318684
            ],
            [
              77.25486082460277,
              28.917736115338705
            ],
            [
              77.25489228809558,
              28.918025424654395
            ],
            [
              77.2548932223435,
              28.918034015053053
            ],
            [
              77.25505085331967,
              28.919483456340807
            ],
            [
              77.25515357207915,
              28.919866803776802
            ],
            [
              77.25515440032584,
              28.919869894692905
            ],
            [
              77.25540296775819,
              28.920797552216293
            ],
            [
              77.25592013685043,
              28.92154429825936
            ],
            [
              77.25609254780795,
              28.92180864835814
            ],
            [
              77.25609460674661,
              28.92181180526371
            ],
            [
              77.25658380769075,
              28.922561872293112
            ],
            [
              77.25715482629269,
              28.92385770831735
            ],
            [
              77.2571645945731,
              28.923879877767455
            ],
            [
              77.25848229014423,
              28.923768299245
            ],
            [
              77.25967104962433,
              28.923453263624687
            ],
            [
              77.26076409900081,
              28.922977688340374
            ],
            [
              77.26076432986783,
              28.922977586911717
            ],
            [
              77.26119150124329,
              28.922791729265903
            ],
            [
              77.2620585533589,
              28.922370550873385
            ],
            [
              77.26264312394518,
              28.921793605288975
            ],
            [
              77.26376045208885,
              28.92125930837193
            ],
            [
              77.26492975226326,
              28.92096067016567
            ],
            [
              77.26495495539686,
              28.92095503879748
            ],
            [
              77.2658013130233,
              28.920765940388133
            ],
            [
              77.26658103182527,
              28.92084634122174
            ],
            [
              77.26781803532769,
              28.920934546653154
            ],
            [
              77.26852560414103,
              28.920829237159296
            ],
            [
              77.26970766488404,
              28.920815870308598
            ],
            [
              77.27020305791548,
              28.9208243213036
            ],
            [
              77.27091971408619,
              28.921171943752938
            ],
            [
              77.27125811394528,
              28.92225098689576
            ],
            [
              77.27141556436008,
              28.92280235020601
            ],
            [
              77.27141692171449,
              28.922807106355123
            ],
            [
              77.2718067186826,
              28.924172102693277
            ],
            [
              77.27277527413709,
              28.92606682716277
            ],
            [
              77.27353327437045,
              28.927136235919697
            ],
            [
              77.2750496799774,
              28.92925827461318
            ],
            [
              77.27509177143831,
              28.92931365681776
            ],
            [
              77.2750960195713,
              28.92931924684857
            ],
            [
              77.27592432375546,
              28.930409092676456
            ],
            [
              77.27592619225122,
              28.930411550377155
            ],
            [
              77.27632799789805,
              28.930940230630096
            ],
            [
              77.27635858463515,
              28.93093808899776
            ],
            [
              77.27682588195773,
              28.930905362272306
            ],
            [
              77.2784471703657,
              28.930791817924284
            ],
            [
              77.2808393624077,
              28.930362933335946
            ],
            [
              77.28280975320304,
              28.93004423826578
            ],
            [
              77.28418359886935,
              28.929111690611546
            ],
            [
              77.28500325227729,
              28.92866098995405
            ],
            [
              77.28507113975994,
              28.92862366072798
            ],
            [
              77.28510423279668,
              28.928619383657473
            ]
          ]
        ]
      }
    }
  ]
}