{
  "type": "FeatureCollection",
  "features": [
    {
      "type": "Feature",
      "properties": {
        "object_id": "09-135-00718",
        "stcode11": "09",
        "dtcode11": "135",
        "sdtcode11": "00718",
        "stname": "UTTAR PRADESH",
        "dtname": "Moradabad",
        "sdtname": "Kanth",
        "st_area_sh": 0.0,
        "st_length_": 0.0,
        "remarks": "",
        "dist_lgd": 171,
        "state_lgd": 9,
        "subdt_lgd": 718,
        "ac_no": 25,
        "st_length(shape)": 111753.1334119466,
        "st_area(shape)": 87369328.53357174
      },
      "geometry": {
        "type": "Polygon",
        "coordinates": [
          [
            [
              78.6990652011621,
              29.052665661234734
            ],
            [
              78.7010306952408,
              29.054193836930096
            ],
            [
              78.70271318766565,
              29.055526850249837
            ],
            [
              78.70357158181857,
              29.05565770933681
            ],
            [
              78.70542044762396,
              29.056217905816492
            ],
            [
              78.70710824190563,
              29.056740578321445
            ],
            [
              78.70884415624211,
              29.058452215272833
            ],
            [
              78.70920722114398,
              29.058368339092056
            ],
            [
              78.71064733642709,
              29.059809752795463
            ],
            [
              78.7118156026406,
              29.061102959859276
            ],
            [
              78.71260321404068,
              29.060360731734907
            ],
            [
              78.71355530427435,
              29.060966055988942
            ],
            [
              78.71349848044277,
              29.06047111782196
            ],
            [
              78.71365537659702,
              29.06012958400562
            ],
            [
              78.71363194673778,
              29.059924728346797
            ],
            [
              78.71351713755287,
              29.059779724841164
            ],
            [
              78.7135461387635,
              29.0595186482887
            ],
            [
              78.71350691382663,
              29.059177281713268
            ],
            [
              78.71313286881706,
              29.0579689133378
            ],
            [
              78.71324729531963,
              29.057769104080613
            ],
            [
              78.71311932132426,
              29.055970057348407
            ],
            [
              78.71309383522134,
              29.05566197879981
            ],
            [
              78.71342620199499,
              29.055097933072
            ],
            [
              78.71374220326081,
              29.0543214780975
            ],
            [
              78.7141410714166,
              29.053711308951254
            ],
            [
              78.71429722107088,
              29.053531172059138
            ],
            [
              78.71489219504649,
              29.053322929735284
            ],
            [
              78.71454814658088,
              29.052832742750084
            ],
            [
              78.71416616765073,
              29.052389361185494
            ],
            [
              78.71353447773282,
              29.051794482775378
            ],
            [
              78.7135294166245,
              29.051679230375125
            ],
            [
              78.71388215718879,
              29.051402045799133
            ],
            [
              78.71436909797171,
              29.05105884381971
            ],
            [
              78.71555082813471,
              29.050335879093694
            ],
            [
              78.71549000320682,
              29.050236401783987
            ],
            [
              78.71552451737836,
              29.05010689125159
            ],
            [
              78.71668125281691,
              29.0494186383402
            ],
            [
              78.7171136218446,
              29.049065732741695
            ],
            [
              78.71713124679046,
              29.049025819302006
            ],
            [
              78.71767866934485,
              29.047221885332284
            ],
            [
              78.717912431643,
              29.045850718325052
            ],
            [
              78.71802660032913,
              29.04495842414461
            ],
            [
              78.71847523515167,
              29.044120312103754
            ],
            [
              78.71896827459703,
              29.04342563196916
            ],
            [
              78.71892636190083,
              29.043060862691153
            ],
            [
              78.7182430422103,
              29.04167209370943
            ],
            [
              78.7183116258873,
              29.041051837819406
            ],
            [
              78.71940242408566,
              29.03983113238289
            ],
            [
              78.71975726401276,
              29.039406742085696
            ],
            [
              78.71994378480846,
              29.03913142124462
            ],
            [
              78.72005482556075,
              29.038862737774235
            ],
            [
              78.72006856888628,
              29.038602627714468
            ],
            [
              78.72006531788325,
              29.038574096039035
            ],
            [
              78.71998422606426,
              29.038437609938608
            ],
            [
              78.71972910362526,
              29.038306792623786
            ],
            [
              78.7191350917453,
              29.038167769347393
            ],
            [
              78.718816294024,
              29.03805211530977
            ],
            [
              78.71859489703571,
              29.03792798122466
            ],
            [
              78.71818920437869,
              29.03712849470023
            ],
            [
              78.7165346648305,
              29.0370617339491
            ],
            [
              78.71461274622958,
              29.037232044386712
            ],
            [
              78.71308715804382,
              29.03738250434734
            ],
            [
              78.71243874059702,
              29.037381150317806
            ],
            [
              78.71194426744044,
              29.037289919005307
            ],
            [
              78.71163615428115,
              29.037050322051932
            ],
            [
              78.71124945829742,
              29.036324204710677
            ],
            [
              78.7109084901549,
              29.035624210608972
            ],
            [
              78.71089222615669,
              29.0351825560487
            ],
            [
              78.71139869092399,
              29.034080291687626
            ],
            [
              78.71154956387427,
              29.033523021675677
            ],
            [
              78.7127539818881,
              29.031836798791552
            ],
            [
              78.71358840629426,
              29.030695816828043
            ],
            [
              78.71449542715179,
              29.02919069280002
            ],
            [
              78.71500745338902,
              29.02792896170502
            ],
            [
              78.71627222471521,
              29.025813016273723
            ],
            [
              78.71702899425661,
              29.024993389321565
            ],
            [
              78.71715799502635,
              29.024903217690227
            ],
            [
              78.71731254657776,
              29.024863298046967
            ],
            [
              78.71757862397165,
              29.024839670349003
            ],
            [
              78.71917811116593,
              29.025424144015496
            ],
            [
              78.72023884903996,
              29.026170210023295
            ],
            [
              78.72183525860609,
              29.026509989173498
            ],
            [
              78.72219296326064,
              29.026592034375852
            ],
            [
              78.72309045658629,
              29.0266962520799
            ],
            [
              78.72409604508836,
              29.027352481870835
            ],
            [
              78.72468011890633,
              29.026325117808884
            ],
            [
              78.724847777776,
              29.025822498683965
            ],
            [
              78.7247200310544,
              29.025163172967453
            ],
            [
              78.72489771602098,
              29.024446236178232
            ],
            [
              78.72263076799416,
              29.024327183621583
            ],
            [
              78.72170980438509,
              29.0231742606375
            ],
            [
              78.72101177029019,
              29.02192530630445
            ],
            [
              78.71948857970791,
              29.019149084272037
            ],
            [
              78.71853089476664,
              29.01729819722603
            ],
            [
              78.71743173055806,
              29.01489307307083
            ],
            [
              78.71853110587078,
              29.014999392197943
            ],
            [
              78.7188974361487,
              29.01467737468274
            ],
            [
              78.71877860430796,
              29.01417869588204
            ],
            [
              78.71876961666352,
              29.01372690987619
            ],
            [
              78.71880022585852,
              29.01303583136574
            ],
            [
              78.71866481740587,
              29.01241602325347
            ],
            [
              78.71839668107336,
              29.011784429074677
            ],
            [
              78.71837576020867,
              29.011649517244532
            ],
            [
              78.71842129131886,
              29.01153227566355
            ],
            [
              78.71851296439358,
              29.01134968164672
            ],
            [
              78.71856957801943,
              29.01118917364501
            ],
            [
              78.7185427929526,
              29.010955859850622
            ],
            [
              78.71851719815355,
              29.010778929007852
            ],
            [
              78.7185685593299,
              29.010712975316487
            ],
            [
              78.7187261687465,
              29.010708459671463
            ],
            [
              78.71936149234975,
              29.01073223436748
            ],
            [
              78.72097376526546,
              29.01069771419521
            ],
            [
              78.72200383914725,
              29.010705377751457
            ],
            [
              78.72347673036184,
              29.0104851109712
            ],
            [
              78.72434796323675,
              29.010323017059502
            ],
            [
              78.72535446263055,
              29.0101487946919
            ],
            [
              78.72597776408034,
              29.00988132498251
            ],
            [
              78.72614877636099,
              29.00905991080822
            ],
            [
              78.72611545694878,
              29.008629193924055
            ],
            [
              78.72612933232664,
              29.007746215281088
            ],
            [
              78.72599882328552,
              29.006890320040274
            ],
            [
              78.7252106755912,
              29.00663115468808
            ],
            [
              78.72483171589873,
              29.00703925373797
            ],
            [
              78.72410535971956,
              29.00766540661024
            ],
            [
              78.72322764460152,
              29.00853903393155
            ],
            [
              78.72087252333633,
              29.00616165726671
            ],
            [
              78.72007855366064,
              29.005155447254303
            ],
            [
              78.72223411688044,
              29.00349316528123
            ],
            [
              78.72425192434973,
              29.002150763751487
            ],
            [
              78.72652010217018,
              29.000609211335526
            ],
            [
              78.72727274395288,
              29.000007265070312
            ],
            [
              78.72743694341042,
              28.999887753792525
            ],
            [
              78.72900409125447,
              28.99880001968396
            ],
            [
              78.73101775120209,
              28.99772570491217
            ],
            [
              78.73273370676961,
              28.996854523233768
            ],
            [
              78.73352390082614,
              28.99661290433559
            ],
            [
              78.73441357072396,
              28.995349444300196
            ],
            [
              78.7349751803716,
              28.99487556472483
            ],
            [
              78.73489288391178,
              28.99436809472265
            ],
            [
              78.73497434404008,
              28.99301693864873
            ],
            [
              78.73573359023675,
              28.9927708469975
            ],
            [
              78.73629292265515,
              28.99278414798972
            ],
            [
              78.73571522687571,
              28.991913714344697
            ],
            [
              78.73474213582735,
              28.99011854168757
            ],
            [
              78.73409993382398,
              28.988339169618023
            ],
            [
              78.73439731930213,
              28.98784505088385
            ],
            [
              78.73395003285084,
              28.98582649283233
            ],
            [
              78.73399848707895,
              28.9853392063735
            ],
            [
              78.73444450241415,
              28.984511305250745
            ],
            [
              78.73446239595627,
              28.984249643870488
            ],
            [
              78.73490596967054,
              28.983915626364674
            ],
            [
              78.73474152227799,
              28.983306662269566
            ],
            [
              78.73429503442897,
              28.982885042319804
            ],
            [
              78.73417920475792,
              28.98222191900282
            ],
            [
              78.73528467513981,
              28.981714004993083
            ],
            [
              78.73666691017253,
              28.980829309658752
            ],
            [
              78.73768997719509,
              28.97994479771654
            ],
            [
              78.73990057570079,
              28.978739428870515
            ],
            [
              78.73905668844141,
              28.97869686038057
            ],
            [
              78.73892831739069,
              28.9785368046191
            ],
            [
              78.73785793340714,
              28.9770778176652
            ],
            [
              78.73742142314599,
              28.976302071118766
            ],
            [
              78.73633072735558,
              28.975172458871953
            ],
            [
              78.73550644313231,
              28.97330278513806
            ],
            [
              78.73518296339178,
              28.972700716069706
            ],
            [
              78.73455636422658,
              28.971106222329322
            ],
            [
              78.73380671473207,
              28.969466656884695
            ],
            [
              78.73327248214103,
              28.96806832013856
            ],
            [
              78.73286700777463,
              28.96738281518379
            ],
            [
              78.73345166819246,
              28.967069065132154
            ],
            [
              78.73490052677822,
              28.966443768307116
            ],
            [
              78.73386626944215,
              28.96516743214772
            ],
            [
              78.73305017965095,
              28.964168465876572
            ],
            [
              78.73176205122905,
              28.962666702831022
            ],
            [
              78.73006072831919,
              28.960659752963245
            ],
            [
              78.72864425220281,
              28.95893463538415
            ],
            [
              78.72745368890561,
              28.95753425265563
            ],
            [
              78.72605535157142,
              28.955917420069945
            ],
            [
              78.7242902078522,
              28.953820221286566
            ],
            [
              78.72315615217964,
              28.952437846082052
            ],
            [
              78.72237876720075,
              28.951644090358748
            ],
            [
              78.7223761962224,
              28.951610242974333
            ],
            [
              78.72135062110357,
              28.95234580168458
            ],
            [
              78.72029947903341,
              28.953153663022213
            ],
            [
              78.71943543537569,
              28.953889121948798
            ],
            [
              78.71886876641639,
              28.95434038729669
            ],
            [
              78.7176867191481,
              28.95492267668675
            ],
            [
              78.71647901689362,
              28.955676269916857
            ],
            [
              78.71678104486517,
              28.955919833148513
            ],
            [
              78.71778208340034,
              28.956727087314025
            ],
            [
              78.71863378510437,
              28.957238918817172
            ],
            [
              78.71900568942861,
              28.957541108992903
            ],
            [
              78.71570559707837,
              28.959853878215352
            ],
            [
              78.7102512790998,
              28.96352477182487
            ],
            [
              78.70980509488132,
              28.96393984110826
            ],
            [
              78.70911250637369,
              28.963362513122064
            ],
            [
              78.7088276973095,
              28.963175410631976
            ],
            [
              78.707545222884,
              28.96241997072086
            ],
            [
              78.70699878937478,
              28.961932823176955
            ],
            [
              78.70678850364824,
              28.962176437712994
            ],
            [
              78.70573453996977,
              28.963207478744025
            ],
            [
              78.70488579462135,
              28.964039868387196
            ],
            [
              78.70350104789911,
              28.965808457922236
            ],
            [
              78.70275230210977,
              28.967182222338106
            ],
            [
              78.70200863180182,
              28.96796044061985
            ],
            [
              78.70037496999917,
              28.969898215159628
            ],
            [
              78.6988157030751,
              28.97192384116564
            ],
            [
              78.69816689755608,
              28.972607377246153
            ],
            [
              78.69727426681106,
              28.973002186817414
            ],
            [
              78.69628675420911,
              28.973814232121928
            ],
            [
              78.69576382871257,
              28.974004946939978
            ],
            [
              78.69568659875094,
              28.97403311293846
            ],
            [
              78.69570487407708,
              28.97410091406089
            ],
            [
              78.69613046082442,
              28.97567971107612
            ],
            [
              78.69667358494016,
              28.97740044583634
            ],
            [
              78.6966736343475,
              28.977400602221632
            ],
            [
              78.6966950223361,
              28.977468362630496
            ],
            [
              78.6966727773547,
              28.97748214339086
            ],
            [
              78.69661747706581,
              28.97751639881991
            ],
            [
              78.69591316464538,
              28.9779526897151
            ],
            [
              78.69583572268137,
              28.978000661239847
            ],
            [
              78.69586438702379,
              28.97806863736467
            ],
            [
              78.69647203802467,
              28.979509658619598
            ],
            [
              78.69302500734511,
              28.981651935157004
            ],
            [
              78.69294761209349,
              28.981700032269746
            ],
            [
              78.69294756088951,
              28.981700063702682
            ],
            [
              78.69287008029792,
              28.98175147067924
            ],
            [
              78.69102931280483,
              28.982972743088506
            ],
            [
              78.69095183131495,
              28.983024147860917
            ],
            [
              78.6908743686897,
              28.983073595147985
            ],
            [
              78.68903300471524,
              28.984249007369293
            ],
            [
              78.6873019242133,
              28.98530477201599
            ],
            [
              78.68723222842196,
              28.98534727806623
            ],
            [
              78.68718665958258,
              28.985284041145817
            ],
            [
              78.68722448314759,
              28.985352000697656
            ],
            [
              78.68714689026659,
              28.98540376732504
            ],
            [
              78.6844384229726,
              28.98721063489328
            ],
            [
              78.6811295810315,
              28.98953387536123
            ],
            [
              78.68105136741465,
              28.989588789235018
            ],
            [
              78.68102399395129,
              28.989522197339063
            ],
            [
              78.68097571938624,
              28.98952179974254
            ],
            [
              78.68097445366003,
              28.989640604030487
            ],
            [
              78.68009760002637,
              28.990230672628897
            ],
            [
              78.67874813284023,
              28.990927591707543
            ],
            [
              78.67742444730278,
              28.991913312828633
            ],
            [
              78.67742487490086,
              28.991873220931726
            ],
            [
              78.67727099888259,
              28.991871951951914
            ],
            [
              78.67727041318102,
              28.991926859083854
            ],
            [
              78.67726955259496,
              28.99200733118894
            ],
            [
              78.67732074578639,
              28.992007753919758
            ],
            [
              78.67666981665005,
              28.992819863753997
            ],
            [
              78.67671597837756,
              28.993681542999337
            ],
            [
              78.67651324209265,
              28.994340141693133
            ],
            [
              78.67599739082895,
              28.99535062680819
            ],
            [
              78.67544058806641,
              28.99639716228861
            ],
            [
              78.6754302906783,
              28.99669719134094
            ],
            [
              78.67570443943502,
              28.997518226070397
            ],
            [
              78.67572245155478,
              28.99757217164646
            ],
            [
              78.6757533913298,
              28.997664826382017
            ],
            [
              78.67575818474015,
              28.99770776498743
            ],
            [
              78.67579192905549,
              28.998009990979963
            ],
            [
              78.67634583834453,
              28.999879867085166
            ],
            [
              78.67635355038124,
              28.999997446374437
            ],
            [
              78.67720252569838,
              29.002505353923393
            ],
            [
              78.67821624125882,
              29.005056587132124
            ],
            [
              78.67917050990705,
              29.00463931172911
            ],
            [
              78.68025194137194,
              29.004098687964724
            ],
            [
              78.6808437901087,
              29.00402995193835
            ],
            [
              78.68164177884694,
              29.0042066452857
            ],
            [
              78.68261428329541,
              29.004681211952242
            ],
            [
              78.68465220314559,
              29.00562201487612
            ],
            [
              78.68737732520498,
              29.007408703788656
            ],
            [
              78.68779157880668,
              29.00808087621717
            ],
            [
              78.6878423911124,
              29.00918080123145
            ],
            [
              78.68765795440817,
              29.01076315018433
            ],
            [
              78.6873467806887,
              29.013283453790905
            ],
            [
              78.68711255126655,
              29.01353122802533
            ],
            [
              78.68588655392301,
              29.0143649433219
            ],
            [
              78.68383864480684,
              29.015469001075186
            ],
            [
              78.68558872916864,
              29.018561755775725
            ],
            [
              78.68684463861453,
              29.020527751964078
            ],
            [
              78.68690066384389,
              29.02101741135687
            ],
            [
              78.68540456016234,
              29.023259576201117
            ],
            [
              78.6834443122449,
              29.02529561327053
            ],
            [
              78.68127103155275,
              29.02817452269704
            ],
            [
              78.68439212829445,
              29.0312826160391
            ],
            [
              78.68721742238947,
              29.034593619099116
            ],
            [
              78.69051822081552,
              29.038126218071643
            ],
            [
              78.69289828919447,
              29.041394122007684
            ],
            [
              78.69390679722126,
              29.042096195100523
            ],
            [
              78.69556348464127,
              29.043301513772196
            ],
            [
              78.69783932329443,
              29.045820170340953
            ],
            [
              78.69846144166301,
              29.04609487726699
            ],
            [
              78.70009185515758,
              29.046741914752086
            ],
            [
              78.70224558761082,
              29.047210769841012
            ],
            [
              78.70224009800613,
              29.047326580887532
            ],
            [
              78.70213272417686,
              29.047698760298367
            ],
            [
              78.70109844887448,
              29.04955415262579
            ],
            [
              78.70000664905459,
              29.05148065283534
            ],
            [
              78.6990652011621,
              29.052665661234734
            ]
          ]
        ]
      }
    }
  ]
}