{
  "type": "FeatureCollection",
  "features": [
    {
      "type": "Feature",
      "properties": {
        "objectid": "09-144-00757",
        "stcode11": "09",
        "dtcode11": "144",
        "sdtcode11": "00757",
        "stname": "UTTAR PRADESH",
        "dtname": "Hathras",
        "sdtname": "Sasni",
        "st_area_sh": 0.0,
        "st_length_": 0.0,
        "remarks": "",
        "dist_lgd": 163,
        "state_lgd": 9,
        "subdt_lgd": 757,
        "ac_no": 78,
        "st_length(shape)": 117454.6700192538,
        "st_area(shape)": 349343845.2702699
      },
      "geometry": {
        "type": "Polygon",
        "coordinates": [
          [
            [
              78.06385734675935,
              27.78994550068983
            ],
            [
              78.06441545297739,
              27.789273273394276
            ],
            [
              78.06471735608314,
              27.789336381379076
            ],
            [
              78.0652754057073,
              27.78856028015902
            ],
            [
              78.06608960364655,
              27.787639813656185
            ],
            [
              78.06651828868327,
              27.787028446654276
            ],
            [
              78.06685564559831,
              27.78643965931438
            ],
            [
              78.06704081532784,
              27.78592303476913
            ],
            [
              78.06730962899007,
              27.785787638773115
            ],
            [
              78.06750750269435,
              27.78565229585593
            ],
            [
              78.06774852876991,
              27.785370262225296
            ],
            [
              78.06800467439004,
              27.78501833985196
            ],
            [
              78.0692246763774,
              27.783445792091793
            ],
            [
              78.0694123730678,
              27.78318633969265
            ],
            [
              78.06921454787255,
              27.782802893319978
            ],
            [
              78.06949353944698,
              27.78246217512412
            ],
            [
              78.07025947090601,
              27.78159362365811
            ],
            [
              78.07079462606683,
              27.780858085621613
            ],
            [
              78.07135004183058,
              27.779912759189006
            ],
            [
              78.07156061411972,
              27.779937638961915
            ],
            [
              78.0717913149594,
              27.779244953247915
            ],
            [
              78.07056616023556,
              27.77805165433822
            ],
            [
              78.06679174483891,
              27.774724231775497
            ],
            [
              78.06681441562174,
              27.772745737731135
            ],
            [
              78.06680171973181,
              27.771908740847476
            ],
            [
              78.06679155709102,
              27.77176433777669
            ],
            [
              78.06665213855892,
              27.771732788228483
            ],
            [
              78.06648727255146,
              27.7717846856527
            ],
            [
              78.06645425497318,
              27.77164927920958
            ],
            [
              78.06638319643757,
              27.770988267740734
            ],
            [
              78.06639839862711,
              27.770230317139546
            ],
            [
              78.06901585310813,
              27.769756389862987
            ],
            [
              78.06988570976407,
              27.76964355794446
            ],
            [
              78.07115391265461,
              27.769456223301574
            ],
            [
              78.07354812410941,
              27.769135722646855
            ],
            [
              78.07495818266143,
              27.768907744363496
            ],
            [
              78.07624148533361,
              27.768650386722154
            ],
            [
              78.07642663799514,
              27.768702319795615
            ],
            [
              78.07658903273726,
              27.76887823677737
            ],
            [
              78.07700758118432,
              27.769518941383662
            ],
            [
              78.07747441138297,
              27.77026336621046
            ],
            [
              78.07783458011637,
              27.77069874121758
            ],
            [
              78.07815928156569,
              27.770955881790645
            ],
            [
              78.07863613875955,
              27.771255828812617
            ],
            [
              78.07948334798883,
              27.77171143169162
            ],
            [
              78.08034319561584,
              27.772157999350846
            ],
            [
              78.08089097120812,
              27.77169092801339
            ],
            [
              78.08160109213516,
              27.771079520637333
            ],
            [
              78.08256469068594,
              27.770386777722386
            ],
            [
              78.0828791333747,
              27.77006638870326
            ],
            [
              78.08326207080731,
              27.7695812421308
            ],
            [
              78.0837387492364,
              27.769258590960504
            ],
            [
              78.08426122916858,
              27.769032922794665
            ],
            [
              78.08472269103508,
              27.768705675700158
            ],
            [
              78.08500167811792,
              27.768292830304148
            ],
            [
              78.08538698171296,
              27.767496369346638
            ],
            [
              78.08630480211683,
              27.766160624772127
            ],
            [
              78.08646700641613,
              27.765808725301028
            ],
            [
              78.08693103387108,
              27.765231053255782
            ],
            [
              78.08823726514258,
              27.765788036892644
            ],
            [
              78.08852893464059,
              27.765950440037614
            ],
            [
              78.0898555217364,
              27.766527676645943
            ],
            [
              78.09144853567078,
              27.767251567344786
            ],
            [
              78.0926481701557,
              27.767765686125294
            ],
            [
              78.09265331301071,
              27.767767890294767
            ],
            [
              78.09371069657543,
              27.76676826823116
            ],
            [
              78.09452208458445,
              27.766199530162552
            ],
            [
              78.0957443476314,
              27.765599174999217
            ],
            [
              78.09716190981098,
              27.765082251952904
            ],
            [
              78.1000536244398,
              27.766620015110323
            ],
            [
              78.10113426269231,
              27.767167939630117
            ],
            [
              78.10201694100229,
              27.76732334982189
            ],
            [
              78.10266875228423,
              27.767404354343437
            ],
            [
              78.10324964337114,
              27.76758020506473
            ],
            [
              78.10407653540364,
              27.76796343166427
            ],
            [
              78.10469800788348,
              27.7681528037325
            ],
            [
              78.10546401210605,
              27.768193100219474
            ],
            [
              78.10621987255243,
              27.76829664088374
            ],
            [
              78.10690722028868,
              27.768452075694054
            ],
            [
              78.10725465001302,
              27.768452003361524
            ],
            [
              78.10744227124496,
              27.768348170335152
            ],
            [
              78.10761469567721,
              27.76812926299739
            ],
            [
              78.10784784891764,
              27.76782016081333
            ],
            [
              78.10812684318701,
              27.767716223851167
            ],
            [
              78.10852248728928,
              27.767716172979586
            ],
            [
              78.10913878457477,
              27.76777679917689
            ],
            [
              78.10964868090647,
              27.767923306783533
            ],
            [
              78.10995299688706,
              27.76797506215387
            ],
            [
              78.11081289481974,
              27.76825229698447
            ],
            [
              78.11111479433221,
              27.768252131652606
            ],
            [
              78.11129989578977,
              27.76831522878409
            ],
            [
              78.11152071336471,
              27.76852275490476
            ],
            [
              78.11175914420741,
              27.768685123763817
            ],
            [
              78.11178451263105,
              27.768707650930534
            ],
            [
              78.11202034105436,
              27.768569946685545
            ],
            [
              78.11254015478679,
              27.768359951012894
            ],
            [
              78.11317160215955,
              27.768093516298695
            ],
            [
              78.11369897791005,
              27.76784742239061
            ],
            [
              78.11408431114947,
              27.76757199008766
            ],
            [
              78.11475375636046,
              27.767195058293748
            ],
            [
              78.11531653741122,
              27.766784160175387
            ],
            [
              78.11631041008538,
              27.76610249916288
            ],
            [
              78.11731190586302,
              27.76539373782652
            ],
            [
              78.11760351158068,
              27.765267250005586
            ],
            [
              78.11760857358728,
              27.765266041778197
            ],
            [
              78.11778349443773,
              27.76522429592371
            ],
            [
              78.11791788869246,
              27.765240034680275
            ],
            [
              78.11805232157472,
              27.765273868229887
            ],
            [
              78.11825783994205,
              27.765373018338693
            ],
            [
              78.11856481493588,
              27.765618845992154
            ],
            [
              78.11890236858197,
              27.765932264276874
            ],
            [
              78.11899871559116,
              27.765999899934805
            ],
            [
              78.11900133687516,
              27.766024727247874
            ],
            [
              78.11903433019893,
              27.766261607064425
            ],
            [
              78.11934916904475,
              27.76682997598661
            ],
            [
              78.11962324324129,
              27.767190852624008
            ],
            [
              78.12000145284053,
              27.767650867354618
            ],
            [
              78.12064090510079,
              27.76832970961867
            ],
            [
              78.12099363039373,
              27.768699508370975
            ],
            [
              78.12197564081455,
              27.769511258311276
            ],
            [
              78.1228230288086,
              27.770081613285594
            ],
            [
              78.12325483638928,
              27.77123876115407
            ],
            [
              78.12369638709748,
              27.771538611220492
            ],
            [
              78.12371774095013,
              27.771480618043036
            ],
            [
              78.12401280518161,
              27.770679253957713
            ],
            [
              78.12428421677166,
              27.770577863238984
            ],
            [
              78.12454043425699,
              27.770539659674917
            ],
            [
              78.12470766283366,
              27.770659286606726
            ],
            [
              78.1252349074301,
              27.771304728319087
            ],
            [
              78.12558209101604,
              27.77173579669485
            ],
            [
              78.1258102747763,
              27.771970480660656
            ],
            [
              78.12592180331377,
              27.772031496342272
            ],
            [
              78.12640642105336,
              27.771688790689907
            ],
            [
              78.12739599528888,
              27.77101693380925
            ],
            [
              78.128316956203,
              27.77052095690159
            ],
            [
              78.12921503702684,
              27.770076961021005
            ],
            [
              78.13018667370275,
              27.76956742914096
            ],
            [
              78.13032370002126,
              27.769414112625807
            ],
            [
              78.13053444119365,
              27.769046487856375
            ],
            [
              78.13056236442596,
              27.768974265368993
            ],
            [
              78.1306156237425,
              27.76893374899518
            ],
            [
              78.13084389104608,
              27.768893187299263
            ],
            [
              78.1310316748731,
              27.768825604310674
            ],
            [
              78.13115345857784,
              27.768690291158148
            ],
            [
              78.13122958540826,
              27.76858428918022
            ],
            [
              78.13149344486175,
              27.76846929560855
            ],
            [
              78.13170394618395,
              27.768415297368655
            ],
            [
              78.13183329100842,
              27.768347667981136
            ],
            [
              78.13200590857849,
              27.768119828737948
            ],
            [
              78.13218856482183,
              27.767959702944314
            ],
            [
              78.13227984892605,
              27.768000361961878
            ],
            [
              78.13270825368843,
              27.768483344812086
            ],
            [
              78.13326597003764,
              27.76908136307702
            ],
            [
              78.1335752033961,
              27.769483129963337
            ],
            [
              78.13389956797721,
              27.77002687504406
            ],
            [
              78.13401868458388,
              27.77022325330573
            ],
            [
              78.13423914822259,
              27.770485020225017
            ],
            [
              78.13463971958417,
              27.77086195969895
            ],
            [
              78.13480443197975,
              27.771123713158985
            ],
            [
              78.13501480843613,
              27.77145993309752
            ],
            [
              78.13525818180953,
              27.7716810998223
            ],
            [
              78.13533928261168,
              27.771816506225818
            ],
            [
              78.13533165142337,
              27.772017267963683
            ],
            [
              78.13540768213407,
              27.77212561533863
            ],
            [
              78.13562311880044,
              27.772274542132262
            ],
            [
              78.13586167361065,
              27.772125722641515
            ],
            [
              78.13604178492683,
              27.771970154777282
            ],
            [
              78.13620158443607,
              27.77188901217352
            ],
            [
              78.13637403941104,
              27.771956706126332
            ],
            [
              78.13647304184019,
              27.77192288101325
            ],
            [
              78.13734835486318,
              27.771300587190414
            ],
            [
              78.13776950842455,
              27.770863058175525
            ],
            [
              78.13822368136084,
              27.770475234051965
            ],
            [
              78.13904064341621,
              27.769943073799897
            ],
            [
              78.1392562390844,
              27.76981005200928
            ],
            [
              78.13960374786048,
              27.769749202796035
            ],
            [
              78.13991326328993,
              27.76969525367741
            ],
            [
              78.14028360185065,
              27.769501322617828
            ],
            [
              78.14054757179687,
              27.769009591297884
            ],
            [
              78.14078095859928,
              27.768797610116938
            ],
            [
              78.14107519368574,
              27.768750368358667
            ],
            [
              78.14124771244111,
              27.768730074760636
            ],
            [
              78.14153679838438,
              27.768716660683125
            ],
            [
              78.14180826207672,
              27.76854075774766
            ],
            [
              78.14223196056531,
              27.76815963480522
            ],
            [
              78.14286120167577,
              27.7676544569831
            ],
            [
              78.14359443535676,
              27.76706361573656
            ],
            [
              78.14464979411885,
              27.766109737342997
            ],
            [
              78.14556315618398,
              27.765331620685284
            ],
            [
              78.14606037818531,
              27.764955021343898
            ],
            [
              78.14627094238958,
              27.76476333614498
            ],
            [
              78.14651971463785,
              27.764298691672273
            ],
            [
              78.14669981427589,
              27.7640235341654
            ],
            [
              78.1468292893561,
              27.763820521633964
            ],
            [
              78.14722252597342,
              27.763276929164192
            ],
            [
              78.1477426666926,
              27.76263407097398
            ],
            [
              78.14792280855147,
              27.76246048807913
            ],
            [
              78.14820951126427,
              27.762243974291493
            ],
            [
              78.14836933772303,
              27.762117633842756
            ],
            [
              78.14863310285338,
              27.761867330879877
            ],
            [
              78.1490467348209,
              27.76125600900994
            ],
            [
              78.14964300326882,
              27.760308664855344
            ],
            [
              78.1502163943214,
              27.759539586395412
            ],
            [
              78.15048791820088,
              27.759203498948487
            ],
            [
              78.15068070923726,
              27.758941801080248
            ],
            [
              78.15142400674438,
              27.758215569665992
            ],
            [
              78.15196658737935,
              27.758673665202757
            ],
            [
              78.15228347887562,
              27.75890843218794
            ],
            [
              78.15235195385647,
              27.75896259015654
            ],
            [
              78.15245850393062,
              27.758976138984927
            ],
            [
              78.15259289010051,
              27.758915255096603
            ],
            [
              78.15267665710242,
              27.758793441906604
            ],
            [
              78.15497131276585,
              27.76013635013033
            ],
            [
              78.1550473093406,
              27.760479247968725
            ],
            [
              78.15514616534435,
              27.760580781642926
            ],
            [
              78.15568885916704,
              27.76082230371078
            ],
            [
              78.15646733470068,
              27.76121277830403
            ],
            [
              78.15690094789507,
              27.761339236655555
            ],
            [
              78.15716722920652,
              27.761379897351635
            ],
            [
              78.15729395184874,
              27.761461088332297
            ],
            [
              78.157324331075,
              27.761634835778118
            ],
            [
              78.15730408664176,
              27.76174085883345
            ],
            [
              78.15775539125735,
              27.761991413278828
            ],
            [
              78.15825244886697,
              27.762086277840364
            ],
            [
              78.15930744740463,
              27.76221508572224
            ],
            [
              78.16015955963877,
              27.762253547374357
            ],
            [
              78.16074028723227,
              27.76224017860325
            ],
            [
              78.16127034804713,
              27.762267272262807
            ],
            [
              78.16160260342967,
              27.762188380760136
            ],
            [
              78.16213784572712,
              27.76190428629857
            ],
            [
              78.16257663231923,
              27.761629080608046
            ],
            [
              78.16285306010182,
              27.761428403043777
            ],
            [
              78.1648384177281,
              27.7634365348294
            ],
            [
              78.16509461275555,
              27.76334858230948
            ],
            [
              78.1670095343787,
              27.762489364659654
            ],
            [
              78.16830053291794,
              27.761722466948477
            ],
            [
              78.1683624430107,
              27.76169299477499
            ],
            [
              78.16836648902273,
              27.761691068701882
            ],
            [
              78.16848060021665,
              27.761636749928506
            ],
            [
              78.16855670189426,
              27.76165709969825
            ],
            [
              78.1686099315664,
              27.761914315690206
            ],
            [
              78.16896498080101,
              27.76191437928309
            ],
            [
              78.16951533186317,
              27.76186701371027
            ],
            [
              78.16976388492249,
              27.761785851649257
            ],
            [
              78.17055523870404,
              27.76101435515319
            ],
            [
              78.17125026523938,
              27.760200044979975
            ],
            [
              78.17249307904505,
              27.758833021649245
            ],
            [
              78.1727416078499,
              27.758625481821635
            ],
            [
              78.17293949143563,
              27.758436003348148
            ],
            [
              78.17315002958875,
              27.75823528015037
            ],
            [
              78.17355075366397,
              27.757912674837094
            ],
            [
              78.17434457871087,
              27.75740063201413
            ],
            [
              78.17489489384046,
              27.75713448288504
            ],
            [
              78.17581299182375,
              27.756651785141198
            ],
            [
              78.17662955143386,
              27.75619390209345
            ],
            [
              78.177172306342,
              27.755814969740662
            ],
            [
              78.17739043795423,
              27.755659238648335
            ],
            [
              78.1776998132465,
              27.755384061687337
            ],
            [
              78.1778671604008,
              27.7552419810266
            ],
            [
              78.17803206683243,
              27.75505468678198
            ],
            [
              78.17808532704731,
              27.754899078616248
            ],
            [
              78.17817664528752,
              27.75473885705609
            ],
            [
              78.1786203717154,
              27.754623832162075
            ],
            [
              78.17911749759699,
              27.754357700093813
            ],
            [
              78.17942692858479,
              27.754028334008115
            ],
            [
              78.17954858472878,
              27.753947076271373
            ],
            [
              78.18012179342338,
              27.753638098370907
            ],
            [
              78.18046915757071,
              27.753283910229666
            ],
            [
              78.18059598172249,
              27.753074040085416
            ],
            [
              78.17985810824308,
              27.75233855093269
            ],
            [
              78.17974399076097,
              27.752185151320113
            ],
            [
              78.17975157523689,
              27.751968585296844
            ],
            [
              78.17976689330914,
              27.751788110366814
            ],
            [
              78.17960709290156,
              27.751652736284584
            ],
            [
              78.17836963574992,
              27.75084279770809
            ],
            [
              78.17884138242809,
              27.750141138097852
            ],
            [
              78.17932958803894,
              27.749713168170754
            ],
            [
              78.17979158440302,
              27.749070997065374
            ],
            [
              78.17963520388173,
              27.748614951997872
            ],
            [
              78.18010880378435,
              27.74828939890228
            ],
            [
              78.18076326509639,
              27.74775018493807
            ],
            [
              78.18135634542338,
              27.74699434468783
            ],
            [
              78.18192956220282,
              27.746482939806004
            ],
            [
              78.1818237442556,
              27.745978155895404
            ],
            [
              78.18150779060052,
              27.74547086927299
            ],
            [
              78.18095409511054,
              27.744629944266645
            ],
            [
              78.18042476282936,
              27.74391130466334
            ],
            [
              78.17997355972341,
              27.743298726773897
            ],
            [
              78.17871034607592,
              27.74233455807838
            ],
            [
              78.17702793719438,
              27.74129354931606
            ],
            [
              78.17579696408244,
              27.740344143195966
            ],
            [
              78.17460192088694,
              27.739416725354012
            ],
            [
              78.17380670794292,
              27.738515397383864
            ],
            [
              78.17293394523703,
              27.737397432772934
            ],
            [
              78.17212549112574,
              27.73629443872292
            ],
            [
              78.17181211743215,
              27.735614580943075
            ],
            [
              78.17296443675275,
              27.735071219775143
            ],
            [
              78.17426479304227,
              27.734582549173528
            ],
            [
              78.17491658905286,
              27.73423031308817
            ],
            [
              78.1754439908545,
              27.733531310299977
            ],
            [
              78.17577673941216,
              27.732887649155575
            ],
            [
              78.17606422725252,
              27.732013213314435
            ],
            [
              78.1762543853268,
              27.731166493650385
            ],
            [
              78.1769086921286,
              27.72900018227245
            ],
            [
              78.17702065365404,
              27.728419915981192
            ],
            [
              78.177853877911,
              27.72781075367652
            ],
            [
              78.17843256004059,
              27.72692524019566
            ],
            [
              78.17861611370093,
              27.726524524146026
            ],
            [
              78.17922457677884,
              27.725812013610454
            ],
            [
              78.18058764535667,
              27.72417962915801
            ],
            [
              78.18132559609121,
              27.723454179047742
            ],
            [
              78.18234386521183,
              27.72234353322468
            ],
            [
              78.18241690992255,
              27.721768781228448
            ],
            [
              78.18218389771765,
              27.72111860227761
            ],
            [
              78.18175125829701,
              27.72085463164854
            ],
            [
              78.18052214290111,
              27.72089810023604
            ],
            [
              78.17929553560147,
              27.720768828392764
            ],
            [
              78.1784406475731,
              27.72081979664812
            ],
            [
              78.17711380805069,
              27.719797265226063
            ],
            [
              78.17569187556725,
              27.718658451810196
            ],
            [
              78.17396717669706,
              27.717214053879637
            ],
            [
              78.17299714620887,
              27.716123682094747
            ],
            [
              78.1732633844012,
              27.715594326714633
            ],
            [
              78.17373896958058,
              27.715124972163263
            ],
            [
              78.17468573639789,
              27.71448828728343
            ],
            [
              78.17589002685095,
              27.713926571158076
            ],
            [
              78.17639852181077,
              27.713414418622733
            ],
            [
              78.17710256832987,
              27.71278943409994
            ],
            [
              78.1779404234021,
              27.71257176069618
            ],
            [
              78.17883750170606,
              27.712006576049223
            ],
            [
              78.18025579780927,
              27.71117386178128
            ],
            [
              78.1805861900859,
              27.71179642360516
            ],
            [
              78.18125394466752,
              27.711302158850934
            ],
            [
              78.1820025934388,
              27.710950998319216
            ],
            [
              78.1827192532028,
              27.71057071727963
            ],
            [
              78.18381444506122,
              27.709719931771033
            ],
            [
              78.18467741343551,
              27.709283731651706
            ],
            [
              78.18526331263011,
              27.70900260406617
            ],
            [
              78.18583238637947,
              27.70876453880559
            ],
            [
              78.18636988883816,
              27.708482943835822
            ],
            [
              78.18785974922844,
              27.70784045581189
            ],
            [
              78.18863951025125,
              27.707561626127045
            ],
            [
              78.1899215543837,
              27.70720210677478
            ],
            [
              78.19075146026398,
              27.706808755218653
            ],
            [
              78.19133650516075,
              27.706585181371402
            ],
            [
              78.1915721161918,
              27.70648399423967
            ],
            [
              78.19208550966488,
              27.706205226304053
            ],
            [
              78.19247701343203,
              27.70565549596657
            ],
            [
              78.19318280178445,
              27.704900859004237
            ],
            [
              78.19428460524334,
              27.703589645761678
            ],
            [
              78.19499223604042,
              27.702705516739687
            ],
            [
              78.19703762358557,
              27.700767251245924
            ],
            [
              78.19791926434135,
              27.70014418903637
            ],
            [
              78.19841544519528,
              27.699358389650026
            ],
            [
              78.1986138551938,
              27.699044051290347
            ],
            [
              78.19872116883593,
              27.698325741102295
            ],
            [
              78.1983751431784,
              27.69765995307334
            ],
            [
              78.19902585492243,
              27.697365087133857
            ],
            [
              78.19970802656606,
              27.697128257165023
            ],
            [
              78.2005009497044,
              27.6967956916818
            ],
            [
              78.20141102213894,
              27.696446269312926
            ],
            [
              78.20185661257102,
              27.695803805862866
            ],
            [
              78.20253412285662,
              27.69476104038839
            ],
            [
              78.20332592938908,
              27.693633230193043
            ],
            [
              78.20380399841022,
              27.692976707951626
            ],
            [
              78.20525063725896,
              27.69352555800674
            ],
            [
              78.20582839142887,
              27.693805537922863
            ],
            [
              78.20670088823341,
              27.69381542404555
            ],
            [
              78.20762495911504,
              27.69361004799459
            ],
            [
              78.20824148636925,
              27.69344435299846
            ],
            [
              78.20900460699977,
              27.693193885930512
            ],
            [
              78.20992846408235,
              27.69300291365175
            ],
            [
              78.21171505507897,
              27.692854658793483
            ],
            [
              78.21232695690779,
              27.693005494768887
            ],
            [
              78.21277401878028,
              27.693384638341822
            ],
            [
              78.21305757469469,
              27.693905860272245
            ],
            [
              78.21345451326928,
              27.694399612050457
            ],
            [
              78.21424090924879,
              27.69478258063545
            ],
            [
              78.21509772865497,
              27.69476349499525
            ],
            [
              78.21571353366372,
              27.694640931619148
            ],
            [
              78.21576898217462,
              27.69415228584345
            ],
            [
              78.2160743437942,
              27.693134106708456
            ],
            [
              78.21631061688362,
              27.692431654052395
            ],
            [
              78.21620644644663,
              27.691797281077893
            ],
            [
              78.21581134762174,
              27.691174049144546
            ],
            [
              78.21571362708848,
              27.69009373469958
            ],
            [
              78.21588562122776,
              27.689361807335928
            ],
            [
              78.21616925080399,
              27.688731802605954
            ],
            [
              78.2168761324061,
              27.687890813830904
            ],
            [
              78.21726797214313,
              27.687356262384693
            ],
            [
              78.21769398379358,
              27.68694369899642
            ],
            [
              78.21810553256796,
              27.686415887632716
            ],
            [
              78.21856484925756,
              27.68593178135368
            ],
            [
              78.21895181922746,
              27.685993724205975
            ],
            [
              78.219820384106,
              27.686276928356392
            ],
            [
              78.22011834540426,
              27.685776581223255
            ],
            [
              78.2202220541072,
              27.68530289037728
            ],
            [
              78.22037700361224,
              27.68462835065903
            ],
            [
              78.22034168365191,
              27.683706986694308
            ],
            [
              78.22104513099468,
              27.682929587061427
            ],
            [
              78.2215686951934,
              27.682475032115175
            ],
            [
              78.2226812065705,
              27.68150897008859
            ],
            [
              78.22327015195226,
              27.68099755398725
            ],
            [
              78.22334135242167,
              27.68053791329528
            ],
            [
              78.22306216860777,
              27.67971447481426
            ],
            [
              78.2231969590195,
              27.67927419311715
            ],
            [
              78.22349570544537,
              27.678716348104643
            ],
            [
              78.22418485879534,
              27.67797578385916
            ],
            [
              78.22474393699054,
              27.677291347863225
            ],
            [
              78.22518883122825,
              27.676677547708742
            ],
            [
              78.22568149158458,
              27.676121870001303
            ],
            [
              78.22671638582617,
              27.67474323220402
            ],
            [
              78.22752333525939,
              27.67367294388254
            ],
            [
              78.22845880486366,
              27.672647350094145
            ],
            [
              78.23031549230022,
              27.671603212297875
            ],
            [
              78.23212042330167,
              27.670788741818654
            ],
            [
              78.23465502257076,
              27.669526995680297
            ],
            [
              78.23613541920952,
              27.66880961787148
            ],
            [
              78.23715884555823,
              27.668418074001977
            ],
            [
              78.23806992141094,
              27.667967773188508
            ],
            [
              78.23839903987654,
              27.667539739339812
            ],
            [
              78.23892873956865,
              27.66663897665826
            ],
            [
              78.23989598527947,
              27.665661608166726
            ],
            [
              78.24035685874945,
              27.66506235498341
            ],
            [
              78.2401272826005,
              27.664901212167187
            ],
            [
              78.23925286789283,
              27.664287438678624
            ],
            [
              78.2382011095784,
              27.663253984289888
            ],
            [
              78.23697316828056,
              27.662103469017666
            ],
            [
              78.23534909419695,
              27.660595448889012
            ],
            [
              78.2345997887572,
              27.65988194935436
            ],
            [
              78.23377135431734,
              27.659052378993298
            ],
            [
              78.23317944719012,
              27.65749164328716
            ],
            [
              78.23272801321711,
              27.65627783222638
            ],
            [
              78.23291747330046,
              27.655445288883616
            ],
            [
              78.23321855085445,
              27.654714662673857
            ],
            [
              78.23372075670896,
              27.654454173353283
            ],
            [
              78.23473830807569,
              27.65332867306967
            ],
            [
              78.23565474597235,
              27.652489811625287
            ],
            [
              78.23704001192085,
              27.65162741923348
            ],
            [
              78.23851775942786,
              27.651082657143508
            ],
            [
              78.2391202657771,
              27.65074399788138
            ],
            [
              78.239886900617,
              27.650220058702153
            ],
            [
              78.24086310342952,
              27.64972728571085
            ],
            [
              78.24211682996928,
              27.648898655253443
            ],
            [
              78.24267003767407,
              27.64861702606467
            ],
            [
              78.24373019074481,
              27.647894893340908
            ],
            [
              78.24362370355271,
              27.64741874015989
            ],
            [
              78.2429546787533,
              27.646749420651528
            ],
            [
              78.24169376928452,
              27.645656050987274
            ],
            [
              78.24049330475628,
              27.644865629339606
            ],
            [
              78.23953046168869,
              27.64440878898049
            ],
            [
              78.23787830357432,
              27.64403345668294
            ],
            [
              78.23642703660528,
              27.643844604351685
            ],
            [
              78.23539338473371,
              27.64383307998808
            ],
            [
              78.23512412191381,
              27.643455866096257
            ],
            [
              78.23418792377583,
              27.64225105234279
            ],
            [
              78.23320155742422,
              27.641175091004442
            ],
            [
              78.231334981333,
              27.638732053227308
            ],
            [
              78.23041382907772,
              27.6376136267242
            ],
            [
              78.22915667456684,
              27.63627557509921
            ],
            [
              78.22730023416698,
              27.635045984320627
            ],
            [
              78.2253195010678,
              27.633790817199685
            ],
            [
              78.22354326495143,
              27.632605248193336
            ],
            [
              78.22212077641083,
              27.63153872721562
            ],
            [
              78.22083983181629,
              27.6307471418939
            ],
            [
              78.21906010933833,
              27.629820510298327
            ],
            [
              78.2182575086494,
              27.629466097703816
            ],
            [
              78.21793148488,
              27.62967828522358
            ],
            [
              78.21678855115746,
              27.630543265311
            ],
            [
              78.21576066557172,
              27.631265597723072
            ],
            [
              78.21439176872434,
              27.632113681961062
            ],
            [
              78.21354179627723,
              27.632688925764025
            ],
            [
              78.21293163897666,
              27.632798232090877
            ],
            [
              78.21195584669424,
              27.633110414879603
            ],
            [
              78.21195575865937,
              27.633110441938506
            ],
            [
              78.21172715987743,
              27.633280545103617
            ],
            [
              78.21140603641787,
              27.63314740039086
            ],
            [
              78.21088070792793,
              27.632608979153318
            ],
            [
              78.21042740366251,
              27.632675865821366
            ],
            [
              78.21015351811215,
              27.632629595729163
            ],
            [
              78.20970503869813,
              27.63236549236323
            ],
            [
              78.20938361160803,
              27.632246667964367
            ],
            [
              78.20905982464365,
              27.632300595940034
            ],
            [
              78.20844164898088,
              27.63261022068434
            ],
            [
              78.20748015608112,
              27.632470549947413
            ],
            [
              78.20668976978514,
              27.63250143227067
            ],
            [
              78.20662365827182,
              27.632504015612746
            ],
            [
              78.20594933790377,
              27.632758156963657
            ],
            [
              78.20558617328894,
              27.633300941103045
            ],
            [
              78.2054916453682,
              27.63426404608633
            ],
            [
              78.20548040744401,
              27.634341946177663
            ],
            [
              78.20540887369961,
              27.634837679750145
            ],
            [
              78.20501445489938,
              27.635308093225692
            ],
            [
              78.20414691859185,
              27.63610418098173
            ],
            [
              78.20308828726719,
              27.636710892158263
            ],
            [
              78.20217813667918,
              27.637103518088498
            ],
            [
              78.20136543173997,
              27.63745407488324
            ],
            [
              78.20116815990696,
              27.637696440188027
            ],
            [
              78.2005432316082,
              27.638466512234363
            ],
            [
              78.19974307343854,
              27.639127854332738
            ],
            [
              78.19938564366844,
              27.63926772189049
            ],
            [
              78.19908874417885,
              27.639696056619055
            ],
            [
              78.1990374674441,
              27.641019455674904
            ],
            [
              78.19891843438073,
              27.64255784778375
            ],
            [
              78.19876843728785,
              27.64407585928631
            ],
            [
              78.19857484315762,
              27.645181774811196
            ],
            [
              78.19846685038911,
              27.645957626267794
            ],
            [
              78.19734952314379,
              27.645702500186896
            ],
            [
              78.19633939365795,
              27.64517293469323
            ],
            [
              78.19557628021397,
              27.64431514064502
            ],
            [
              78.1948511457436,
              27.643069325987486
            ],
            [
              78.19395448964778,
              27.642512196213143
            ],
            [
              78.19253092223053,
              27.64265429717823
            ],
            [
              78.18984241280718,
              27.644575636609048
            ],
            [
              78.18845731574193,
              27.645408878621524
            ],
            [
              78.18715368060164,
              27.646185450216624
            ],
            [
              78.18559335276719,
              27.64684388175061
            ],
            [
              78.18420575209726,
              27.647511446063586
            ],
            [
              78.18270828297653,
              27.64828575397204
            ],
            [
              78.18124179136005,
              27.649327145635237
            ],
            [
              78.17938815729714,
              27.650154826728407
            ],
            [
              78.17777613141813,
              27.651028530742582
            ],
            [
              78.17588096464637,
              27.65248892520588
            ],
            [
              78.17439957806414,
              27.6532633371217
            ],
            [
              78.17355838664895,
              27.65365199516503
            ],
            [
              78.17268554309469,
              27.65368508912508
            ],
            [
              78.1720360440763,
              27.65390786179825
            ],
            [
              78.17116953544142,
              27.654617331942337
            ],
            [
              78.16958568791622,
              27.655764720187285
            ],
            [
              78.16895047839903,
              27.656117064753182
            ],
            [
              78.16857897741835,
              27.656112765682085
            ],
            [
              78.16694579711267,
              27.655853846394372
            ],
            [
              78.16634096772009,
              27.657444242696275
            ],
            [
              78.16592771214668,
              27.657311136144756
            ],
            [
              78.16533234021739,
              27.657145881789912
            ],
            [
              78.16414043932873,
              27.656901876723115
            ],
            [
              78.16344622666709,
              27.656864979606087
            ],
            [
              78.16323160387435,
              27.657179104387417
            ],
            [
              78.16280825393207,
              27.657404463835277
            ],
            [
              78.16209584230108,
              27.657511282066917
            ],
            [
              78.16176964964833,
              27.65772334597209
            ],
            [
              78.16153819602046,
              27.658080443115946
            ],
            [
              78.16117181364024,
              27.65882450626184
            ],
            [
              78.16082720911749,
              27.659194615212932
            ],
            [
              78.15957278907831,
              27.659899600159317
            ],
            [
              78.15928182565611,
              27.6602691349882
            ],
            [
              78.15868785869195,
              27.661111304716588
            ],
            [
              78.15669426261618,
              27.661205941977503
            ],
            [
              78.15651888272663,
              27.661017447107323
            ],
            [
              78.15628560462041,
              27.66076672188352
            ],
            [
              78.15519465999662,
              27.660250383856006
            ],
            [
              78.15506549124196,
              27.659220135202926
            ],
            [
              78.15567281256114,
              27.65856523614277
            ],
            [
              78.15633272395199,
              27.6576375010455
            ],
            [
              78.15636902307601,
              27.65736447967616
            ],
            [
              78.15613119140957,
              27.65705951365117
            ],
            [
              78.15563235962725,
              27.65692418908131
            ],
            [
              78.15492354125736,
              27.656786415249126
            ],
            [
              78.15409575540116,
              27.65610375776301
            ],
            [
              78.15292834079052,
              27.655298642060778
            ],
            [
              78.1520275452579,
              27.655029100769497
            ],
            [
              78.15149835131731,
              27.654763896131254
            ],
            [
              78.15161456816223,
              27.654549398824713
            ],
            [
              78.15185980284488,
              27.654350737817488
            ],
            [
              78.15183175923836,
              27.6540626361461
            ],
            [
              78.15165829725193,
              27.653772743392295
            ],
            [
              78.1509522546763,
              27.653447970294163
            ],
            [
              78.14963479895532,
              27.652957598963628
            ],
            [
              78.1506047270356,
              27.651817743724035
            ],
            [
              78.15075841620427,
              27.651258316712635
            ],
            [
              78.15125078011656,
              27.650731598155467
            ],
            [
              78.14934520276898,
              27.649694804060072
            ],
            [
              78.1495768872639,
              27.649323395352024
            ],
            [
              78.14999273986682,
              27.648507913786055
            ],
            [
              78.15047770255946,
              27.647391133357534
            ],
            [
              78.15051655739045,
              27.646945454376727
            ],
            [
              78.149753849985,
              27.64608744186808
            ],
            [
              78.14829255242746,
              27.644690704339578
            ],
            [
              78.1477397866938,
              27.64492884084108
            ],
            [
              78.1471501738638,
              27.64546883515199
            ],
            [
              78.14654733423957,
              27.645821567003235
            ],
            [
              78.14617586469993,
              27.64581721500742
            ],
            [
              78.14576017918365,
              27.645524473859734
            ],
            [
              78.14507645525123,
              27.644782548354993
            ],
            [
              78.14422360190702,
              27.64565039632843
            ],
            [
              78.14374896894181,
              27.64522891413742
            ],
            [
              78.14309338293904,
              27.64477508726507
            ],
            [
              78.14259472363325,
              27.64462539108299
            ],
            [
              78.14225766675548,
              27.64447749790386
            ],
            [
              78.14208455511202,
              27.644173266244238
            ],
            [
              78.14187927569657,
              27.643854234778054
            ],
            [
              78.14163671440018,
              27.643865807681443
            ],
            [
              78.14129145231063,
              27.644279045394487
            ],
            [
              78.14090815914521,
              27.64506604791
            ],
            [
              78.1406009281315,
              27.64509118763989
            ],
            [
              78.14012016775776,
              27.644826508774656
            ],
            [
              78.14036795904572,
              27.64445530077959
            ],
            [
              78.14024289469354,
              27.644180381215673
            ],
            [
              78.13956473672265,
              27.644157988271893
            ],
            [
              78.13895732557192,
              27.64371913021144
            ],
            [
              78.13875482913721,
              27.643213111682673
            ],
            [
              78.13883058676005,
              27.642465667672273
            ],
            [
              78.13878702655362,
              27.642134111953766
            ],
            [
              78.13821584625495,
              27.641687226626892
            ],
            [
              78.13781670411295,
              27.641365998693733
            ],
            [
              78.13815908620371,
              27.641154078143003
            ],
            [
              78.13859648130544,
              27.641072881957506
            ],
            [
              78.1387139872328,
              27.640772064334847
            ],
            [
              78.13804460131063,
              27.640159785193756
            ],
            [
              78.13830665784532,
              27.63991825934389
            ],
            [
              78.13907409667739,
              27.63982873577862
            ],
            [
              78.13907389096319,
              27.639828398359093
            ],
            [
              78.1386573583356,
              27.639145203693957
            ],
            [
              78.13820516259126,
              27.639139882936973
            ],
            [
              78.13754258140737,
              27.63916092801749
            ],
            [
              78.13700077961175,
              27.639744531276303
            ],
            [
              78.13648787482217,
              27.639479460672852
            ],
            [
              78.13536695431571,
              27.63881868015279
            ],
            [
              78.1336617560737,
              27.638338107318543
            ],
            [
              78.13268390664929,
              27.637837258983105
            ],
            [
              78.1321661868898,
              27.636869820362413
            ],
            [
              78.13211940442643,
              27.636779968015553
            ],
            [
              78.1321189840149,
              27.636779161846974
            ],
            [
              78.1335261499917,
              27.635319990937308
            ],
            [
              78.13487340193232,
              27.633796018044247
            ],
            [
              78.13699640840957,
              27.63097966685586
            ],
            [
              78.13822671407324,
              27.62971331404389
            ],
            [
              78.13860496499495,
              27.629257292252568
            ],
            [
              78.13923865635934,
              27.627911985024014
            ],
            [
              78.14004996172334,
              27.626473690883472
            ],
            [
              78.14022175643662,
              27.624558268784977
            ],
            [
              78.14022403276753,
              27.62453288715598
            ],
            [
              78.14012920301288,
              27.623388252347887
            ],
            [
              78.13946480992706,
              27.622444972136677
            ],
            [
              78.13840781982442,
              27.62184254199528
            ],
            [
              78.13791353441574,
              27.621494927115247
            ],
            [
              78.13707193875867,
              27.62052079822664
            ],
            [
              78.13589112667388,
              27.619557088388802
            ],
            [
              78.1347091620506,
              27.61866527822351
            ],
            [
              78.13387074732793,
              27.618569043290705
            ],
            [
              78.13304573996089,
              27.618660075864145
            ],
            [
              78.13186407088335,
              27.619149777898564
            ],
            [
              78.13008828931454,
              27.620179366020256
            ],
            [
              78.12818499907766,
              27.6210923270246
            ],
            [
              78.12709505607545,
              27.621907883176533
            ],
            [
              78.12660783501816,
              27.62316854231767
            ],
            [
              78.12609670979117,
              27.623867670686693
            ],
            [
              78.12495513072813,
              27.624602499980277
            ],
            [
              78.12393257305031,
              27.624935757143373
            ],
            [
              78.12328216583514,
              27.625230250246386
            ],
            [
              78.12293614466917,
              27.62568661990962
            ],
            [
              78.12278107209492,
              27.626332460313314
            ],
            [
              78.12261426662478,
              27.62738324392629
            ],
            [
              78.12260977055679,
              27.62738741678387
            ],
            [
              78.12190999732348,
              27.62803689231376
            ],
            [
              78.12117678789703,
              27.628459909134634
            ],
            [
              78.1203659289957,
              27.627601251845157
            ],
            [
              78.11850346808683,
              27.626143123769317
            ],
            [
              78.11732468888951,
              27.62504978776463
            ],
            [
              78.11703768703771,
              27.62480175861537
            ],
            [
              78.11658587397568,
              27.624767537664077
            ],
            [
              78.11626184895775,
              27.62483569462026
            ],
            [
              78.11592162641692,
              27.62598288028167
            ],
            [
              78.11506074123575,
              27.625224271393794
            ],
            [
              78.11404476102247,
              27.627423602766843
            ],
            [
              78.1132634638805,
              27.628896571279753
            ],
            [
              78.11316274566917,
              27.62915440274027
            ],
            [
              78.11200814822102,
              27.628593717744398
            ],
            [
              78.11090364173143,
              27.627932947103773
            ],
            [
              78.11021220486397,
              27.627723248128447
            ],
            [
              78.10980309771053,
              27.628078162202975
            ],
            [
              78.10973432808227,
              27.62835070432785
            ],
            [
              78.10977932379656,
              27.628581524825037
            ],
            [
              78.11013075641381,
              27.628844757077566
            ],
            [
              78.11012447180008,
              27.629262076272706
            ],
            [
              78.10974708685426,
              27.629728972869266
            ],
            [
              78.10817506205652,
              27.63114929024332
            ],
            [
              78.1069263283531,
              27.63273394713886
            ],
            [
              78.10692569683744,
              27.632734747766296
            ],
            [
              78.10692037701432,
              27.632731599374484
            ],
            [
              78.10519619826871,
              27.631710703889862
            ],
            [
              78.10605986732895,
              27.630138001286877
            ],
            [
              78.10668585833469,
              27.628260239318312
            ],
            [
              78.1072055723541,
              27.62700003595803
            ],
            [
              78.10659066027078,
              27.62637393300335
            ],
            [
              78.10598138062426,
              27.626078854010327
            ],
            [
              78.10542861758556,
              27.626316848756023
            ],
            [
              78.10506959959405,
              27.62655716302478
            ],
            [
              78.10462071144654,
              27.626335923269206
            ],
            [
              78.10427940104593,
              27.626475772156294
            ],
            [
              78.10425756120475,
              27.626849732863157
            ],
            [
              78.10381768675283,
              27.62710349735488
            ],
            [
              78.10356080900577,
              27.626999650745333
            ],
            [
              78.10324177412923,
              27.626736791310545
            ],
            [
              78.10289340836036,
              27.626272046001727
            ],
            [
              78.10094136565472,
              27.627184091864013
            ],
            [
              78.09937291255854,
              27.627294772622257
            ],
            [
              78.09871509963217,
              27.622613663188922
            ],
            [
              78.09824580176146,
              27.61916062432333
            ],
            [
              78.0961524998757,
              27.61960024309517
            ],
            [
              78.08978032376396,
              27.62167701836314
            ],
            [
              78.08576133484469,
              27.622563818318316
            ],
            [
              78.08387430231782,
              27.622698691123524
            ],
            [
              78.08084002685003,
              27.623611710714087
            ],
            [
              78.07791881873382,
              27.624526046292615
            ],
            [
              78.07562161544821,
              27.625157559251456
            ],
            [
              78.07408090592126,
              27.625570537314246
            ],
            [
              78.07263899670255,
              27.62585518578601
            ],
            [
              78.07084882232625,
              27.625689426265524
            ],
            [
              78.06896866460627,
              27.62537980184197
            ],
            [
              78.06896046658099,
              27.625379047323282
            ],
            [
              78.064361006088,
              27.624955451910207
            ],
            [
              78.0605149123182,
              27.623700672096334
            ],
            [
              78.05764364334524,
              27.62346391011445
            ],
            [
              78.05752362662663,
              27.623908586373
            ],
            [
              78.05853048983812,
              27.625647950132542
            ],
            [
              78.05779767836532,
              27.626072151730266
            ],
            [
              78.05680987740418,
              27.62623271265122
            ],
            [
              78.05585222120902,
              27.626537578379953
            ],
            [
              78.05376867412893,
              27.627600277676226
            ],
            [
              78.05300525615608,
              27.628087645186287
            ],
            [
              78.05179307759653,
              27.629180789287734
            ],
            [
              78.05028438761956,
              27.63064449095057
            ],
            [
              78.04851326471383,
              27.633608166725136
            ],
            [
              78.04773040809656,
              27.63490003674613
            ],
            [
              78.0475351628628,
              27.635222225930168
            ],
            [
              78.04683467636717,
              27.63663826290361
            ],
            [
              78.04679362874857,
              27.63823512686663
            ],
            [
              78.04683544801999,
              27.64071711714255
            ],
            [
              78.04696715631202,
              27.642632728350463
            ],
            [
              78.04643290485633,
              27.643604113184132
            ],
            [
              78.04121517258089,
              27.646729631133628
            ],
            [
              78.03641386872842,
              27.649303957217565
            ],
            [
              78.03266152942984,
              27.65152320997534
            ],
            [
              78.03084118872802,
              27.652996134959977
            ],
            [
              78.02995708928326,
              27.6527117727253
            ],
            [
              78.0286287711339,
              27.65191814362454
            ],
            [
              78.02690361591954,
              27.65079172921393
            ],
            [
              78.02566959212889,
              27.652215415145488
            ],
            [
              78.02425931887953,
              27.651492648920385
            ],
            [
              78.0231853146854,
              27.650961177862296
            ],
            [
              78.02202988629563,
              27.65047185210082
            ],
            [
              78.02186287421293,
              27.650891191902222
            ],
            [
              78.02156874422936,
              27.65110337209035
            ],
            [
              78.01971806742034,
              27.651895705317838
            ],
            [
              78.0189859647183,
              27.652217582661148
            ],
            [
              78.01864085444402,
              27.652587385350028
            ],
            [
              78.0180641153704,
              27.65329974689266
            ],
            [
              78.01761692773374,
              27.65399930818182
            ],
            [
              78.01704778840738,
              27.655326538884477
            ],
            [
              78.01628410093993,
              27.65662652615713
            ],
            [
              78.014765455833,
              27.65866536886996
            ],
            [
              78.01581998814503,
              27.659412504049588
            ],
            [
              78.01731151580847,
              27.66010751487445
            ],
            [
              78.01786414140498,
              27.659898583312632
            ],
            [
              78.01884465702918,
              27.66021305662547
            ],
            [
              78.01948109364503,
              27.660804935276957
            ],
            [
              78.01972549738608,
              27.661405643165086
            ],
            [
              78.01991655826723,
              27.661875238242953
            ],
            [
              78.02050968979819,
              27.663192205173253
            ],
            [
              78.02142144208233,
              27.664801019115764
            ],
            [
              78.0218632011997,
              27.665519868868927
            ],
            [
              78.02255808939447,
              27.66653590033124
            ],
            [
              78.0227992196746,
              27.667731616186103
            ],
            [
              78.0225037952187,
              27.668952866908082
            ],
            [
              78.02159370930941,
              27.670434548682525
            ],
            [
              78.02052096275666,
              27.67186027163442
            ],
            [
              78.01885531284508,
              27.67297628022864
            ],
            [
              78.01730986111173,
              27.673633231390014
            ],
            [
              78.01662184413058,
              27.673207328757627
            ],
            [
              78.01634394939911,
              27.673615524727502
            ],
            [
              78.01539031496148,
              27.67465407684883
            ],
            [
              78.01427376386057,
              27.67577691922576
            ],
            [
              78.012738013034,
              27.677250503853607
            ],
            [
              78.011869751786,
              27.67698057915539
            ],
            [
              78.01154302912728,
              27.677206654321434
            ],
            [
              78.01021105842797,
              27.678266778655036
            ],
            [
              78.00975447890502,
              27.678925490300117
            ],
            [
              78.00891472389597,
              27.679907837769544
            ],
            [
              78.00832057008219,
              27.680691843292344
            ],
            [
              78.0083029972386,
              27.681161807334398
            ],
            [
              78.00758940342467,
              27.681325596658834
            ],
            [
              78.00713317604135,
              27.681564452037083
            ],
            [
              78.0066418128523,
              27.68197554260594
            ],
            [
              78.00705043940705,
              27.68270024791818
            ],
            [
              78.00640105806794,
              27.68289349899219
            ],
            [
              78.00532899692978,
              27.683239770867342
            ],
            [
              78.00464653063877,
              27.683475860142245
            ],
            [
              78.00289140582991,
              27.68410127108091
            ],
            [
              78.00101988720802,
              27.684926620622438
            ],
            [
              77.99845136575716,
              27.685887158932488
            ],
            [
              77.99634095725344,
              27.687642749811722
            ],
            [
              77.99547803020161,
              27.68804481062265
            ],
            [
              77.99524382233906,
              27.688184801732536
            ],
            [
              77.99529074314299,
              27.688598380988246
            ],
            [
              77.99532109362316,
              27.688932330857533
            ],
            [
              77.9948604519185,
              27.689283888377876
            ],
            [
              77.99424181542001,
              27.690030541362653
            ],
            [
              77.99353996528178,
              27.690958804015835
            ],
            [
              77.9925143578236,
              27.69037397636482
            ],
            [
              77.99217015305113,
              27.690139291628054
            ],
            [
              77.99198269890584,
              27.690144855692118
            ],
            [
              77.99164565640112,
              27.69057739060678
            ],
            [
              77.99127729143908,
              27.691851379332757
            ],
            [
              77.99129271641085,
              27.69200247361537
            ],
            [
              77.99248029819958,
              27.69250200077802
            ],
            [
              77.993233452022,
              27.692829230178116
            ],
            [
              77.99371645728566,
              27.69331187174822
            ],
            [
              77.99449269960752,
              27.69386970503943
            ],
            [
              77.99523976015735,
              27.69430009112683
            ],
            [
              77.99620233373038,
              27.69492381029236
            ],
            [
              77.99633405010722,
              27.695056520251907
            ],
            [
              77.99673750775581,
              27.694934555345263
            ],
            [
              77.99702250366958,
              27.695525865693146
            ],
            [
              77.99725727567414,
              27.695910049663315
            ],
            [
              77.99759309287683,
              27.696112848297187
            ],
            [
              77.99843108179803,
              27.695599276671377
            ],
            [
              77.9987171008929,
              27.696127061932618
            ],
            [
              77.9998841957033,
              27.69738180287709
            ],
            [
              78.00085795419993,
              27.698142395915156
            ],
            [
              78.00150665461605,
              27.69901396722669
            ],
            [
              78.0022186790732,
              27.69997267076851
            ],
            [
              78.0029742897879,
              27.701234193226966
            ],
            [
              78.00306031515444,
              27.701832753253868
            ],
            [
              78.00248417885037,
              27.702487435882514
            ],
            [
              78.00149746035912,
              27.70355420238177
            ],
            [
              78.0010033420371,
              27.70413799706186
            ],
            [
              78.00194086519011,
              27.705142709695004
            ],
            [
              78.00337772318201,
              27.706254473141527
            ],
            [
              78.00483109759871,
              27.707147005289062
            ],
            [
              78.00580714590099,
              27.707763660292677
            ],
            [
              78.00697352205914,
              27.70861296828039
            ],
            [
              78.00849181322987,
              27.70969695499392
            ],
            [
              78.00959707160936,
              27.7093079189545
            ],
            [
              78.00979765822578,
              27.709706853992287
            ],
            [
              78.01059150842549,
              27.71060903810824
            ],
            [
              78.01082429425497,
              27.711216317858586
            ],
            [
              78.01185665794245,
              27.712333657099055
            ],
            [
              78.01282444803232,
              27.71348259824665
            ],
            [
              78.01442880499378,
              27.7152582881886
            ],
            [
              78.01529419612442,
              27.71638526015627
            ],
            [
              78.01416309141756,
              27.717797454980303
            ],
            [
              78.01388124140391,
              27.718240017879488
            ],
            [
              78.01418103436706,
              27.71870429661405
            ],
            [
              78.01534346871773,
              27.719812484907983
            ],
            [
              78.01589799155609,
              27.720524539235413
            ],
            [
              78.015238307439,
              27.721350876117828
            ],
            [
              78.01353794033662,
              27.72321174791246
            ],
            [
              78.01351453742683,
              27.72323736029343
            ],
            [
              78.01230086856222,
              27.7243444846784
            ],
            [
              78.01115040695764,
              27.725538729311378
            ],
            [
              78.00999834635184,
              27.724790406888875
            ],
            [
              78.00873010483372,
              27.724242033773187
            ],
            [
              78.008036706944,
              27.724132648744117
            ],
            [
              78.00759749544876,
              27.724525090156455
            ],
            [
              78.00689276621004,
              27.725134987278675
            ],
            [
              78.00609751913007,
              27.72634808310784
            ],
            [
              78.00511018529288,
              27.727443670695916
            ],
            [
              78.0044493504339,
              27.728341858727987
            ],
            [
              78.00551805456784,
              27.728970686930957
            ],
            [
              78.00598425325084,
              27.72913489908582
            ],
            [
              78.00623942958877,
              27.72935394922465
            ],
            [
              78.00684280101565,
              27.73003780031063
            ],
            [
              78.00744490941125,
              27.730808060350576
            ],
            [
              78.00819197355435,
              27.73160888698678
            ],
            [
              78.0087687431707,
              27.732877168641323
            ],
            [
              78.00946867899908,
              27.734612741103067
            ],
            [
              78.01008760116184,
              27.736361614142805
            ],
            [
              78.01048179178999,
              27.73714849938115
            ],
            [
              78.01116508273442,
              27.738512457171527
            ],
            [
              78.01233429936549,
              27.7402250546058
            ],
            [
              78.01336318477617,
              27.741017443994064
            ],
            [
              78.01400823713394,
              27.740692141693213
            ],
            [
              78.01367449324293,
              27.740328203663548
            ],
            [
              78.01455119955291,
              27.739812564733008
            ],
            [
              78.01598995927827,
              27.73879459634135
            ],
            [
              78.01724632596665,
              27.73806207819893
            ],
            [
              78.01818000522854,
              27.7372967648037
            ],
            [
              78.01952968441705,
              27.73781722989174
            ],
            [
              78.02003943971326,
              27.73829843764664
            ],
            [
              78.02184555918583,
              27.737558428023096
            ],
            [
              78.0224279073401,
              27.737298128384147
            ],
            [
              78.02377528863815,
              27.736695858290968
            ],
            [
              78.02499837993174,
              27.736020447624487
            ],
            [
              78.02612228823486,
              27.735487619631247
            ],
            [
              78.02807939833704,
              27.734389663955785
            ],
            [
              78.03012100127988,
              27.733062480618493
            ],
            [
              78.03069734060324,
              27.732801922161155
            ],
            [
              78.03194422198054,
              27.73514990431834
            ],
            [
              78.03249835405175,
              27.735890626012555
            ],
            [
              78.03306275117171,
              27.735983970022858
            ],
            [
              78.0338706977349,
              27.73600842332728
            ],
            [
              78.03443273677722,
              27.73624565309191
            ],
            [
              78.03495807155538,
              27.73677017261695
            ],
            [
              78.03550143462299,
              27.737165414161094
            ],
            [
              78.03578917039839,
              27.737464415101186
            ],
            [
              78.0366786300904,
              27.738388680362053
            ],
            [
              78.03785827167039,
              27.739391171635162
            ],
            [
              78.0387649511681,
              27.74033764669189
            ],
            [
              78.03841763013993,
              27.740837015317524
            ],
            [
              78.03988650319023,
              27.74202069579897
            ],
            [
              78.04150869171008,
              27.74331040680633
            ],
            [
              78.04248509933846,
              27.744349927857954
            ],
            [
              78.0439511337125,
              27.745720613659095
            ],
            [
              78.04361396185037,
              27.74660851927554
            ],
            [
              78.0432623747229,
              27.747381257111662
            ],
            [
              78.04282637739975,
              27.748383108328817
            ],
            [
              78.0420865824239,
              27.749165279812285
            ],
            [
              78.0418068847737,
              27.7494784028233
            ],
            [
              78.04095798311839,
              27.748964332027168
            ],
            [
              78.0396140684191,
              27.748055544749572
            ],
            [
              78.03883890138063,
              27.74800278137273
            ],
            [
              78.03792980271983,
              27.748236191227672
            ],
            [
              78.03703600506327,
              27.748527277681795
            ],
            [
              78.03467141375833,
              27.74982168005371
            ],
            [
              78.03338374886715,
              27.75013991062263
            ],
            [
              78.03287155195001,
              27.75034736009601
            ],
            [
              78.0322577986934,
              27.750572831683773
            ],
            [
              78.03001328339586,
              27.751420555648064
            ],
            [
              78.02916905567501,
              27.750860835274825
            ],
            [
              78.02886721095973,
              27.750984831639776
            ],
            [
              78.02799731657458,
              27.751584754637904
            ],
            [
              78.02740367929212,
              27.752092230608064
            ],
            [
              78.02641444731472,
              27.753012381769807
            ],
            [
              78.02477928891882,
              27.75145988526506
            ],
            [
              78.02321264143636,
              27.75025924436186
            ],
            [
              78.02115299672933,
              27.751686656735764
            ],
            [
              78.02066588885975,
              27.752160262816783
            ],
            [
              78.02040969922221,
              27.752471529682964
            ],
            [
              78.02025559323523,
              27.752731913900835
            ],
            [
              78.02025484314196,
              27.752733181095728
            ],
            [
              78.01900382412445,
              27.75482412319889
            ],
            [
              78.01921429220903,
              27.755009152995274
            ],
            [
              78.01879551109828,
              27.755724231895968
            ],
            [
              78.01898066375983,
              27.75582582883179
            ],
            [
              78.01841209755862,
              27.756944605932777
            ],
            [
              78.01859719991447,
              27.75714089332805
            ],
            [
              78.01845760890585,
              27.757533423335012
            ],
            [
              78.01822415832306,
              27.75777020795511
            ],
            [
              78.01752648894418,
              27.75840170581486
            ],
            [
              78.0178050861582,
              27.75941021492241
            ],
            [
              78.0180153808679,
              27.759854696300255
            ],
            [
              78.01839791675354,
              27.760734639223994
            ],
            [
              78.01933579204614,
              27.76207274132273
            ],
            [
              78.01992658256748,
              27.76226022778479
            ],
            [
              78.02057832467916,
              27.76244544366937
            ],
            [
              78.02156730063669,
              27.76269383117101
            ],
            [
              78.0223455408117,
              27.763564926176123
            ],
            [
              78.02346094656065,
              27.76505417969208
            ],
            [
              78.02289268578666,
              27.765649562685244
            ],
            [
              78.0237040279816,
              27.766249947776064
            ],
            [
              78.02370871628905,
              27.766255081901097
            ],
            [
              78.02450766622466,
              27.767129978894822
            ],
            [
              78.02451774801709,
              27.76740746308321
            ],
            [
              78.02436808330087,
              27.767522508648625
            ],
            [
              78.02440075772269,
              27.76817452501611
            ],
            [
              78.02458838344619,
              27.76833023820328
            ],
            [
              78.02490287105076,
              27.76854686070198
            ],
            [
              78.02520457473052,
              27.76886728916914
            ],
            [
              78.02557235938086,
              27.76895541527758
            ],
            [
              78.02594002994519,
              27.76904351269972
            ],
            [
              78.0272998412318,
              27.767854863940762
            ],
            [
              78.02810380107172,
              27.767771657174954
            ],
            [
              78.02876586931761,
              27.767460476183885
            ],
            [
              78.02996308104619,
              27.766964460809007
            ],
            [
              78.03181679775413,
              27.767995820094757
            ],
            [
              78.0341852006108,
              27.769681567878738
            ],
            [
              78.03474330862548,
              27.769329765637995
            ],
            [
              78.03582611541108,
              27.76999323930063
            ],
            [
              78.03606947890302,
              27.770230173271692
            ],
            [
              78.0361049794247,
              27.77052119535601
            ],
            [
              78.03606938098663,
              27.77088214400555
            ],
            [
              78.03665017864874,
              27.77109883137018
            ],
            [
              78.03684783765566,
              27.771597400002108
            ],
            [
              78.0375682802253,
              27.771099002261597
            ],
            [
              78.0386967304105,
              27.771823359324006
            ],
            [
              78.03903422656441,
              27.771462474204817
            ],
            [
              78.03952104337984,
              27.77184605434675
            ],
            [
              78.04071827576968,
              27.77147403596408
            ],
            [
              78.04109099127264,
              27.77199065204421
            ],
            [
              78.04169470944923,
              27.77187119428708
            ],
            [
              78.042531209862,
              27.774260454859682
            ],
            [
              78.04056537262687,
              27.775449077355194
            ],
            [
              78.04066910199103,
              27.776561246621892
            ],
            [
              78.04070427462766,
              27.77802991515672
            ],
            [
              78.04070388026726,
              27.7803536192743
            ],
            [
              78.04103105388026,
              27.780581567214416
            ],
            [
              78.04122845417234,
              27.782690877639823
            ],
            [
              78.04045965888423,
              27.78366312361163
            ],
            [
              78.04044431026927,
              27.784380559009488
            ],
            [
              78.04126374718325,
              27.78413253494188
            ],
            [
              78.04340478644153,
              27.78300706177325
            ],
            [
              78.04394765992728,
              27.782813098811143
            ],
            [
              78.04441687066142,
              27.78311773319532
            ],
            [
              78.04561916595621,
              27.783724743103885
            ],
            [
              78.04905350344086,
              27.78510579721481
            ],
            [
              78.05038010041812,
              27.78571053420427
            ],
            [
              78.05199819172196,
              27.7884561849966
            ],
            [
              78.0520168012214,
              27.78848376962037
            ],
            [
              78.05223408841726,
              27.788805864684996
            ],
            [
              78.05273130682534,
              27.78917813293194
            ],
            [
              78.05351511386021,
              27.78934287813783
            ],
            [
              78.05456277226365,
              27.789620420897574
            ],
            [
              78.05626232369579,
              27.79055230797944
            ],
            [
              78.0584337817062,
              27.791553970002308
            ],
            [
              78.0614271919134,
              27.79316939600807
            ],
            [
              78.06257890307457,
              27.791863139840995
            ],
            [
              78.0637888601004,
              27.79041477920323
            ],
            [
              78.06360365892988,
              27.790290648161815
            ],
            [
              78.06385734675935,
              27.78994550068983
            ]
          ]
        ]
      }
    }
  ]
}