{
  "type": "FeatureCollection",
  "features": [
    {
      "type": "Feature",
      "properties": {
        "object_id": "09-175-00890",
        "stcode11": "09",
        "dtcode11": "175",
        "sdtcode11": "00890",
        "stname": "UTTAR PRADESH",
        "dtname": "Prayagraj",
        "sdtname": "Allahabad",
        "st_area_sh": 0.0,
        "st_length_": 0.0,
        "remarks": "",
        "dist_lgd": 120,
        "state_lgd": 9,
        "subdt_lgd": 890,
        "ac_no": 253,
        "st_length(shape)": 116200.22764937367,
        "st_area(shape)": 375489053.2881683
      },
      "geometry": {
        "type": "Polygon",
        "coordinates": [
          [
            [
              81.70600037320318,
              25.503999505394553
            ],
            [
              81.70687025231699,
              25.50310529292117
            ],
            [
              81.70779479391584,
              25.502265144634436
            ],
            [
              81.70855038127436,
              25.50150185801214
            ],
            [
              81.70930269696862,
              25.500904362291635
            ],
            [
              81.71003716044322,
              25.500375257336533
            ],
            [
              81.71002871717788,
              25.499827181215004
            ],
            [
              81.71127033981746,
              25.497479455130566
            ],
            [
              81.71233383102782,
              25.49637304614621
            ],
            [
              81.71456089655098,
              25.495117019952083
            ],
            [
              81.71673310285803,
              25.493766122774023
            ],
            [
              81.71800507597786,
              25.492241912229527
            ],
            [
              81.71805966839429,
              25.492176514850833
            ],
            [
              81.7191720324477,
              25.490104136908055
            ],
            [
              81.72054772864345,
              25.487837484839197
            ],
            [
              81.72192399077788,
              25.486437435174754
            ],
            [
              81.72372796866682,
              25.485055080223464
            ],
            [
              81.72430901336563,
              25.484138469618912
            ],
            [
              81.72521181483629,
              25.481389218665445
            ],
            [
              81.72584567059234,
              25.478256389624963
            ],
            [
              81.7258451154335,
              25.47758387588861
            ],
            [
              81.72616289626188,
              25.477005934356416
            ],
            [
              81.7285535890157,
              25.47590304302108
            ],
            [
              81.73083523707385,
              25.475084438663217
            ],
            [
              81.7340668939691,
              25.47474354677417
            ],
            [
              81.73666736579965,
              25.47479123786288
            ],
            [
              81.73889502690585,
              25.474884388178726
            ],
            [
              81.74101831635242,
              25.47498198824201
            ],
            [
              81.74357877991518,
              25.47514048670284
            ],
            [
              81.74360511133276,
              25.4751421167603
            ],
            [
              81.74404158296637,
              25.475169130296727
            ],
            [
              81.74626997889447,
              25.475939105984295
            ],
            [
              81.7481890408528,
              25.47946115624669
            ],
            [
              81.74820942632152,
              25.47949857079822
            ],
            [
              81.74947160331317,
              25.480898698845742
            ],
            [
              81.75143618470355,
              25.482112526237273
            ],
            [
              81.75168959585194,
              25.482269076375328
            ],
            [
              81.7536922307761,
              25.483082446795205
            ],
            [
              81.7551692093252,
              25.4829483172573
            ],
            [
              81.75682525355148,
              25.482902415864057
            ],
            [
              81.7572279593102,
              25.482891251906878
            ],
            [
              81.75961007584802,
              25.482613284690213
            ],
            [
              81.76138466265748,
              25.483282710697434
            ],
            [
              81.76214012155691,
              25.4836895042617
            ],
            [
              81.76383845577182,
              25.484981942065836
            ],
            [
              81.76442585605128,
              25.485428922367173
            ],
            [
              81.76576164998045,
              25.48752415965048
            ],
            [
              81.767018008584,
              25.48951104108334
            ],
            [
              81.76775094671923,
              25.49032403977184
            ],
            [
              81.76934300933773,
              25.49208995968046
            ],
            [
              81.77078858008957,
              25.493914412228282
            ],
            [
              81.77162795511127,
              25.495138136633226
            ],
            [
              81.77205540316784,
              25.4954679068222
            ],
            [
              81.77339982182205,
              25.495651912296207
            ],
            [
              81.77424332100922,
              25.495767353323725
            ],
            [
              81.77583487428295,
              25.49557889086114
            ],
            [
              81.7763471619299,
              25.495430280748028
            ],
            [
              81.7769144408453,
              25.495101198858276
            ],
            [
              81.77927802963038,
              25.49328833193786
            ],
            [
              81.77967123390836,
              25.492868829097855
            ],
            [
              81.78031292836357,
              25.492634508198467
            ],
            [
              81.78167055404907,
              25.49260384081486
            ],
            [
              81.78282458555863,
              25.492248030967712
            ],
            [
              81.78397828199655,
              25.492275828814687
            ],
            [
              81.78724059479919,
              25.492241716812636
            ],
            [
              81.78833973385497,
              25.492066339339758
            ],
            [
              81.78939928325785,
              25.49162008268669
            ],
            [
              81.7912788552763,
              25.49192357767465
            ],
            [
              81.79310874776456,
              25.492227074328657
            ],
            [
              81.79333496062108,
              25.49225409781065
            ],
            [
              81.79336989789913,
              25.492258275353223
            ],
            [
              81.79807633696261,
              25.492820977333622
            ],
            [
              81.80076689813808,
              25.492619250322672
            ],
            [
              81.80291531705642,
              25.49234508095744
            ],
            [
              81.80533243016107,
              25.492394488946708
            ],
            [
              81.80698314917434,
              25.492428210883066
            ],
            [
              81.8102847821353,
              25.493201525393342
            ],
            [
              81.81088551341357,
              25.493469492232915
            ],
            [
              81.81110235774,
              25.493566217707123
            ],
            [
              81.81165209435454,
              25.49381143377533
            ],
            [
              81.81350163209973,
              25.494665304687675
            ],
            [
              81.81755873743485,
              25.49658517060489
            ],
            [
              81.81881666988677,
              25.497185987866978
            ],
            [
              81.82125793419783,
              25.498423534188138
            ],
            [
              81.82252093763954,
              25.498744467209832
            ],
            [
              81.8231724030701,
              25.498907181379693
            ],
            [
              81.82537710683087,
              25.498863377170622
            ],
            [
              81.8254053956775,
              25.498862815276645
            ],
            [
              81.82832041799468,
              25.497103549624136
            ],
            [
              81.82955562576487,
              25.496395155063126
            ],
            [
              81.83131194173978,
              25.495387873154684
            ],
            [
              81.83187192094518,
              25.49518191301038
            ],
            [
              81.83391061065157,
              25.49608973023642
            ],
            [
              81.83392917613355,
              25.496102346790188
            ],
            [
              81.8354320126881,
              25.497123744858275
            ],
            [
              81.83865859859361,
              25.50040131818374
            ],
            [
              81.83867059469591,
              25.50040132223777
            ],
            [
              81.83884763557042,
              25.50040138061561
            ],
            [
              81.83884061793141,
              25.500418674241082
            ],
            [
              81.83881168229782,
              25.500489969778357
            ],
            [
              81.83976126713014,
              25.501897593113398
            ],
            [
              81.84051642060237,
              25.503016977300565
            ],
            [
              81.84518281456714,
              25.50993354711474
            ],
            [
              81.84626204426128,
              25.51088167760943
            ],
            [
              81.84627456318309,
              25.5108844949055
            ],
            [
              81.84847142734637,
              25.511378809759886
            ],
            [
              81.84886673907197,
              25.511458214996953
            ],
            [
              81.84898876801682,
              25.511482728190433
            ],
            [
              81.86292136318903,
              25.511806310631076
            ],
            [
              81.86472215744863,
              25.511097732813173
            ],
            [
              81.86548820928186,
              25.51065991525905
            ],
            [
              81.86586140179024,
              25.510163400346187
            ],
            [
              81.86591800373799,
              25.510064171705128
            ],
            [
              81.86644842567557,
              25.509134271642942
            ],
            [
              81.86678171412072,
              25.50838504005233
            ],
            [
              81.8677169250102,
              25.5076493677107
            ],
            [
              81.86877157500152,
              25.506877462068964
            ],
            [
              81.8700747969168,
              25.506286264348542
            ],
            [
              81.87276295509889,
              25.506745622735565
            ],
            [
              81.87290571895711,
              25.506799925037242
            ],
            [
              81.87372285708226,
              25.50711073038855
            ],
            [
              81.87373696332713,
              25.507069073627374
            ],
            [
              81.87524805899244,
              25.50260672466513
            ],
            [
              81.87597597913853,
              25.500457021178484
            ],
            [
              81.87934013394494,
              25.496276010761534
            ],
            [
              81.87952226826711,
              25.49598708365701
            ],
            [
              81.87953487342718,
              25.495967090129312
            ],
            [
              81.88211983674267,
              25.49186629116607
            ],
            [
              81.88475534107269,
              25.4889007776026
            ],
            [
              81.88546143934389,
              25.487988631878025
            ],
            [
              81.8857535840507,
              25.487611231402557
            ],
            [
              81.88704743833419,
              25.48593975704717
            ],
            [
              81.88788274398767,
              25.48448634114188
            ],
            [
              81.88829535636731,
              25.483669357046644
            ],
            [
              81.88926985956732,
              25.48203089669065
            ],
            [
              81.89079614574408,
              25.48026145791431
            ],
            [
              81.89474280501163,
              25.476319811295767
            ],
            [
              81.89641412239436,
              25.47465051231897
            ],
            [
              81.89834977264272,
              25.473129054357692
            ],
            [
              81.89918815233109,
              25.472470053890085
            ],
            [
              81.89932728609723,
              25.472027759189082
            ],
            [
              81.89904867271353,
              25.47089493838313
            ],
            [
              81.89768952707855,
              25.468800961971652
            ],
            [
              81.8974521751125,
              25.468435278075596
            ],
            [
              81.8962734246613,
              25.46641799472942
            ],
            [
              81.89596139125412,
              25.465998955307402
            ],
            [
              81.89467715433403,
              25.464274271871048
            ],
            [
              81.89387958870229,
              25.463198284072366
            ],
            [
              81.89356317960134,
              25.462771413222384
            ],
            [
              81.8925934590319,
              25.461128633894408
            ],
            [
              81.89175800425811,
              25.45961675082954
            ],
            [
              81.89124095015026,
              25.458681042386438
            ],
            [
              81.89078336361587,
              25.457788832778167
            ],
            [
              81.8905638360217,
              25.45659165672523
            ],
            [
              81.88988790766932,
              25.452905397390875
            ],
            [
              81.88988771093828,
              25.451203753159454
            ],
            [
              81.88967863883569,
              25.449059909345294
            ],
            [
              81.88933332913541,
              25.446370857322457
            ],
            [
              81.88933030271123,
              25.44634728884009
            ],
            [
              81.88870368827469,
              25.443955224094847
            ],
            [
              81.88815161783705,
              25.440863469934367
            ],
            [
              81.88796162505275,
              25.44033155685043
            ],
            [
              81.88738589029559,
              25.438719662674686
            ],
            [
              81.8869681458407,
              25.436828507387077
            ],
            [
              81.88696808295863,
              25.435758803122813
            ],
            [
              81.88697278833409,
              25.435718164085166
            ],
            [
              81.88710708557073,
              25.434558273362985
            ],
            [
              81.8875244913608,
              25.433362087270336
            ],
            [
              81.88782832494607,
              25.432709282072903
            ],
            [
              81.88808115937603,
              25.432166045875384
            ],
            [
              81.88863268094305,
              25.430649390662587
            ],
            [
              81.88842879211964,
              25.42964290980462
            ],
            [
              81.88794158363875,
              25.42844235399144
            ],
            [
              81.886967234949,
              25.426930452366072
            ],
            [
              81.88537162578177,
              25.42516579662336
            ],
            [
              81.88412396017524,
              25.42359065036825
            ],
            [
              81.88403952392844,
              25.423484048397
            ],
            [
              81.88287649938458,
              25.42410070095419
            ],
            [
              81.88114194509744,
              25.425129874219454
            ],
            [
              81.87984858219238,
              25.42565644462229
            ],
            [
              81.87941231986623,
              25.425834059125727
            ],
            [
              81.87738951417073,
              25.426556220788022
            ],
            [
              81.87485960770067,
              25.427458996084823
            ],
            [
              81.87413944989694,
              25.427723612685917
            ],
            [
              81.87358218360372,
              25.427928374032227
            ],
            [
              81.87233468059223,
              25.428212652030414
            ],
            [
              81.87042602831144,
              25.42856020900627
            ],
            [
              81.8702881710513,
              25.428565588655086
            ],
            [
              81.8689249623363,
              25.428618791267695
            ],
            [
              81.86892151909379,
              25.428618633877946
            ],
            [
              81.86764263613283,
              25.428560044314853
            ],
            [
              81.86615652980211,
              25.42828918829999
            ],
            [
              81.86278172277306,
              25.427801508181588
            ],
            [
              81.86032644204862,
              25.427097113286507
            ],
            [
              81.85700149061951,
              25.426234653007363
            ],
            [
              81.85690897941662,
              25.426207278005432
            ],
            [
              81.85439224584188,
              25.425462515253876
            ],
            [
              81.8517382937092,
              25.42456845231382
            ],
            [
              81.84845815473805,
              25.423529750150966
            ],
            [
              81.84642537594623,
              25.423011669899005
            ],
            [
              81.84604781762559,
              25.42291544021556
            ],
            [
              81.84338902087858,
              25.42194452929846
            ],
            [
              81.8417771162721,
              25.421185112607226
            ],
            [
              81.83935391887802,
              25.42004342570312
            ],
            [
              81.83809665656929,
              25.419542061284798
            ],
            [
              81.83743167418865,
              25.419381888827903
            ],
            [
              81.83710999377364,
              25.419304405736224
            ],
            [
              81.8360144129447,
              25.419040508981915
            ],
            [
              81.83482170626722,
              25.41869270792407
            ],
            [
              81.8326449526882,
              25.418412207864783
            ],
            [
              81.83261055619597,
              25.41840956527815
            ],
            [
              81.83140753416413,
              25.418317103918312
            ],
            [
              81.82928562273317,
              25.41768900430558
            ],
            [
              81.82829586164809,
              25.417342952704917
            ],
            [
              81.82824612013418,
              25.417325561944196
            ],
            [
              81.82676618433113,
              25.416808114670477
            ],
            [
              81.82547915185388,
              25.416338291792623
            ],
            [
              81.82372021010342,
              25.415502616751915
            ],
            [
              81.82213044088384,
              25.414296951187435
            ],
            [
              81.8202828991952,
              25.41295352511981
            ],
            [
              81.8202490973877,
              25.412928944784863
            ],
            [
              81.82010247257038,
              25.412822326083766
            ],
            [
              81.81996928744805,
              25.412725478098963
            ],
            [
              81.81783840633902,
              25.41024221760085
            ],
            [
              81.81650730071732,
              25.408752271975153
            ],
            [
              81.81329536813072,
              25.40608880009716
            ],
            [
              81.81295417810435,
              25.405805860741456
            ],
            [
              81.81261435172057,
              25.405445620226267
            ],
            [
              81.81209635887325,
              25.4048552353756
            ],
            [
              81.81069110990124,
              25.402814492397344
            ],
            [
              81.80903257285004,
              25.40072403965477
            ],
            [
              81.80662425964192,
              25.397631118927432
            ],
            [
              81.80397240597375,
              25.39483598736149
            ],
            [
              81.800754492404,
              25.391647911674852
            ],
            [
              81.79926259912621,
              25.389983506286992
            ],
            [
              81.79819238582262,
              25.388789503375808
            ],
            [
              81.7972668120595,
              25.387534137700573
            ],
            [
              81.7960877804356,
              25.385934958663704
            ],
            [
              81.79564564582245,
              25.385335258832292
            ],
            [
              81.79516219229947,
              25.38470122932293
            ],
            [
              81.7939826683988,
              25.383154295607692
            ],
            [
              81.79351616159366,
              25.382328078776585
            ],
            [
              81.79304965928011,
              25.38150185791586
            ],
            [
              81.7921763369238,
              25.379899071709886
            ],
            [
              81.79171510772099,
              25.37873885189968
            ],
            [
              81.79155157840667,
              25.378079775842572
            ],
            [
              81.79148244855396,
              25.377483948253015
            ],
            [
              81.79141368521391,
              25.376305845936255
            ],
            [
              81.79141420174521,
              25.37557197417349
            ],
            [
              81.79141456735952,
              25.37505109638655
            ],
            [
              81.79162901677739,
              25.373904789669684
            ],
            [
              81.79206201013425,
              25.37274509911516
            ],
            [
              81.79301195159775,
              25.37120646665553
            ],
            [
              81.79445403598797,
              25.36921231628991
            ],
            [
              81.79542333165425,
              25.36836423369
            ],
            [
              81.79712299357914,
              25.367295431201335
            ],
            [
              81.79845514124659,
              25.366122624951647
            ],
            [
              81.7989645929122,
              25.365673800148667
            ],
            [
              81.79900412058133,
              25.365639008603882
            ],
            [
              81.79947404098456,
              25.36522497286711
            ],
            [
              81.80115997934686,
              25.363299692969086
            ],
            [
              81.80237982412905,
              25.36190662662911
            ],
            [
              81.80230654316142,
              25.36185363325086
            ],
            [
              81.8022332630921,
              25.36180063822591
            ],
            [
              81.7995418350424,
              25.360224053611095
            ],
            [
              81.79937837489837,
              25.35947017270526
            ],
            [
              81.79898101142065,
              25.359379699634577
            ],
            [
              81.79893631125212,
              25.35937064615447
            ],
            [
              81.79873254190461,
              25.35953298283209
            ],
            [
              81.79847409569908,
              25.359704422264286
            ],
            [
              81.7983001962331,
              25.359735893022712
            ],
            [
              81.79823563880522,
              25.359690710982587
            ],
            [
              81.79822084804405,
              25.35961853495195
            ],
            [
              81.79823579960365,
              25.359442465162065
            ],
            [
              81.79826580692742,
              25.35919875004313
            ],
            [
              81.79833062127346,
              25.358779012381977
            ],
            [
              81.79825124703329,
              25.358544298327388
            ],
            [
              81.79802788363283,
              25.35838617660123
            ],
            [
              81.7975659447609,
              25.35831375382841
            ],
            [
              81.7972480462532,
              25.358254940988246
            ],
            [
              81.79706925815549,
              25.358169016928574
            ],
            [
              81.79700976902242,
              25.35805170523063
            ],
            [
              81.79701215225286,
              25.35804954107367
            ],
            [
              81.79710419273857,
              25.3579659303908
            ],
            [
              81.79843364456181,
              25.353037903136144
            ],
            [
              81.7995064225556,
              25.35326413164565
            ],
            [
              81.79966278960217,
              25.352462622109034
            ],
            [
              81.79972856963715,
              25.352125443229355
            ],
            [
              81.80750490955597,
              25.35297874271634
            ],
            [
              81.80903573222491,
              25.354033770729238
            ],
            [
              81.81012021706346,
              25.352579789859035
            ],
            [
              81.81017153871397,
              25.352510980172696
            ],
            [
              81.81147429530193,
              25.35082686871221
            ],
            [
              81.81223429698176,
              25.34984436481731
            ],
            [
              81.81251337120116,
              25.34923654867786
            ],
            [
              81.81327855256693,
              25.34756996210279
            ],
            [
              81.8134121167783,
              25.347099346956842
            ],
            [
              81.81362693720043,
              25.346342420189824
            ],
            [
              81.81420456470788,
              25.34342233061627
            ],
            [
              81.8141584991001,
              25.342837551320198
            ],
            [
              81.81411070513373,
              25.34223079518038
            ],
            [
              81.81371439537985,
              25.340280748055108
            ],
            [
              81.81323979565231,
              25.338468426751156
            ],
            [
              81.81299946038119,
              25.33755065184811
            ],
            [
              81.81294601690999,
              25.337346569396377
            ],
            [
              81.81287974100495,
              25.33718005898971
            ],
            [
              81.81176551204905,
              25.33438065630944
            ],
            [
              81.81134616410137,
              25.333730224917954
            ],
            [
              81.81072345194642,
              25.332764349367952
            ],
            [
              81.8102370088302,
              25.332213518353512
            ],
            [
              81.80932364586673,
              25.33144574430774
            ],
            [
              81.80879132758557,
              25.331071255727394
            ],
            [
              81.80708960672203,
              25.329874060351607
            ],
            [
              81.80552099911563,
              25.328681741127635
            ],
            [
              81.80278573238175,
              25.326685418986507
            ],
            [
              81.80104306001937,
              25.325885631766088
            ],
            [
              81.79954627541487,
              25.325124362978027
            ],
            [
              81.79804943780977,
              25.324363043119995
            ],
            [
              81.79670399238117,
              25.323856829343406
            ],
            [
              81.79539313837924,
              25.32362137113893
            ],
            [
              81.79386371169225,
              25.323448997929923
            ],
            [
              81.79288042296876,
              25.323462027996733
            ],
            [
              81.79096827983479,
              25.323745261693848
            ],
            [
              81.78856425338718,
              25.324384844992007
            ],
            [
              81.78725524542315,
              25.3249414759047
            ],
            [
              81.7859462302726,
              25.325498131053642
            ],
            [
              81.78427202211128,
              25.326390740894972
            ],
            [
              81.78221982623464,
              25.327960256664195
            ],
            [
              81.78110666178232,
              25.328839661345558
            ],
            [
              81.77944709705844,
              25.329953417970234
            ],
            [
              81.77847763789875,
              25.33084995806152
            ],
            [
              81.77761807863094,
              25.331644847345295
            ],
            [
              81.77527703037296,
              25.333949708351945
            ],
            [
              81.77479492791619,
              25.33437366567234
            ],
            [
              81.77354273390229,
              25.33509490405724
            ],
            [
              81.77167946271301,
              25.33615880471008
            ],
            [
              81.770905020615,
              25.336537859135078
            ],
            [
              81.77026962694319,
              25.336848849658942
            ],
            [
              81.76939833477947,
              25.337275295042982
            ],
            [
              81.76941759915071,
              25.33729613573419
            ],
            [
              81.76657146593773,
              25.33873240705414
            ],
            [
              81.764191235862,
              25.340003405913997
            ],
            [
              81.76229827984415,
              25.340724196686406
            ],
            [
              81.76157678265234,
              25.340988937667234
            ],
            [
              81.76021154733806,
              25.34148987487659
            ],
            [
              81.75876066484794,
              25.342025839744405
            ],
            [
              81.7557649594452,
              25.342808757751044
            ],
            [
              81.75326079060639,
              25.343637237072578
            ],
            [
              81.74872939815744,
              25.345172536284764
            ],
            [
              81.74821174307664,
              25.345435270388702
            ],
            [
              81.7474216936489,
              25.345718836667558
            ],
            [
              81.74628620516344,
              25.346573732781664
            ],
            [
              81.74626918478377,
              25.346586546845298
            ],
            [
              81.74558519135677,
              25.347101507250606
            ],
            [
              81.7437534007283,
              25.34816369409347
            ],
            [
              81.74161203627989,
              25.34912408625476
            ],
            [
              81.7414546981545,
              25.349194651402176
            ],
            [
              81.738768453384,
              25.350266460966424
            ],
            [
              81.73760550429864,
              25.35051048471936
            ],
            [
              81.73724198484922,
              25.35058676096656
            ],
            [
              81.73615620104681,
              25.350814581962762
            ],
            [
              81.73346947118604,
              25.351295010389762
            ],
            [
              81.73174292268469,
              25.351636316365525
            ],
            [
              81.72955098578072,
              25.352069592079722
            ],
            [
              81.72421664499484,
              25.35268714691943
            ],
            [
              81.7223804930457,
              25.35315854724523
            ],
            [
              81.72171374008562,
              25.353329717271485
            ],
            [
              81.71945392917372,
              25.353746435318808
            ],
            [
              81.71796872385325,
              25.353747431385973
            ],
            [
              81.71726350413442,
              25.35400514137146
            ],
            [
              81.7167991973034,
              25.354297005126874
            ],
            [
              81.71623578833024,
              25.35465116292208
            ],
            [
              81.71383720567327,
              25.355487674855908
            ],
            [
              81.71265419630929,
              25.35579629092154
            ],
            [
              81.71186057338333,
              25.356003320650693
            ],
            [
              81.70869022740453,
              25.356240966895403
            ],
            [
              81.70797619521275,
              25.35629448226922
            ],
            [
              81.7064563230071,
              25.356516469670666
            ],
            [
              81.7048806267948,
              25.35678099424855
            ],
            [
              81.70451429741519,
              25.356842490705354
            ],
            [
              81.70200606998789,
              25.357227442747615
            ],
            [
              81.7004485242359,
              25.357364098828622
            ],
            [
              81.69978077414588,
              25.357422680748865
            ],
            [
              81.69811662801403,
              25.35742360616211
            ],
            [
              81.69794916587541,
              25.35742369220932
            ],
            [
              81.6981167196422,
              25.35756792914243
            ],
            [
              81.69819185024099,
              25.357940069262618
            ],
            [
              81.69843095841343,
              25.359124441239466
            ],
            [
              81.6985003227264,
              25.359468023996975
            ],
            [
              81.69842158090017,
              25.360618972849924
            ],
            [
              81.69822845838543,
              25.361616541903853
            ],
            [
              81.69790100898965,
              25.362393016991263
            ],
            [
              81.69814470036665,
              25.362717932835263
            ],
            [
              81.69847768518125,
              25.36301563704764
            ],
            [
              81.69855762536007,
              25.363764825184578
            ],
            [
              81.69844905317821,
              25.36494297511084
            ],
            [
              81.69803704805966,
              25.36551640692548
            ],
            [
              81.69781899370253,
              25.366414654260673
            ],
            [
              81.69787432183918,
              25.36751590000501
            ],
            [
              81.69801393710233,
              25.36844115614319
            ],
            [
              81.69878434217148,
              25.36906367767058
            ],
            [
              81.69908787661777,
              25.36981271467841
            ],
            [
              81.69939179464467,
              25.371216267611874
            ],
            [
              81.69946680486925,
              25.372051289940106
            ],
            [
              81.70004353226479,
              25.372773123403764
            ],
            [
              81.70040175255232,
              25.373626027143974
            ],
            [
              81.70149998880123,
              25.37412196976698
            ],
            [
              81.70221568467294,
              25.374572952211803
            ],
            [
              81.70293121615292,
              25.374698930093103
            ],
            [
              81.70364714289165,
              25.37552451814486
            ],
            [
              81.70554516989927,
              25.37582139377337
            ],
            [
              81.70667346018435,
              25.376569996052197
            ],
            [
              81.70807536742348,
              25.377869122674287
            ],
            [
              81.70878178639323,
              25.379155099254064
            ],
            [
              81.70963232567729,
              25.38050418763571
            ],
            [
              81.71040360480717,
              25.38228205219357
            ],
            [
              81.71101088480385,
              25.383902026239344
            ],
            [
              81.71158827335945,
              25.385278321717927
            ],
            [
              81.71209564901844,
              25.38615366236388
            ],
            [
              81.71280737164166,
              25.387769068124648
            ],
            [
              81.71322568203516,
              25.389082219647342
            ],
            [
              81.71334882668756,
              25.389712420797075
            ],
            [
              81.71334980585122,
              25.38971741263531
            ],
            [
              81.71335534306664,
              25.389745703231487
            ],
            [
              81.71285340401175,
              25.389687275758
            ],
            [
              81.71208831517247,
              25.389741927094633
            ],
            [
              81.71127345966644,
              25.38974235721553
            ],
            [
              81.7102449093274,
              25.38976557238031
            ],
            [
              81.70947971628355,
              25.38982011899174
            ],
            [
              81.70812337968044,
              25.389987941392608
            ],
            [
              81.70670747040099,
              25.390232434352846
            ],
            [
              81.70529641202405,
              25.390377637623104
            ],
            [
              81.70424802508688,
              25.390463989995396
            ],
            [
              81.70237015807089,
              25.39095245735244
            ],
            [
              81.7007952406979,
              25.39121953267849
            ],
            [
              81.70031848231875,
              25.39165312417084
            ],
            [
              81.69977220421806,
              25.392109196816943
            ],
            [
              81.69916109021173,
              25.392276503958865
            ],
            [
              81.69849049964878,
              25.39261989261607
            ],
            [
              81.69726839560366,
              25.392995178180975
            ],
            [
              81.69568368389912,
              25.393672907635178
            ],
            [
              81.69445169838589,
              25.394106817357063
            ],
            [
              81.69419331236746,
              25.394106969922717
            ],
            [
              81.69419405257923,
              25.394090497698247
            ],
            [
              81.69422274656606,
              25.393452412727683
            ],
            [
              81.6943364678911,
              25.39245941660339
            ],
            [
              81.69440555372636,
              25.39166949528595
            ],
            [
              81.69427610829054,
              25.391114421297655
            ],
            [
              81.69416607724466,
              25.389959020280887
            ],
            [
              81.69387248714858,
              25.389151242236494
            ],
            [
              81.69338993104256,
              25.388090752260823
            ],
            [
              81.69311379611075,
              25.387594255890914
            ],
            [
              81.69311135179485,
              25.387589862087065
            ],
            [
              81.69258971178745,
              25.387626295594625
            ],
            [
              81.69166565258392,
              25.387911028113123
            ],
            [
              81.69110423068419,
              25.388019593038237
            ],
            [
              81.6905476974162,
              25.38780770334551
            ],
            [
              81.69016492796861,
              25.387464873152297
            ],
            [
              81.68963810917359,
              25.38731616528653
            ],
            [
              81.68892769539576,
              25.387375076788587
            ],
            [
              81.6883712573492,
              25.387492688699826
            ],
            [
              81.68716367636729,
              25.387253999377716
            ],
            [
              81.68633874715368,
              25.386911365634788
            ],
            [
              81.68530020575201,
              25.386789926610806
            ],
            [
              81.68452506386642,
              25.386672891852463
            ],
            [
              81.68374987706503,
              25.386506150724834
            ],
            [
              81.68271134464652,
              25.386253809618264
            ],
            [
              81.68177218655967,
              25.386014927127086
            ],
            [
              81.68149392711221,
              25.386105291792134
            ],
            [
              81.68072857326992,
              25.385591060798838
            ],
            [
              81.68004259097289,
              25.38498650194813
            ],
            [
              81.67960521204085,
              25.384571432822856
            ],
            [
              81.6793465089171,
              25.383966753621596
            ],
            [
              81.67931939596522,
              25.38390827790251
            ],
            [
              81.67900335607183,
              25.38322667265188
            ],
            [
              81.67864541605869,
              25.38259490129588
            ],
            [
              81.67817792290333,
              25.381597524106873
            ],
            [
              81.67767553109755,
              25.380356518176917
            ],
            [
              81.67721817902346,
              25.37954421767646
            ],
            [
              81.67710369592703,
              25.37908837108322
            ],
            [
              81.67712331603114,
              25.378528724190108
            ],
            [
              81.67749569736084,
              25.377905710077638
            ],
            [
              81.67792594456783,
              25.377663770706235
            ],
            [
              81.67768921243935,
              25.37734142084991
            ],
            [
              81.67748033976272,
              25.376957836361704
            ],
            [
              81.67719686469673,
              25.376231278187213
            ],
            [
              81.67684369833097,
              25.37531973115452
            ],
            [
              81.67667955187406,
              25.374823277239933
            ],
            [
              81.67635146557274,
              25.37426370473728
            ],
            [
              81.67612770062533,
              25.373848524087286
            ],
            [
              81.67582939706895,
              25.37341988227715
            ],
            [
              81.67542187274704,
              25.373122107108546
            ],
            [
              81.67492505858085,
              25.37291466921601
            ],
            [
              81.67460203608279,
              25.37281092659795
            ],
            [
              81.67395125067686,
              25.372860751311606
            ],
            [
              81.6732061870819,
              25.373316946882227
            ],
            [
              81.67260031923686,
              25.373772925641312
            ],
            [
              81.67196461923955,
              25.374481789992323
            ],
            [
              81.67121468228417,
              25.375163533065564
            ],
            [
              81.67087203788532,
              25.375605991796505
            ],
            [
              81.67014689263516,
              25.376138812913247
            ],
            [
              81.66922304812897,
              25.376662723966426
            ],
            [
              81.66818483640903,
              25.377173040324283
            ],
            [
              81.6672211579082,
              25.377556909823102
            ],
            [
              81.66655540926465,
              25.37775118566606
            ],
            [
              81.6656811032531,
              25.37800421332139
            ],
            [
              81.66496574155468,
              25.37816238161321
            ],
            [
              81.66434975328964,
              25.3783114740997
            ],
            [
              81.66383805493753,
              25.378424470199963
            ],
            [
              81.6633213224265,
              25.378469772660722
            ],
            [
              81.66264073091949,
              25.37878587325902
            ],
            [
              81.66177145996512,
              25.379318633274856
            ],
            [
              81.66122514593184,
              25.37980172412905
            ],
            [
              81.660768179235,
              25.380307419701623
            ],
            [
              81.66057942163427,
              25.3805963370978
            ],
            [
              81.66049417600536,
              25.380601287920836
            ],
            [
              81.6604705871443,
              25.380602653049348
            ],
            [
              81.66034595757674,
              25.380609881250482
            ],
            [
              81.660167103902,
              25.380709269378066
            ],
            [
              81.66001805363344,
              25.380731849166274
            ],
            [
              81.65966029957154,
              25.380731904355716
            ],
            [
              81.65912868556954,
              25.380732068300816
            ],
            [
              81.65884058058656,
              25.380844955004054
            ],
            [
              81.65862202496952,
              25.38107068020919
            ],
            [
              81.65853223656022,
              25.381227127938327
            ],
            [
              81.65844327999092,
              25.381382128372934
            ],
            [
              81.65841847840422,
              25.381657508092065
            ],
            [
              81.65845832497527,
              25.38187862837354
            ],
            [
              81.65909966279935,
              25.383566546081337
            ],
            [
              81.65962172231994,
              25.38473542129963
            ],
            [
              81.65978587326846,
              25.385236399603702
            ],
            [
              81.65982563270292,
              25.385434969325047
            ],
            [
              81.65986541190033,
              25.385556866629685
            ],
            [
              81.65992006899549,
              25.385669679027114
            ],
            [
              81.6602003703136,
              25.386059239866924
            ],
            [
              81.66048179183085,
              25.38645035198519
            ],
            [
              81.66077012498592,
              25.38683844461371
            ],
            [
              81.66083966626701,
              25.386973831188417
            ],
            [
              81.66087945444757,
              25.38715886924397
            ],
            [
              81.66094916012037,
              25.387619253661445
            ],
            [
              81.66087982185853,
              25.38817896798614
            ],
            [
              81.66082524201849,
              25.38851743890154
            ],
            [
              81.66087999792833,
              25.388801814668728
            ],
            [
              81.6609197097521,
              25.38894175267276
            ],
            [
              81.6611832673716,
              25.3896141510915
            ],
            [
              81.6615810171249,
              25.390421978788833
            ],
            [
              81.6619737722452,
              25.39109446310147
            ],
            [
              81.66215271395487,
              25.391383215102493
            ],
            [
              81.66226211707837,
              25.391654026598903
            ],
            [
              81.66230693402788,
              25.39184361262555
            ],
            [
              81.66237154984627,
              25.392114351674167
            ],
            [
              81.66240145116883,
              25.392263323869628
            ],
            [
              81.662361776176,
              25.392376131623337
            ],
            [
              81.66222261096883,
              25.392552225642227
            ],
            [
              81.66207363076883,
              25.392651570666953
            ],
            [
              81.66182522413489,
              25.392764498164052
            ],
            [
              81.66155198986313,
              25.39287741500564
            ],
            [
              81.66142776094416,
              25.39296314720594
            ],
            [
              81.6612935858784,
              25.393039966347924
            ],
            [
              81.66118436421456,
              25.393103172088487
            ],
            [
              81.66100545304764,
              25.39323854839137
            ],
            [
              81.66049869093798,
              25.393486963353983
            ],
            [
              81.66042921523392,
              25.393536580714077
            ],
            [
              81.66038945669776,
              25.393572717843966
            ],
            [
              81.66031992799307,
              25.393649490341215
            ],
            [
              81.66031000699907,
              25.393712643825175
            ],
            [
              81.66030995759174,
              25.393771367178772
            ],
            [
              81.66031000520243,
              25.393798427369607
            ],
            [
              81.66047426574539,
              25.39496293009305
            ],
            [
              81.66047435737356,
              25.39510283336319
            ],
            [
              81.66051421113117,
              25.395323949307805
            ],
            [
              81.6605539238532,
              25.395463888677437
            ],
            [
              81.66066331889192,
              25.395585684966395
            ],
            [
              81.66077268877773,
              25.39563532175143
            ],
            [
              81.66099127673414,
              25.395761655010926
            ],
            [
              81.66110068255257,
              25.395860901636105
            ],
            [
              81.66119509459062,
              25.395960217157732
            ],
            [
              81.66123992681153,
              25.396158821987655
            ],
            [
              81.66124000676159,
              25.396407058089352
            ],
            [
              81.66119532635598,
              25.396641782164874
            ],
            [
              81.66102147989062,
              25.396894548693613
            ],
            [
              81.66088233983628,
              25.397002898606598
            ],
            [
              81.66053454090434,
              25.397188035710112
            ],
            [
              81.65992845027708,
              25.39737326666331
            ],
            [
              81.65935712624798,
              25.39777055411796
            ],
            [
              81.65905404814583,
              25.398122725346198
            ],
            [
              81.65895970976965,
              25.39835742660891
            ],
            [
              81.65898455267885,
              25.398483811388683
            ],
            [
              81.65899958329018,
              25.398619227099577
            ],
            [
              81.65928785535978,
              25.39893055939305
            ],
            [
              81.65945184371321,
              25.399065946200597
            ],
            [
              81.65956125312493,
              25.39916519335425
            ],
            [
              81.65960099459309,
              25.399205818746736
            ],
            [
              81.65961594255943,
              25.39926447288571
            ],
            [
              81.65964570284648,
              25.399363742597636
            ],
            [
              81.6596457747117,
              25.39946305523655
            ],
            [
              81.6596160117297,
              25.399566921023865
            ],
            [
              81.65960106556,
              25.39962552710986
            ],
            [
              81.65939743994296,
              25.399801663297673
            ],
            [
              81.65879628465989,
              25.400212521227377
            ],
            [
              81.65819509524083,
              25.400487985394744
            ],
            [
              81.65772809076903,
              25.400952997929018
            ],
            [
              81.65767337887665,
              25.401016171123768
            ],
            [
              81.6575740054433,
              25.401065830019295
            ],
            [
              81.6575343277555,
              25.40109294618908
            ],
            [
              81.6575356491773,
              25.401114153210845
            ],
            [
              81.65757424439515,
              25.40173386417065
            ],
            [
              81.65752963495646,
              25.402279960773278
            ],
            [
              81.65731626261858,
              25.403214343185805
            ],
            [
              81.6575549027688,
              25.4038868243797
            ],
            [
              81.65809182042419,
              25.404789349087082
            ],
            [
              81.65899657842556,
              25.40594013303015
            ],
            [
              81.65958323040836,
              25.40664404863973
            ],
            [
              81.66023934372218,
              25.4071946142897
            ],
            [
              81.66104449113494,
              25.40766378226462
            ],
            [
              81.66158625699794,
              25.40789839275057
            ],
            [
              81.661946558682,
              25.40816131583626
            ],
            [
              81.6620933011786,
              25.408268397112586
            ],
            [
              81.66216299607161,
              25.40865652506689
            ],
            [
              81.66252097561063,
              25.409315384684874
            ],
            [
              81.66285920478985,
              25.41038044706665
            ],
            [
              81.6631925120996,
              25.411409481862556
            ],
            [
              81.66337170443921,
              25.412393411278796
            ],
            [
              81.66372495165334,
              25.413575846349104
            ],
            [
              81.66395392682936,
              25.414654500690087
            ],
            [
              81.66399872581258,
              25.41511486783623
            ],
            [
              81.6638995158726,
              25.41557530705988
            ],
            [
              81.6636759790973,
              25.416022167836488
            ],
            [
              81.66351711742921,
              25.41647809238375
            ],
            [
              81.66340796493566,
              25.41690688231417
            ],
            [
              81.66339820384178,
              25.41704693214652
            ],
            [
              81.66339807268774,
              25.417046830725873
            ],
            [
              81.66339793165227,
              25.41704672524839
            ],
            [
              81.6630500473804,
              25.416785083209476
            ],
            [
              81.66249831560762,
              25.416496373338404
            ],
            [
              81.66205595821225,
              25.416334058063935
            ],
            [
              81.66128062768043,
              25.41640191129681
            ],
            [
              81.66044573525198,
              25.416573666751745
            ],
            [
              81.65933264356322,
              25.416862706663863
            ],
            [
              81.65867657786008,
              25.416804189277713
            ],
            [
              81.65797577515748,
              25.416750195235473
            ],
            [
              81.6570315290129,
              25.416601511289524
            ],
            [
              81.65598288425923,
              25.416592640600456
            ],
            [
              81.65505352230056,
              25.4167012227229
            ],
            [
              81.65465095218748,
              25.416629031273636
            ],
            [
              81.65456148537505,
              25.416701316030174
            ],
            [
              81.65419371509776,
              25.41671039117587
            ],
            [
              81.65393031019181,
              25.416796220032182
            ],
            [
              81.65289669425286,
              25.41698597588469
            ],
            [
              81.65209155582328,
              25.417022252848042
            ],
            [
              81.65101808702507,
              25.417139801785464
            ],
            [
              81.65021805012796,
              25.4175010102154
            ],
            [
              81.64936321060867,
              25.417880284920468
            ],
            [
              81.64848359824875,
              25.418083468669312
            ],
            [
              81.64777793476216,
              25.41815585235085
            ],
            [
              81.64668453055116,
              25.418300458123607
            ],
            [
              81.64597366761569,
              25.41840881477379
            ],
            [
              81.64591417668598,
              25.418417881677392
            ],
            [
              81.64589045487429,
              25.418421497891025
            ],
            [
              81.64592913363545,
              25.41848555767342
            ],
            [
              81.64639650282326,
              25.419261838249355
            ],
            [
              81.64667980631106,
              25.419807944740565
            ],
            [
              81.64685888456462,
              25.420484933722886
            ],
            [
              81.64728643413085,
              25.42122960309522
            ],
            [
              81.64780844963401,
              25.422005849775207
            ],
            [
              81.64813650179939,
              25.422208904871425
            ],
            [
              81.64823107283922,
              25.422736946800804
            ],
            [
              81.64836532605844,
              25.423174737205066
            ],
            [
              81.64840020494597,
              25.42376600027653
            ],
            [
              81.64845497522883,
              25.424280566719712
            ],
            [
              81.64859921501908,
              25.424871771631416
            ],
            [
              81.64883797644181,
              25.425774450019286
            ],
            [
              81.64910659516966,
              25.42689374677334
            ],
            [
              81.64946456572552,
              25.4276790929545
            ],
            [
              81.64966853090576,
              25.42834255816018
            ],
            [
              81.65002157689722,
              25.42899688870327
            ],
            [
              81.65037954565649,
              25.429773211919592
            ],
            [
              81.65064809431571,
              25.43017036100616
            ],
            [
              81.65103079459307,
              25.430459160629773
            ],
            [
              81.65150309283685,
              25.43071626474345
            ],
            [
              81.65197537491093,
              25.431081790637148
            ],
            [
              81.65255702058268,
              25.43141568487843
            ],
            [
              81.65305414376935,
              25.431812787988317
            ],
            [
              81.65331268789127,
              25.432070046598973
            ],
            [
              81.65334750569338,
              25.432340824346934
            ],
            [
              81.65334757666028,
              25.432652286191257
            ],
            [
              81.65326814313127,
              25.43318033509595
            ],
            [
              81.65321868458668,
              25.43408303480706
            ],
            [
              81.65325358233882,
              25.434760074216115
            ],
            [
              81.65354200622373,
              25.435179831628183
            ],
            [
              81.65370623981724,
              25.435825211150444
            ],
            [
              81.65402444734538,
              25.436353164213752
            ],
            [
              81.65419348243408,
              25.436718784956348
            ],
            [
              81.65452060035152,
              25.437402370766655
            ],
            [
              81.6545206210128,
              25.437402407271907
            ],
            [
              81.65422350323257,
              25.437535682255568
            ],
            [
              81.65343825889323,
              25.437842810084415
            ],
            [
              81.65241435733577,
              25.43815440696974
            ],
            [
              81.65168869735096,
              25.438335074337264
            ],
            [
              81.65078895284722,
              25.438583488077466
            ],
            [
              81.64980485564001,
              25.438791285207326
            ],
            [
              81.64891019200752,
              25.439111884955853
            ],
            [
              81.64778686042281,
              25.439409965345043
            ],
            [
              81.64724502898278,
              25.4395408896436
            ],
            [
              81.64668833581469,
              25.43994265882789
            ],
            [
              81.646191329409,
              25.440366986374972
            ],
            [
              81.64558995134375,
              25.440597293849
            ],
            [
              81.64623625685134,
              25.441125280347542
            ],
            [
              81.64712117286464,
              25.441707428314245
            ],
            [
              81.64819999741859,
              25.442587374242294
            ],
            [
              81.64911475366905,
              25.443273288117208
            ],
            [
              81.64985558619902,
              25.44418037613173
            ],
            [
              81.65022852897577,
              25.444794176928824
            ],
            [
              81.6504175452913,
              25.445137128881175
            ],
            [
              81.6506612285835,
              25.445678672070844
            ],
            [
              81.65087009676853,
              25.44616158883036
            ],
            [
              81.65125301713312,
              25.4466129233365
            ],
            [
              81.65184976258647,
              25.447506438198815
            ],
            [
              81.65233207255407,
              25.448251145793964
            ],
            [
              81.65279965015102,
              25.449243959876057
            ],
            [
              81.65321739819919,
              25.450020184242337
            ],
            [
              81.65362022702709,
              25.45069265414593
            ],
            [
              81.65387880618333,
              25.451216177317086
            ],
            [
              81.6542469151255,
              25.452213543335077
            ],
            [
              81.65452057430038,
              25.45301697633485
            ],
            [
              81.65487250817758,
              25.45382214381953
            ],
            [
              81.65487367239417,
              25.453824808340755
            ],
            [
              81.65475879134407,
              25.45395581186753
            ],
            [
              81.65465998025607,
              25.454068502688916
            ],
            [
              81.65427735274228,
              25.45461477991279
            ],
            [
              81.65404883031714,
              25.45516999875123
            ],
            [
              81.6540936203172,
              25.45560771833576
            ],
            [
              81.65412350187682,
              25.45595079359525
            ],
            [
              81.65419331624574,
              25.456496943044776
            ],
            [
              81.65426303000339,
              25.45707456864299
            ],
            [
              81.6543228101906,
              25.457620731648234
            ],
            [
              81.6544223929314,
              25.458383496356262
            ],
            [
              81.6544374334242,
              25.458911545177394
            ],
            [
              81.65436662102701,
              25.458986662821417
            ],
            [
              81.65436786788862,
              25.4589883076973
            ],
            [
              81.65512378223387,
              25.45998567663466
            ],
            [
              81.65551681403532,
              25.461041675170584
            ],
            [
              81.65636732367497,
              25.462530982353925
            ],
            [
              81.65668658223198,
              25.462852193688324
            ],
            [
              81.65690840861498,
              25.463075477397762
            ],
            [
              81.65695920295443,
              25.46312659819745
            ],
            [
              81.65695922900557,
              25.463126633072797
            ],
            [
              81.65738198156814,
              25.463808041330434
            ],
            [
              81.65785945320965,
              25.46448503688457
            ],
            [
              81.65839658556243,
              25.465274784384185
            ],
            [
              81.658958796183,
              25.466520309703704
            ],
            [
              81.659312048787,
              25.46767114968392
            ],
            [
              81.65941683816322,
              25.46884019813847
            ],
            [
              81.65943700623964,
              25.470058838933
            ],
            [
              81.65881959594154,
              25.470602654347285
            ],
            [
              81.65877589739453,
              25.470641138936525
            ],
            [
              81.65834846191436,
              25.47115126923864
            ],
            [
              81.65776693931181,
              25.47199999234362
            ],
            [
              81.65703131431552,
              25.473038205888344
            ],
            [
              81.65563448884598,
              25.47421655521374
            ],
            [
              81.65419767217656,
              25.47490742637145
            ],
            [
              81.65326786914511,
              25.475187368282505
            ],
            [
              81.65241274935144,
              25.475503508068005
            ],
            [
              81.65206471955248,
              25.475805965969602
            ],
            [
              81.65217921792026,
              25.476121907874795
            ],
            [
              81.65245272078832,
              25.476509971300914
            ],
            [
              81.65305457765562,
              25.477159882284532
            ],
            [
              81.65342271624219,
              25.477863912938428
            ],
            [
              81.65365641565832,
              25.47818429021718
            ],
            [
              81.65363671740077,
              25.47867625487082
            ],
            [
              81.65392528142286,
              25.47953823895207
            ],
            [
              81.65421881402679,
              25.480219775625045
            ],
            [
              81.65417852728123,
              25.480217264955964
            ],
            [
              81.65342322289202,
              25.48017026775103
            ],
            [
              81.652831504411,
              25.480188440914038
            ],
            [
              81.65220506694257,
              25.480635413899584
            ],
            [
              81.65127543279439,
              25.481497568016298
            ],
            [
              81.65005726696346,
              25.48212072389657
            ],
            [
              81.64880418810903,
              25.48239624974622
            ],
            [
              81.64812304234147,
              25.482518159274292
            ],
            [
              81.64768540110137,
              25.482360267379427
            ],
            [
              81.64683000103332,
              25.48189553580124
            ],
            [
              81.64608899243353,
              25.481155409790098
            ],
            [
              81.64591486299885,
              25.48067249722354
            ],
            [
              81.64589982160776,
              25.479999957264983
            ],
            [
              81.64582010510942,
              25.478840030172776
            ],
            [
              81.64563097560612,
              25.47786064235483
            ],
            [
              81.64536730030733,
              25.477084342123753
            ],
            [
              81.64491462935418,
              25.476213311959707
            ],
            [
              81.64423330931346,
              25.475333289910566
            ],
            [
              81.64352714097366,
              25.474349432608918
            ],
            [
              81.64261698319918,
              25.472986511065752
            ],
            [
              81.64193062720297,
              25.471727336308554
            ],
            [
              81.64168687474051,
              25.47070728523317
            ],
            [
              81.64109511673361,
              25.469881338315997
            ],
            [
              81.64058293778281,
              25.469362412871185
            ],
            [
              81.64022641980273,
              25.469038840211145
            ],
            [
              81.64020502732255,
              25.469019423698974
            ],
            [
              81.6392354747381,
              25.469416683404997
            ],
            [
              81.63822628489002,
              25.469949373059187
            ],
            [
              81.63752527737155,
              25.470590354652803
            ],
            [
              81.63745069564341,
              25.471037155698262
            ],
            [
              81.63729672260706,
              25.471966978352455
            ],
            [
              81.63714761484633,
              25.472865178218832
            ],
            [
              81.63747080712598,
              25.473226238187337
            ],
            [
              81.6381123309013,
              25.473885085290764
            ],
            [
              81.63881846061352,
              25.47467946176792
            ],
            [
              81.63940524375036,
              25.475433127081043
            ],
            [
              81.64012633490368,
              25.476380858362074
            ],
            [
              81.64119054027465,
              25.477414325662
            ],
            [
              81.64223488928464,
              25.47841624373604
            ],
            [
              81.64324448876448,
              25.479363944207062
            ],
            [
              81.64367716860927,
              25.480067957901
            ],
            [
              81.64449285685357,
              25.48141290922273
            ],
            [
              81.64523389689437,
              25.482518613391782
            ],
            [
              81.64612921000882,
              25.48370551093583
            ],
            [
              81.64675597536231,
              25.48495111865701
            ],
            [
              81.64726831062,
              25.48572735268585
            ],
            [
              81.647611593721,
              25.486675186084295
            ],
            [
              81.64800853588883,
              25.48771044777802
            ],
            [
              81.64812395502979,
              25.48776737785484
            ],
            [
              81.64833857602589,
              25.48806498823723
            ],
            [
              81.64895947268568,
              25.48783489810572
            ],
            [
              81.64992906210108,
              25.487455622367968
            ],
            [
              81.6505008281013,
              25.487247893046447
            ],
            [
              81.65124669119689,
              25.486733208117062
            ],
            [
              81.65185827412377,
              25.486539039799954
            ],
            [
              81.65233068914854,
              25.486529962618693
            ],
            [
              81.65303184668566,
              25.486448594748094
            ],
            [
              81.6535738829416,
              25.486475588715344
            ],
            [
              81.65438937625144,
              25.48654761665714
            ],
            [
              81.65506565764176,
              25.486448190110163
            ],
            [
              81.65590609716705,
              25.486402873899852
            ],
            [
              81.65645796009385,
              25.486335046324932
            ],
            [
              81.65754203619896,
              25.486271660004547
            ],
            [
              81.65802941086814,
              25.48658748115473
            ],
            [
              81.65868594728849,
              25.48706126930295
            ],
            [
              81.6591735447399,
              25.487706575782564
            ],
            [
              81.65934607607166,
              25.488073720675775
            ],
            [
              81.65943226762653,
              25.48825713579548
            ],
            [
              81.65969090696989,
              25.488699369174793
            ],
            [
              81.65991989562066,
              25.489263498748524
            ],
            [
              81.660258316141,
              25.490125486379767
            ],
            [
              81.66045237290363,
              25.490716677684794
            ],
            [
              81.66049728597288,
              25.491262803882506
            ],
            [
              81.66032824818923,
              25.491497556403523
            ],
            [
              81.66009994674967,
              25.491846330197976
            ],
            [
              81.66336032637784,
              25.49244428126196
            ],
            [
              81.66677125825771,
              25.494879699272115
            ],
            [
              81.66677318244905,
              25.494881072836264
            ],
            [
              81.66674472921076,
              25.495553520611015
            ],
            [
              81.66703362920276,
              25.496898476222498
            ],
            [
              81.66727767361768,
              25.497828183182612
            ],
            [
              81.66769577560204,
              25.498915796273163
            ],
            [
              81.66795335673,
              25.500128550621532
            ],
            [
              81.66799977986723,
              25.50037553706378
            ],
            [
              81.66808651490288,
              25.501108502112007
            ],
            [
              81.66835035639002,
              25.501844165063098
            ],
            [
              81.66885793416996,
              25.502543706918537
            ],
            [
              81.66921129457181,
              25.50317551014166
            ],
            [
              81.66942048525203,
              25.5037171017631
            ],
            [
              81.6695449917504,
              25.504312893021414
            ],
            [
              81.670092568815,
              25.50538704618284
            ],
            [
              81.6705106618162,
              25.506082022253782
            ],
            [
              81.67054644530724,
              25.506075921246243
            ],
            [
              81.6713514130569,
              25.506221705648414
            ],
            [
              81.67187873940007,
              25.506528491116352
            ],
            [
              81.67246087195866,
              25.506939053037474
            ],
            [
              81.67302324607262,
              25.50746698672203
            ],
            [
              81.67390391844458,
              25.50809870972456
            ],
            [
              81.67448572671135,
              25.507755402193425
            ],
            [
              81.6750874560179,
              25.50719099217593
            ],
            [
              81.67540558988422,
              25.5067485487706
            ],
            [
              81.67557433481706,
              25.505981081956513
            ],
            [
              81.67551952231338,
              25.50552075826234
            ],
            [
              81.67559394683634,
              25.505078366268183
            ],
            [
              81.67608099092553,
              25.50426116867806
            ],
            [
              81.67666276056477,
              25.503746389603943
            ],
            [
              81.6774185248914,
              25.503082563366878
            ],
            [
              81.67809985122032,
              25.50278802576909
            ],
            [
              81.67824412784148,
              25.502725654315462
            ],
            [
              81.67888078544287,
              25.502739020150894
            ],
            [
              81.6797662116993,
              25.502860503648833
            ],
            [
              81.68076111114782,
              25.50303169387255
            ],
            [
              81.68171631404397,
              25.503284114705913
            ],
            [
              81.68220393125826,
              25.50360887622548
            ],
            [
              81.68263691473365,
              25.504105229328708
            ],
            [
              81.68327866398609,
              25.504258509328174
            ],
            [
              81.68389549756584,
              25.50437560904163
            ],
            [
              81.68455205105414,
              25.504289613988714
            ],
            [
              81.68553181838172,
              25.504049905038006
            ],
            [
              81.68660115313298,
              25.503950215687055
            ],
            [
              81.68710864377634,
              25.50405827632903
            ],
            [
              81.68709866978176,
              25.504040252715797
            ],
            [
              81.68905819006383,
              25.503560979281378
            ],
            [
              81.6900727347693,
              25.50324457114275
            ],
            [
              81.69950944879409,
              25.51272371463596
            ],
            [
              81.70099159984261,
              25.51223994715725
            ],
            [
              81.7016381487936,
              25.51198685197893
            ],
            [
              81.70183176358512,
              25.511399934932335
            ],
            [
              81.70194570859069,
              25.510763455699276
            ],
            [
              81.70188566070554,
              25.510099890393263
            ],
            [
              81.70199971440726,
              25.509540166943523
            ],
            [
              81.70205393222624,
              25.50883595783675
            ],
            [
              81.70244658044702,
              25.508276033104334
            ],
            [
              81.70339620031368,
              25.50756237209798
            ],
            [
              81.70435066209967,
              25.50667258696449
            ],
            [
              81.70485265505349,
              25.506008742849463
            ],
            [
              81.70502824155555,
              25.50574364490909
            ],
            [
              81.7051905734156,
              25.505498557786606
            ],
            [
              81.70544379591779,
              25.504888981970428
            ],
            [
              81.70600037320318,
              25.503999505394553
            ]
          ]
        ]
      }
    }
  ]
}