{
  "type": "FeatureCollection",
  "features": [
    {
      "type": "Feature",
      "properties": {
        "objectid": "09-146-00763",
        "stcode11": "09",
        "dtcode11": "146",
        "sdtcode11": "00763",
        "stname": "UTTAR PRADESH",
        "dtname": "Agra",
        "sdtname": "MAHABAN",
        "st_area_sh": 0.0,
        "st_length_": 0.0,
        "remarks": "",
        "dist_lgd": 118,
        "state_lgd": 9,
        "subdt_lgd": 0,
        "ac_no": 85,
        "st_length(shape)": 5922.737495632088,
        "st_area(shape)": 569433.013079915
      },
      "geometry": {
        "type": "Polygon",
        "coordinates": [
          [
            [
              77.91350487406359,
              27.27338844735562
            ],
            [
              77.91293977086784,
              27.273972609200243
            ],
            [
              77.91291395508318,
              27.274255461360056
            ],
            [
              77.91270009496014,
              27.274729338955964
            ],
            [
              77.91262921159603,
              27.275181509027867
            ],
            [
              77.91258011866574,
              27.27591244201283
            ],
            [
              77.91267980830607,
              27.27648279376373
            ],
            [
              77.91299273823192,
              27.27757665000404
            ],
            [
              77.9133171351524,
              27.278612521984318
            ],
            [
              77.9135903541528,
              27.279338276288183
            ],
            [
              77.91386772696305,
              27.280451111903528
            ],
            [
              77.91391687109733,
              27.281310775088524
            ],
            [
              77.91394410891505,
              27.282217344809165
            ],
            [
              77.91381165591966,
              27.283197319723527
            ],
            [
              77.91348241707983,
              27.283938697795854
            ],
            [
              77.91299848655142,
              27.284451477003486
            ],
            [
              77.91223631903347,
              27.28517768096505
            ],
            [
              77.91143001279399,
              27.286016574193543
            ],
            [
              77.91114926770813,
              27.28638100211254
            ],
            [
              77.91068362687892,
              27.287063927609488
            ],
            [
              77.91017744957254,
              27.287642478620725
            ],
            [
              77.90978003489082,
              27.2880336760853
            ],
            [
              77.90902111837586,
              27.288561674318206
            ],
            [
              77.90815766221635,
              27.289022204965548
            ],
            [
              77.90764325544365,
              27.289459043137516
            ],
            [
              77.90677727591647,
              27.29007056706917
            ],
            [
              77.90649279922896,
              27.29034053873865
            ],
            [
              77.9062083180498,
              27.290610511348483
            ],
            [
              77.90554208701093,
              27.29128131627403
            ],
            [
              77.90503791115097,
              27.291737159896005
            ],
            [
              77.90478992672523,
              27.292035932344874
            ],
            [
              77.90586550297111,
              27.293116889655117
            ],
            [
              77.90712720385562,
              27.29194352327217
            ],
            [
              77.90966623631066,
              27.2910843303609
            ],
            [
              77.9111110443928,
              27.28959970075774
            ],
            [
              77.91170898191054,
              27.28843279411599
            ],
            [
              77.9132055410379,
              27.2869958186302
            ],
            [
              77.91477410642348,
              27.284384950389782
            ],
            [
              77.91527926683699,
              27.282464904158427
            ],
            [
              77.91537463827576,
              27.279881527827406
            ],
            [
              77.91529747928107,
              27.278188742353013
            ],
            [
              77.91496519694904,
              27.27602264068699
            ],
            [
              77.91350487406359,
              27.27338844735562
            ]
          ]
        ]
      }
    }
  ]
}