{
  "type": "FeatureCollection",
  "features": [
    {
      "type": "Feature",
      "properties": {
        "object_id": "09-160-00834",
        "stcode11": "09",
        "dtcode11": "160",
        "sdtcode11": "00834",
        "stname": "UTTAR PRADESH",
        "dtname": "Kannauj",
        "sdtname": "Kannauj",
        "st_area_sh": 0.0,
        "st_length_": 0.0,
        "remarks": "",
        "dist_lgd": 155,
        "state_lgd": 9,
        "subdt_lgd": 834,
        "ac_no": 198,
        "st_length(shape)": 150830.02244840845,
        "st_area(shape)": 617262888.8847703
      },
      "geometry": {
        "type": "Polygon",
        "coordinates": [
          [
            [
              79.78383014070218,
              27.186285233809645
            ],
            [
              79.78663581559144,
              27.184597145605366
            ],
            [
              79.78726471713868,
              27.184287476712708
            ],
            [
              79.78789361419436,
              27.183977897257748
            ],
            [
              79.78920009968907,
              27.183486162670697
            ],
            [
              79.79093559630897,
              27.182310172045838
            ],
            [
              79.79263728303651,
              27.181053521866342
            ],
            [
              79.79343438334094,
              27.180412930223383
            ],
            [
              79.79423139022056,
              27.179772358876342
            ],
            [
              79.79695902307117,
              27.177429389127518
            ],
            [
              79.79866112032879,
              27.17590074430846
            ],
            [
              79.79981766891777,
              27.174630353947542
            ],
            [
              79.80190284374515,
              27.172779868143103
            ],
            [
              79.8029393989717,
              27.172116469273252
            ],
            [
              79.80456148418529,
              27.171272567333087
            ],
            [
              79.80518548003279,
              27.17100683417321
            ],
            [
              79.80566954980006,
              27.170926929330403
            ],
            [
              79.80655858908055,
              27.170958163856803
            ],
            [
              79.80739127075506,
              27.171090138685088
            ],
            [
              79.80824642109145,
              27.17131274620597
            ],
            [
              79.80951677544715,
              27.17229116023202
            ],
            [
              79.81008489338899,
              27.17276043229519
            ],
            [
              79.81088331511522,
              27.173275008014233
            ],
            [
              79.81182822780974,
              27.17360853219033
            ],
            [
              79.81286366283715,
              27.173670140631252
            ],
            [
              79.81364025460363,
              27.173671061269264
            ],
            [
              79.81421434005394,
              27.17366163032354
            ],
            [
              79.81449583523307,
              27.173551224026546
            ],
            [
              79.81474362831769,
              27.173440687356145
            ],
            [
              79.81650161605731,
              27.17201271938991
            ],
            [
              79.8173523323095,
              27.171338992132803
            ],
            [
              79.81820303957852,
              27.170665167304435
            ],
            [
              79.81945908467002,
              27.169916445369925
            ],
            [
              79.8212167562027,
              27.168639408673346
            ],
            [
              79.82216275496042,
              27.168197344176917
            ],
            [
              79.82423421520835,
              27.167766549948904
            ],
            [
              79.8250034704339,
              27.167698296833855
            ],
            [
              79.82652253325746,
              27.167951777252977
            ],
            [
              79.82797392688896,
              27.168255527819856
            ],
            [
              79.83135952178627,
              27.16988063517757
            ],
            [
              79.83576000634213,
              27.172257347939947
            ],
            [
              79.83606391358927,
              27.172277790036684
            ],
            [
              79.83703349581812,
              27.17097963394236
            ],
            [
              79.83804839715476,
              27.169500200724375
            ],
            [
              79.83858595171573,
              27.16863222225813
            ],
            [
              79.83967896875285,
              27.167585972132617
            ],
            [
              79.84068168264602,
              27.16676109560915
            ],
            [
              79.84232577119417,
              27.166057795112838
            ],
            [
              79.84507323255805,
              27.16500304026408
            ],
            [
              79.84689088100897,
              27.164154016613043
            ],
            [
              79.84839981712432,
              27.163430392651147
            ],
            [
              79.84918840768808,
              27.16279658773458
            ],
            [
              79.84997695243774,
              27.162193105057206
            ],
            [
              79.85132823961062,
              27.161559914136326
            ],
            [
              79.85301719990552,
              27.160856539317404
            ],
            [
              79.85335952719907,
              27.16086080894642
            ],
            [
              79.85615032598717,
              27.161084946656565
            ],
            [
              79.85917718137071,
              27.161540831202814
            ],
            [
              79.85927022527457,
              27.16155331631394
            ],
            [
              79.85946399098306,
              27.161579316767167
            ],
            [
              79.85923949211207,
              27.161035259358176
            ],
            [
              79.85791402611372,
              27.15875800489466
            ],
            [
              79.85504280385315,
              27.153637049750134
            ],
            [
              79.85377637603361,
              27.151699551927347
            ],
            [
              79.85332671982655,
              27.15063171472544
            ],
            [
              79.85383327442537,
              27.150470993360905
            ],
            [
              79.8556909176694,
              27.149807988710354
            ],
            [
              79.85848236773612,
              27.149236510166748
            ],
            [
              79.86021579643423,
              27.14882514676073
            ],
            [
              79.86195173233028,
              27.148364509361166
            ],
            [
              79.86424806604666,
              27.147792491866575
            ],
            [
              79.86709564734392,
              27.147200688223894
            ],
            [
              79.86923426743911,
              27.14670896989288
            ],
            [
              79.87038639272362,
              27.146290486866548
            ],
            [
              79.87062162915717,
              27.146229856925522
            ],
            [
              79.87139935998745,
              27.146029399308464
            ],
            [
              79.871894531135,
              27.14600967503073
            ],
            [
              79.8730871515742,
              27.14627246367518
            ],
            [
              79.87543808669018,
              27.147120373064045
            ],
            [
              79.87748545142725,
              27.14789743130337
            ],
            [
              79.88176149596005,
              27.149316599990513
            ],
            [
              79.88251540257066,
              27.149468247330656
            ],
            [
              79.88441685126118,
              27.14946965016909
            ],
            [
              79.88527240404285,
              27.149470275251527
            ],
            [
              79.88792813394149,
              27.14956279700419
            ],
            [
              79.88888676121546,
              27.14951835063423
            ],
            [
              79.88984528428487,
              27.149473992173817
            ],
            [
              79.89255745173955,
              27.149284525699603
            ],
            [
              79.89558502308037,
              27.148813178201028
            ],
            [
              79.89620983998802,
              27.148553145277667
            ],
            [
              79.8973189422586,
              27.147692857622967
            ],
            [
              79.89842815142873,
              27.146832468221156
            ],
            [
              79.89907978664087,
              27.145901474016053
            ],
            [
              79.90048709185655,
              27.145083442209806
            ],
            [
              79.90318614121313,
              27.14256437503219
            ],
            [
              79.90422329112442,
              27.141846801703153
            ],
            [
              79.90672632000116,
              27.139165891108373
            ],
            [
              79.90843829243869,
              27.137051876850133
            ],
            [
              79.91036616417502,
              27.134590295805125
            ],
            [
              79.91037740479416,
              27.134600215312897
            ],
            [
              79.91254772014756,
              27.13651520265215
            ],
            [
              79.91344422442805,
              27.137177939216787
            ],
            [
              79.91496248864932,
              27.13833690514311
            ],
            [
              79.915760903189,
              27.139022272680617
            ],
            [
              79.91688982139645,
              27.139813588698974
            ],
            [
              79.92154618117948,
              27.143280544834745
            ],
            [
              79.9251940868347,
              27.14607508208121
            ],
            [
              79.92565563134623,
              27.145753004905483
            ],
            [
              79.92869509907635,
              27.143669640351973
            ],
            [
              79.92952444440787,
              27.143058963802588
            ],
            [
              79.93005342275283,
              27.14279728114586
            ],
            [
              79.93027841839215,
              27.142938356676012
            ],
            [
              79.93050334126792,
              27.14321039021233
            ],
            [
              79.93064955735179,
              27.14333130400803
            ],
            [
              79.93076204798493,
              27.143321335713345
            ],
            [
              79.93088591039125,
              27.14318041494757
            ],
            [
              79.93240609161731,
              27.141186914692952
            ],
            [
              79.93423804394253,
              27.13888767865153
            ],
            [
              79.93498689483475,
              27.137885895906983
            ],
            [
              79.93573562984429,
              27.136884109780553
            ],
            [
              79.93621752209528,
              27.136424798183683
            ],
            [
              79.93819919213733,
              27.133726434251525
            ],
            [
              79.94126963377845,
              27.12978767570987
            ],
            [
              79.94200703025246,
              27.128886570607413
            ],
            [
              79.94274441415006,
              27.127985462241217
            ],
            [
              79.94344001111558,
              27.127025149350555
            ],
            [
              79.94398035674213,
              27.126390846902872
            ],
            [
              79.94405928541795,
              27.126058463350155
            ],
            [
              79.94381192262637,
              27.125665584024595
            ],
            [
              79.94450989922908,
              27.124850103294044
            ],
            [
              79.94516318823969,
              27.123087728238804
            ],
            [
              79.9454204387876,
              27.1222185992495
            ],
            [
              79.94567974108763,
              27.12111079919362
            ],
            [
              79.94653476386326,
              27.1194643699862
            ],
            [
              79.94659104690906,
              27.119464389175462
            ],
            [
              79.94695100633497,
              27.119535000050938
            ],
            [
              79.94723228591843,
              27.11961569162917
            ],
            [
              79.9475697614111,
              27.11966616811114
            ],
            [
              79.94767105544256,
              27.119605729215536
            ],
            [
              79.948425334854,
              27.118347086251582
            ],
            [
              79.94805423542022,
              27.117903807329224
            ],
            [
              79.9479530581698,
              27.117682195194213
            ],
            [
              79.94805439082879,
              27.117521029071266
            ],
            [
              79.9492474478492,
              27.11616179678917
            ],
            [
              79.9501251153565,
              27.115749061136167
            ],
            [
              79.95075923521726,
              27.115683732293725
            ],
            [
              79.95110801690612,
              27.11568384103656
            ],
            [
              79.95168229100261,
              27.114455264859846
            ],
            [
              79.95202002880335,
              27.113780610829277
            ],
            [
              79.9520429017071,
              27.1127734441477
            ],
            [
              79.95166089942076,
              27.111574807767756
            ],
            [
              79.95040307656332,
              27.109336278156963
            ],
            [
              79.94994216087248,
              27.108570661715767
            ],
            [
              79.94967266718558,
              27.10731157876681
            ],
            [
              79.94967315856401,
              27.106072798323
            ],
            [
              79.94835685089001,
              27.10620333764801
            ],
            [
              79.94664700386643,
              27.10610204306012
            ],
            [
              79.94606505815736,
              27.106022900252334
            ],
            [
              79.94467028443991,
              27.105690000386485
            ],
            [
              79.94238712990705,
              27.104611509717177
            ],
            [
              79.94194059714223,
              27.10442303397078
            ],
            [
              79.94132226786756,
              27.10376807598565
            ],
            [
              79.94095133372382,
              27.103113299691955
            ],
            [
              79.94074929273496,
              27.102106038616164
            ],
            [
              79.94097633922806,
              27.100360570620136
            ],
            [
              79.94128044140963,
              27.09940385916617
            ],
            [
              79.9414043604098,
              27.09902121116102
            ],
            [
              79.94169692912142,
              27.098789626957554
            ],
            [
              79.94292302617801,
              27.098840438310866
            ],
            [
              79.9463087791788,
              27.0991840632973
            ],
            [
              79.94959920026669,
              27.09966525869992
            ],
            [
              79.95153499783872,
              27.09704711338144
            ],
            [
              79.95212048740159,
              27.095798386780146
            ],
            [
              79.95144879999565,
              27.095280018721116
            ],
            [
              79.95003179836479,
              27.094554350270336
            ],
            [
              79.94868241023043,
              27.093496358391622
            ],
            [
              79.94779413721287,
              27.092599709909535
            ],
            [
              79.94733670968033,
              27.092020642126375
            ],
            [
              79.9471457682751,
              27.091406187077084
            ],
            [
              79.94694361320019,
              27.090600379307524
            ],
            [
              79.94688755922478,
              27.090328409769313
            ],
            [
              79.94649397316283,
              27.09008656263166
            ],
            [
              79.94538040267201,
              27.09002570868187
            ],
            [
              79.94244478917189,
              27.089823301281005
            ],
            [
              79.94123606643122,
              27.089694831046394
            ],
            [
              79.9412079886887,
              27.089584073086737
            ],
            [
              79.94117989926809,
              27.08947322384411
            ],
            [
              79.94179872261618,
              27.089120900360307
            ],
            [
              79.94169774299509,
              27.08854681717599
            ],
            [
              79.94127091387772,
              27.087398381252363
            ],
            [
              79.94133870703726,
              27.08668337328317
            ],
            [
              79.94162026959002,
              27.085984987624453
            ],
            [
              79.94216046340131,
              27.085320517790347
            ],
            [
              79.94344312916795,
              27.084172699834355
            ],
            [
              79.94524342665916,
              27.082652459783425
            ],
            [
              79.9458269004025,
              27.082266467294303
            ],
            [
              79.94641026724632,
              27.081880380696273
            ],
            [
              79.9479627797378,
              27.0810146757403
            ],
            [
              79.94916642520046,
              27.08029993816695
            ],
            [
              79.9499201323851,
              27.080118846361653
            ],
            [
              79.95071863136643,
              27.08012920660731
            ],
            [
              79.95132013519584,
              27.07977141405296
            ],
            [
              79.95383999311109,
              27.078311670692973
            ],
            [
              79.95588734976334,
              27.077284914087173
            ],
            [
              79.95660720573312,
              27.07693255627517
            ],
            [
              79.95705719701175,
              27.076690961771227
            ],
            [
              79.95726870714203,
              27.07637237620475
            ],
            [
              79.95743751136371,
              27.07602997381739
            ],
            [
              79.95780873925658,
              27.075818593049803
            ],
            [
              79.9585397828449,
              27.075748201760348
            ],
            [
              79.95892221722092,
              27.07579866602602
            ],
            [
              79.9599004241748,
              27.076594653205714
            ],
            [
              79.96031992932767,
              27.07663354313704
            ],
            [
              79.96040993782417,
              27.076623500112127
            ],
            [
              79.96049991937124,
              27.076613461085586
            ],
            [
              79.96063492358202,
              27.076311302843013
            ],
            [
              79.96047777859444,
              27.075505509686003
            ],
            [
              79.96054551605843,
              27.07459904115106
            ],
            [
              79.96086055522858,
              27.07411559280092
            ],
            [
              79.96108564698763,
              27.07365234093385
            ],
            [
              79.96288533542112,
              27.072625427260878
            ],
            [
              79.96457252244164,
              27.071779800927054
            ],
            [
              79.96616989410344,
              27.07039013220904
            ],
            [
              79.96621187596993,
              27.069652027152276
            ],
            [
              79.96620080243744,
              27.06901743801674
            ],
            [
              79.96618972980325,
              27.068382951678313
            ],
            [
              79.96670747741052,
              27.066791667773106
            ],
            [
              79.96772006738192,
              27.064716949197994
            ],
            [
              79.96866508787429,
              27.063407806626444
            ],
            [
              79.97062221324781,
              27.061675698308957
            ],
            [
              79.9709022828006,
              27.061620199901707
            ],
            [
              79.97118245206633,
              27.06156468226777
            ],
            [
              79.97480329687191,
              27.062431539787845
            ],
            [
              79.9775696012972,
              27.06293552300537
            ],
            [
              79.9804257740818,
              27.063983476895505
            ],
            [
              79.98122515700537,
              27.064281632634867
            ],
            [
              79.98518370367907,
              27.06426192114591
            ],
            [
              79.98662315241228,
              27.064020327333193
            ],
            [
              79.98801758836318,
              27.064221810203037
            ],
            [
              79.98931666904501,
              27.064259767688924
            ],
            [
              79.98944933224617,
              27.064176396394156
            ],
            [
              79.98946508779792,
              27.064166493843935
            ],
            [
              79.99059866826171,
              27.063454083895483
            ],
            [
              79.9925329988849,
              27.0619030378209
            ],
            [
              79.99325280724396,
              27.060774977747933
            ],
            [
              79.99466450522138,
              27.05744414596504
            ],
            [
              79.99605908041117,
              27.054362088984742
            ],
            [
              79.99617149558581,
              27.054019636982286
            ],
            [
              79.9984061150422,
              27.056329273904225
            ],
            [
              79.99844230906332,
              27.05636668285906
            ],
            [
              79.9984061159405,
              27.056264573606928
            ],
            [
              79.99840611773712,
              27.056142984947304
            ],
            [
              79.99833140934655,
              27.055932218691677
            ],
            [
              79.99498059721702,
              27.051661472694946
            ],
            [
              79.99187739491582,
              27.04739064893748
            ],
            [
              79.99149736532983,
              27.04690329175542
            ],
            [
              79.99111745342313,
              27.046416082070724
            ],
            [
              79.98684528781573,
              27.040191036676298
            ],
            [
              79.98522946475798,
              27.037739990097894
            ],
            [
              79.98452821289773,
              27.0370000371121
            ],
            [
              79.98857603414437,
              27.033354150319493
            ],
            [
              79.9885890695975,
              27.033342386260227
            ],
            [
              79.98954305258145,
              27.03238721207152
            ],
            [
              79.99030655499593,
              27.028382281982427
            ],
            [
              79.99100380306496,
              27.025999033125995
            ],
            [
              79.99161106599365,
              27.022856386609824
            ],
            [
              79.99165628628674,
              27.02027777074817
            ],
            [
              79.99190360775583,
              27.01874678535982
            ],
            [
              79.99120678728485,
              27.01719552716685
            ],
            [
              79.98808865498361,
              27.011179753389044
            ],
            [
              79.98788227962349,
              27.01078157329598
            ],
            [
              79.99249128291972,
              27.00727642924886
            ],
            [
              79.99399280523905,
              27.006157616654264
            ],
            [
              79.99621845771225,
              27.00462657016577
            ],
            [
              79.99731395859114,
              27.004686060188526
            ],
            [
              79.99840700886591,
              27.004455537775787
            ],
            [
              79.99844743125708,
              27.00444701380237
            ],
            [
              79.99844743125708,
              27.004444912022525
            ],
            [
              79.99855087405867,
              27.00442309785054
            ],
            [
              80.00230976387229,
              27.000822051886338
            ],
            [
              80.00322102028639,
              26.9993877926936
            ],
            [
              80.00479104992587,
              26.996376055308232
            ],
            [
              80.00604697374482,
              26.99434945569928
            ],
            [
              80.00686593275505,
              26.993266157842623
            ],
            [
              80.0086216396722,
              26.99094367317495
            ],
            [
              80.00953215497621,
              26.988325938633604
            ],
            [
              80.00968578755104,
              26.98747239360483
            ],
            [
              80.0106277807209,
              26.986487174182148
            ],
            [
              80.0111239777445,
              26.986129100736473
            ],
            [
              80.01320231729092,
              26.984629258600823
            ],
            [
              80.01401855440584,
              26.98339079474388
            ],
            [
              80.01452072342944,
              26.981167093681172
            ],
            [
              80.01498134087957,
              26.980106121016885
            ],
            [
              80.0161215661815,
              26.977479680375993
            ],
            [
              80.01805787489495,
              26.97151079438033
            ],
            [
              80.01859137895228,
              26.97044117372489
            ],
            [
              80.01965597688708,
              26.969505227600568
            ],
            [
              80.0198756715679,
              26.969223654992867
            ],
            [
              80.02062903379948,
              26.968435453386856
            ],
            [
              80.0212252429586,
              26.966493230774585
            ],
            [
              80.02150752685854,
              26.964494697273828
            ],
            [
              80.02160328457288,
              26.96293840639697
            ],
            [
              80.0210693735787,
              26.961784433132134
            ],
            [
              80.01956224397539,
              26.96015214033711
            ],
            [
              80.0171447113575,
              26.95792870088999
            ],
            [
              80.0165889587255,
              26.957155165301494
            ],
            [
              80.01595165613372,
              26.956268113381938
            ],
            [
              80.01551203500671,
              26.95550816263871
            ],
            [
              80.01401661134985,
              26.954543324660932
            ],
            [
              80.01213085263409,
              26.95392160002709
            ],
            [
              80.00846760375381,
              26.95271376063952
            ],
            [
              80.0075108674335,
              26.953628777375634
            ],
            [
              80.00668173859593,
              26.952885364128008
            ],
            [
              80.0057888823738,
              26.95360025680764
            ],
            [
              80.00339718620181,
              26.95734604307967
            ],
            [
              80.0006226271574,
              26.96000529562339
            ],
            [
              79.99844787861805,
              26.96132461402173
            ],
            [
              79.99840775356928,
              26.96134895468759
            ],
            [
              79.99840775267093,
              26.961366980388497
            ],
            [
              79.99838817568596,
              26.961378856067444
            ],
            [
              79.996395784251,
              26.96188621830027
            ],
            [
              79.99430342918956,
              26.963193611157745
            ],
            [
              79.99325290066875,
              26.96337336627035
            ],
            [
              79.9932319744142,
              26.96337694764626
            ],
            [
              79.99102773867571,
              26.960360150937472
            ],
            [
              79.99101800183634,
              26.960346825907944
            ],
            [
              79.99082291201113,
              26.960079794129836
            ],
            [
              79.98705083403082,
              26.957066701277444
            ],
            [
              79.98327893481527,
              26.95405360070276
            ],
            [
              79.98323529376044,
              26.95401446333931
            ],
            [
              79.9807432791274,
              26.951779497709712
            ],
            [
              79.97884183043686,
              26.94927811582473
            ],
            [
              79.97881855329122,
              26.949258438612393
            ],
            [
              79.97876255590968,
              26.949211095736327
            ],
            [
              79.97877595697707,
              26.94919682208191
            ],
            [
              79.9838291942493,
              26.94381404006531
            ],
            [
              79.98671440956704,
              26.94097156610778
            ],
            [
              79.98760191632165,
              26.941625470260483
            ],
            [
              79.99061364138086,
              26.940431715396606
            ],
            [
              79.99339560074658,
              26.93868636537278
            ],
            [
              79.99124801726147,
              26.935343182090627
            ],
            [
              79.98807795874355,
              26.93662224672709
            ],
            [
              79.98614462884356,
              26.93286958327078
            ],
            [
              79.98426508467293,
              26.93049029214863
            ],
            [
              79.98381269219752,
              26.929917666363476
            ],
            [
              79.97839181400539,
              26.932589279808255
            ],
            [
              79.97691100144664,
              26.933844536033515
            ],
            [
              79.97689499975648,
              26.93385804599533
            ],
            [
              79.97835508907995,
              26.93567406677828
            ],
            [
              79.98016179335576,
              26.937323186035496
            ],
            [
              79.97797406236398,
              26.939398108737482
            ],
            [
              79.97670591966055,
              26.940421283005218
            ],
            [
              79.97483531911683,
              26.941387544824835
            ],
            [
              79.97385241217738,
              26.942154923865843
            ],
            [
              79.97275795334423,
              26.945580250608465
            ],
            [
              79.97273537059633,
              26.945650934073758
            ],
            [
              79.96903974643318,
              26.94558517627856
            ],
            [
              79.9650456893563,
              26.946152780037302
            ],
            [
              79.96460190274131,
              26.946095872044648
            ],
            [
              79.96415821763597,
              26.946038968027217
            ],
            [
              79.96250976686882,
              26.946777533654664
            ],
            [
              79.96168502899636,
              26.948823754158305
            ],
            [
              79.96187442260431,
              26.951381932168925
            ],
            [
              79.9615636459402,
              26.951684641094314
            ],
            [
              79.96041584155222,
              26.952802653274624
            ],
            [
              79.95940142261088,
              26.953086612297398
            ],
            [
              79.95705596362487,
              26.95234705025292
            ],
            [
              79.95628548219894,
              26.95165992198852
            ],
            [
              79.95416253590884,
              26.949229233884964
            ],
            [
              79.9520392967679,
              26.947793180112775
            ],
            [
              79.94954874459212,
              26.94653502819321
            ],
            [
              79.948043265194,
              26.94606556221062
            ],
            [
              79.94637945862533,
              26.945539129943434
            ],
            [
              79.94466896301812,
              26.945330707599894
            ],
            [
              79.94452600512382,
              26.946227341355897
            ],
            [
              79.94433108597852,
              26.94655910539294
            ],
            [
              79.94398042860738,
              26.94675109419045
            ],
            [
              79.94337654334413,
              26.946925527113798
            ],
            [
              79.94248505795113,
              26.947099577794663
            ],
            [
              79.9409269300908,
              26.94695928408303
            ],
            [
              79.94024540433591,
              26.946679589009978
            ],
            [
              79.93948600542564,
              26.946242678831634
            ],
            [
              79.9387459993457,
              26.94601535036908
            ],
            [
              79.93812273203191,
              26.945962712915165
            ],
            [
              79.93740202715419,
              26.946119612206456
            ],
            [
              79.9368174224319,
              26.94669571920018
            ],
            [
              79.93616109621735,
              26.947722204105965
            ],
            [
              79.93532283600491,
              26.94908411900481
            ],
            [
              79.9347835629668,
              26.950022674735646
            ],
            [
              79.93452997125705,
              26.950100703185658
            ],
            [
              79.9339002486496,
              26.950393481354745
            ],
            [
              79.93341323330655,
              26.950620318931236
            ],
            [
              79.93288736762406,
              26.950602631031398
            ],
            [
              79.93187457822665,
              26.95044501409663
            ],
            [
              79.93037475012996,
              26.95054914771885
            ],
            [
              79.92899140477955,
              26.951264586919226
            ],
            [
              79.92839244138575,
              26.951728236230966
            ],
            [
              79.92788830864492,
              26.952266472187155
            ],
            [
              79.92630976028161,
              26.95364554876021
            ],
            [
              79.9251305283334,
              26.95462163904323
            ],
            [
              79.92443917411097,
              26.954814799980507
            ],
            [
              79.92401068670358,
              26.954709804714604
            ],
            [
              79.9233485645588,
              26.954395121005362
            ],
            [
              79.92260842103664,
              26.954359829663844
            ],
            [
              79.92182930230929,
              26.954324515890846
            ],
            [
              79.92108907344718,
              26.95442893579173
            ],
            [
              79.92034879877099,
              26.954603211098423
            ],
            [
              79.91953003379686,
              26.955615748292118
            ],
            [
              79.91924112572002,
              26.956516226117344
            ],
            [
              79.91889007937836,
              26.95721463318121
            ],
            [
              79.9181827162792,
              26.958654273318707
            ],
            [
              79.9169011967629,
              26.960269999179218
            ],
            [
              79.91570038997652,
              26.96171092619071
            ],
            [
              79.91490113820699,
              26.962566260708563
            ],
            [
              79.91412179220583,
              26.962792877612927
            ],
            [
              79.91332291683042,
              26.96307196501505
            ],
            [
              79.91271906660148,
              26.963019237847575
            ],
            [
              79.91182315610736,
              26.962844002747538
            ],
            [
              79.91121944242235,
              26.962599160277552
            ],
            [
              79.91038223683208,
              26.961952498231156
            ],
            [
              79.90962289990554,
              26.96144559188324
            ],
            [
              79.90878534756555,
              26.96144510907379
            ],
            [
              79.90841516890497,
              26.96154968170976
            ],
            [
              79.908278448912,
              26.961951286809253
            ],
            [
              79.90829747073813,
              26.96259748767618
            ],
            [
              79.90866717418994,
              26.96315666038814
            ],
            [
              79.90915356969549,
              26.96406509734859
            ],
            [
              79.90999025875446,
              26.96530555768301
            ],
            [
              79.91022348386014,
              26.966091593832093
            ],
            [
              79.91008668122211,
              26.966755165677196
            ],
            [
              79.90982845869709,
              26.967072963771308
            ],
            [
              79.90918970532611,
              26.96788993526429
            ],
            [
              79.90811794063198,
              26.96841324793017
            ],
            [
              79.90755294792896,
              26.968500240293704
            ],
            [
              79.90662642195167,
              26.96834187098795
            ],
            [
              79.90580851127538,
              26.96793970101235
            ],
            [
              79.90536081788723,
              26.96741549984107
            ],
            [
              79.9048350312565,
              26.96720560876197
            ],
            [
              79.9042310588567,
              26.967292566029794
            ],
            [
              79.9039581542666,
              26.967606759748815
            ],
            [
              79.90368491999484,
              26.96821785013064
            ],
            [
              79.90329477268382,
              26.968916190242616
            ],
            [
              79.90251500357617,
              26.96961428583724
            ],
            [
              79.90214478179644,
              26.969736307609384
            ],
            [
              79.90144346974907,
              26.969788263837604
            ],
            [
              79.90023557795006,
              26.969857362901905
            ],
            [
              79.89873564744542,
              26.96976908419016
            ],
            [
              79.89754413642561,
              26.969623359274085
            ],
            [
              79.89734586117441,
              26.96972268585851
            ],
            [
              79.89687568025975,
              26.9701418930061
            ],
            [
              79.89502357512947,
              26.97178232407728
            ],
            [
              79.8934838923769,
              26.97258465285686
            ],
            [
              79.8928604382135,
              26.97274141019393
            ],
            [
              79.8922565062379,
              26.972740998686195
            ],
            [
              79.89102914794665,
              26.972740154855153
            ],
            [
              79.88976289619691,
              26.972756737655253
            ],
            [
              79.88894453366802,
              26.97289587920481
            ],
            [
              79.88781429403876,
              26.97327929435653
            ],
            [
              79.88718368928575,
              26.97350496181431
            ],
            [
              79.88604552831234,
              26.97435511581657
            ],
            [
              79.88509005143008,
              26.975332426041938
            ],
            [
              79.88403715225523,
              26.976362050041274
            ],
            [
              79.88325755292917,
              26.9767107598704
            ],
            [
              79.88275104055116,
              26.976623062143187
            ],
            [
              79.88212791067959,
              26.976395561219974
            ],
            [
              79.88121237019993,
              26.97620276713114
            ],
            [
              79.88010204711885,
              26.976079674793603
            ],
            [
              79.87797093514277,
              26.976509959802012
            ],
            [
              79.8757693063152,
              26.976752740177595
            ],
            [
              79.87481464600151,
              26.976804376942685
            ],
            [
              79.87433935007965,
              26.977313679895506
            ],
            [
              79.8739952171724,
              26.97797392331352
            ],
            [
              79.87399474735349,
              26.978445457852434
            ],
            [
              79.87405270306236,
              26.97896943314698
            ],
            [
              79.87442230230963,
              26.97952858379523
            ],
            [
              79.87545410993991,
              26.980227972908903
            ],
            [
              79.87625242476658,
              26.98071760066178
            ],
            [
              79.8762912230037,
              26.980909829840986
            ],
            [
              79.87616975730259,
              26.981114065178907
            ],
            [
              79.87514144771198,
              26.981223277880826
            ],
            [
              79.87455691575323,
              26.981275206392382
            ],
            [
              79.87352435533474,
              26.981221989014024
            ],
            [
              79.87218027265047,
              26.981011332741655
            ],
            [
              79.8698037777697,
              26.980712404343624
            ],
            [
              79.8691287540208,
              26.98096571876974
            ],
            [
              79.86854345759576,
              26.98175112203546
            ],
            [
              79.86825012172285,
              26.98285121375187
            ],
            [
              79.86756681640539,
              26.984142990028054
            ],
            [
              79.86649416956564,
              26.985207398847013
            ],
            [
              79.86536498815181,
              26.98645163113431
            ],
            [
              79.86450530132323,
              26.986655316076924
            ],
            [
              79.86378423442446,
              26.986846800255645
            ],
            [
              79.86310216429045,
              26.98693352861834
            ],
            [
              79.86255677911518,
              26.986810805840175
            ],
            [
              79.86175830708329,
              26.98647828782086
            ],
            [
              79.8615606714326,
              26.985943804039145
            ],
            [
              79.86170185695086,
              26.984714269169697
            ],
            [
              79.86172276434077,
              26.983421938285126
            ],
            [
              79.86143816099077,
              26.982486251387797
            ],
            [
              79.86130209227636,
              26.98213684697901
            ],
            [
              79.86108811627064,
              26.98182230315088
            ],
            [
              79.86050397957061,
              26.981507431024195
            ],
            [
              79.85995865817571,
              26.9813497692792
            ],
            [
              79.85921833678712,
              26.981349108835772
            ],
            [
              79.85849739116091,
              26.98145324910885
            ],
            [
              79.85787386423401,
              26.981505079848876
            ],
            [
              79.85713346289536,
              26.981574266985003
            ],
            [
              79.85658800585486,
              26.981538844066822
            ],
            [
              79.85594534391407,
              26.981276292722487
            ],
            [
              79.85518597015664,
              26.980891293321488
            ],
            [
              79.85429041359875,
              26.980366540039025
            ],
            [
              79.85362885559597,
              26.979597499158896
            ],
            [
              79.85286128291494,
              26.97886687007087
            ],
            [
              79.85214014055767,
              26.978707361746203
            ],
            [
              79.85151662620716,
              26.97875916893357
            ],
            [
              79.85102931172509,
              26.97893335135298
            ],
            [
              79.85042493598172,
              26.979369383820142
            ],
            [
              79.8495475739016,
              26.97987510472266
            ],
            [
              79.84915784161223,
              26.97994458906341
            ],
            [
              79.84859315343809,
              26.979699454752893
            ],
            [
              79.84747418586906,
              26.979344311342587
            ],
            [
              79.84643103700832,
              26.979330613100743
            ],
            [
              79.8459625215702,
              26.98015106688126
            ],
            [
              79.84618326009337,
              26.980777053697057
            ],
            [
              79.8457926708112,
              26.981545097854987
            ],
            [
              79.84553887428558,
              26.98194661882715
            ],
            [
              79.84497360400316,
              26.982173098259214
            ],
            [
              79.84454494142427,
              26.982190139975256
            ],
            [
              79.84394113072125,
              26.982137150380577
            ],
            [
              79.84339570332511,
              26.98199689470512
            ],
            [
              79.84255831897009,
              26.981751560728437
            ],
            [
              79.84162369198556,
              26.981331391338614
            ],
            [
              79.84086420683704,
              26.98106866179053
            ],
            [
              79.84008499019326,
              26.98099801575972
            ],
            [
              79.83936363942685,
              26.98132910180098
            ],
            [
              79.83811611575413,
              26.981869308103338
            ],
            [
              79.83731636811456,
              26.982601979861435
            ],
            [
              79.83678991044233,
              26.98295071999046
            ],
            [
              79.83636860506564,
              26.98298594713592
            ],
            [
              79.83474498283461,
              26.98238973311738
            ],
            [
              79.83334346366769,
              26.9814276319299
            ],
            [
              79.832574379122,
              26.98122147426783
            ],
            [
              79.83171754264782,
              26.980888740397013
            ],
            [
              79.82951666660846,
              26.98044976781471
            ],
            [
              79.82805594666767,
              26.980063966640714
            ],
            [
              79.82784231920827,
              26.979557269115
            ],
            [
              79.8275935766044,
              26.978395255640475
            ],
            [
              79.8269279438435,
              26.978630569159133
            ],
            [
              79.82653784324486,
              26.97896205283555
            ],
            [
              79.8257795142281,
              26.980052364317743
            ],
            [
              79.82577797361736,
              26.981170166148992
            ],
            [
              79.82577628927622,
              26.982392659855325
            ],
            [
              79.82552768770788,
              26.982921549616165
            ],
            [
              79.82484014144391,
              26.98310765261588
            ],
            [
              79.82467324883714,
              26.983158573998505
            ],
            [
              79.82292022159449,
              26.98284225585652
            ],
            [
              79.82194632206236,
              26.98266651605545
            ],
            [
              79.8208743435692,
              26.982997120074632
            ],
            [
              79.81966558399762,
              26.983554595232857
            ],
            [
              79.81834010632117,
              26.9840071413059
            ],
            [
              79.81748833365023,
              26.984159013187547
            ],
            [
              79.81652784327038,
              26.984214609914915
            ],
            [
              79.81514409727133,
              26.98457973878412
            ],
            [
              79.81381851539032,
              26.98501478235673
            ],
            [
              79.81282379829979,
              26.9857995809984
            ],
            [
              79.81194507167878,
              26.98709087995232
            ],
            [
              79.81114401699047,
              26.988574371366806
            ],
            [
              79.81035475358856,
              26.989503614207823
            ],
            [
              79.80867729891581,
              26.990741625754424
            ],
            [
              79.80797546315065,
              26.990967804117812
            ],
            [
              79.80752739875828,
              26.990967257397433
            ],
            [
              79.8069624482761,
              26.990914174278988
            ],
            [
              79.80649486708587,
              26.990861207203587
            ],
            [
              79.80565701830184,
              26.99086017619848
            ],
            [
              79.80507246658014,
              26.990876918023623
            ],
            [
              79.80462418569383,
              26.991016073992682
            ],
            [
              79.80425356506211,
              26.991295039395684
            ],
            [
              79.80407775667616,
              26.991591708784757
            ],
            [
              79.80411580392169,
              26.9921331417506
            ],
            [
              79.80444610996011,
              26.99277972008146
            ],
            [
              79.80452274433867,
              26.993583159879957
            ],
            [
              79.80485240808166,
              26.99464896500833
            ],
            [
              79.80440328277892,
              26.995259646825314
            ],
            [
              79.80391545985039,
              26.995678176136934
            ],
            [
              79.80340751016796,
              26.995973786198256
            ],
            [
              79.80292144075086,
              26.995921429034645
            ],
            [
              79.80243470388554,
              26.995641396918366
            ],
            [
              79.8022015210007,
              26.99522196777666
            ],
            [
              79.80152627536792,
              26.99410875522811
            ],
            [
              79.80076715403708,
              26.993618804733224
            ],
            [
              79.79996844305336,
              26.993513009181225
            ],
            [
              79.79940017688945,
              26.993538757283936
            ],
            [
              79.79763006189349,
              26.993719589372112
            ],
            [
              79.79642149006976,
              26.99403238218043
            ],
            [
              79.79599269543857,
              26.99410168328123
            ],
            [
              79.79566154408549,
              26.994066326741898
            ],
            [
              79.79536987279084,
              26.993664275097817
            ],
            [
              79.79519522862151,
              26.993227448743628
            ],
            [
              79.79519613502164,
              26.992668600701627
            ],
            [
              79.79566476274915,
              26.992075433317247
            ],
            [
              79.79595838698123,
              26.991202611865695
            ],
            [
              79.79566688097661,
              26.990765632667685
            ],
            [
              79.79539499417777,
              26.99018887298407
            ],
            [
              79.79486986331719,
              26.989629339845823
            ],
            [
              79.79413034681912,
              26.9891044528071
            ],
            [
              79.79340085192631,
              26.988917366325612
            ],
            [
              79.79285609826667,
              26.988445120005593
            ],
            [
              79.79279798804755,
              26.988218011205486
            ],
            [
              79.79295526778247,
              26.987345011734085
            ],
            [
              79.7933071226079,
              26.986629352665247
            ],
            [
              79.79338595606228,
              26.986105532310315
            ],
            [
              79.79326959279196,
              26.985738632869392
            ],
            [
              79.7926462931388,
              26.985685420803826
            ],
            [
              79.79178840922897,
              26.986033571811742
            ],
            [
              79.79055989839925,
              26.986713135358038
            ],
            [
              79.79005817134679,
              26.987279776188966
            ],
            [
              79.78927211942204,
              26.987794193305565
            ],
            [
              79.7883944402366,
              26.988369330670505
            ],
            [
              79.78747817571481,
              26.988699916333093
            ],
            [
              79.78675687884729,
              26.98889104481916
            ],
            [
              79.78597753913435,
              26.988942379835876
            ],
            [
              79.78554919905069,
              26.98874969209258
            ],
            [
              79.78496545760939,
              26.988294829269694
            ],
            [
              79.78399303221266,
              26.987263114678544
            ],
            [
              79.78312714521196,
              26.986932772147934
            ],
            [
              79.7815294753095,
              26.98693056437506
            ],
            [
              79.78069538956818,
              26.987258189230126
            ],
            [
              79.77971706044339,
              26.987224928639076
            ],
            [
              79.77932754105473,
              26.987137062995753
            ],
            [
              79.77903538826311,
              26.98704933176728
            ],
            [
              79.77878257090113,
              26.98682194317717
            ],
            [
              79.77849094092895,
              26.98643732297509
            ],
            [
              79.77810203778459,
              26.98600017077042
            ],
            [
              79.77755750690712,
              26.98544055035803
            ],
            [
              79.77716814921521,
              26.98526535736036
            ],
            [
              79.77668124166996,
              26.985194810825867
            ],
            [
              79.77584333719038,
              26.98524601304341
            ],
            [
              79.77532451429973,
              26.98535345901448
            ],
            [
              79.7747720261455,
              26.98512223495264
            ],
            [
              79.77434374804557,
              26.984912051879405
            ],
            [
              79.77416890804349,
              26.984632282142734
            ],
            [
              79.77403361008362,
              26.98398591395264
            ],
            [
              79.77387886000457,
              26.983374444861568
            ],
            [
              79.77352959502211,
              26.98258805386541
            ],
            [
              79.77325782680089,
              26.982011342721684
            ],
            [
              79.7729079428792,
              26.981574234163045
            ],
            [
              79.77257761617956,
              26.98110222200188
            ],
            [
              79.77212951585457,
              26.981084109799937
            ],
            [
              79.77146154388066,
              26.981413123798117
            ],
            [
              79.77005795140204,
              26.981522390646276
            ],
            [
              79.76820628105635,
              26.981991302182237
            ],
            [
              79.76575019813636,
              26.982686236263437
            ],
            [
              79.76405342429511,
              26.983644232825522
            ],
            [
              79.76303881221598,
              26.98442859834104
            ],
            [
              79.76245408801776,
              26.984549965243993
            ],
            [
              79.76200610896535,
              26.984461967828288
            ],
            [
              79.76161674229031,
              26.984304202152916
            ],
            [
              79.76113014376553,
              26.98407642937006
            ],
            [
              79.76048763543663,
              26.98383095423241
            ],
            [
              79.75976702488204,
              26.983707606866247
            ],
            [
              79.75885722912857,
              26.98401386165923
            ],
            [
              79.75794523789257,
              26.984660658764277
            ],
            [
              79.75689199825624,
              26.985287838070118
            ],
            [
              79.75589810402249,
              26.985408549230236
            ],
            [
              79.75496333240922,
              26.985197526956714
            ],
            [
              79.75389204112726,
              26.98502121526626
            ],
            [
              79.75206064396089,
              26.98503580538553
            ],
            [
              79.75048269028224,
              26.985504109104927
            ],
            [
              79.74983885693834,
              26.985364108985763
            ],
            [
              79.74890367928656,
              26.985362620039172
            ],
            [
              79.74781866174703,
              26.984973456747817
            ],
            [
              79.7471562611245,
              26.984937465735626
            ],
            [
              79.74651335124872,
              26.98495389624253
            ],
            [
              79.74616256901173,
              26.98500572376919
            ],
            [
              79.74565569730761,
              26.985127154891018
            ],
            [
              79.7449535650984,
              26.985510231389444
            ],
            [
              79.7441345378162,
              26.985858185214585
            ],
            [
              79.74335431685597,
              26.986293517628628
            ],
            [
              79.74294490517366,
              26.986415100256433
            ],
            [
              79.74183430810642,
              26.986448211393157
            ],
            [
              79.74109349174613,
              26.986674026956376
            ],
            [
              79.74053422220979,
              26.987224790153334
            ],
            [
              79.73998701255617,
              26.98804479333854
            ],
            [
              79.73971153788607,
              26.98933668209366
            ],
            [
              79.73910492982924,
              26.99059309111953
            ],
            [
              79.7386548801601,
              26.991552867833306
            ],
            [
              79.73826468883158,
              26.991796716392194
            ],
            [
              79.73787449570646,
              26.99204065567507
            ],
            [
              79.73669322727753,
              26.992383186205245
            ],
            [
              79.73490057175441,
              26.992415105303298
            ],
            [
              79.73330298000536,
              26.9923425508974
            ],
            [
              79.7322898752993,
              26.99234083071039
            ],
            [
              79.73127666818527,
              26.992339104920156
            ],
            [
              79.72899646461813,
              26.992597155893286
            ],
            [
              79.72726538321787,
              26.993287120896525
            ],
            [
              79.72628987120981,
              26.993879203687385
            ],
            [
              79.7255263391509,
              26.995554511179495
            ],
            [
              79.72474256804868,
              26.997561497944147
            ],
            [
              79.7243498156233,
              26.998958017789352
            ],
            [
              79.72393916336759,
              26.99962092682071
            ],
            [
              79.7238238133969,
              26.99971531403245
            ],
            [
              79.72370489621619,
              26.999812617844842
            ],
            [
              79.72347073057448,
              27.000004310943428
            ],
            [
              79.72296362530838,
              27.00019552107196
            ],
            [
              79.7228208336024,
              27.000223121378582
            ],
            [
              79.72251533723552,
              27.00028205184845
            ],
            [
              79.72196975982074,
              27.00028108976434
            ],
            [
              79.72180427487407,
              27.00022371767897
            ],
            [
              79.72146345944515,
              27.000105555695267
            ],
            [
              79.720704536642,
              26.999650149693903
            ],
            [
              79.71975926192638,
              26.99883327187866
            ],
            [
              79.71830079316369,
              26.997538245678705
            ],
            [
              79.71769771907915,
              26.99710056670917
            ],
            [
              79.71684103711522,
              26.996784676774332
            ],
            [
              79.71643215543892,
              26.99664422884614
            ],
            [
              79.71571143708647,
              26.996555610152146
            ],
            [
              79.71479575107972,
              26.996519025724876
            ],
            [
              79.71403608267484,
              26.99641286310206
            ],
            [
              79.71306855040143,
              26.996435368798856
            ],
            [
              79.7123758909269,
              26.9963727047058
            ],
            [
              79.71381793309631,
              26.999088587354198
            ],
            [
              79.71478516712901,
              26.999636881341836
            ],
            [
              79.71582671609026,
              27.0002272882775
            ],
            [
              79.71697059663707,
              27.000875696210457
            ],
            [
              79.71825614330079,
              27.00108756870948
            ],
            [
              79.71954179596577,
              27.00129943120455
            ],
            [
              79.72071032269073,
              27.001580929959914
            ],
            [
              79.72166633137564,
              27.00200901802143
            ],
            [
              79.7224326527035,
              27.00466266693019
            ],
            [
              79.7223872257979,
              27.005815749960437
            ],
            [
              79.72259730042035,
              27.007814987079346
            ],
            [
              79.72177815905212,
              27.009658540201603
            ],
            [
              79.72053064076927,
              27.011232384361684
            ],
            [
              79.72113065698859,
              27.0114640597486
            ],
            [
              79.72254647104661,
              27.01142814123934
            ],
            [
              79.72344687401547,
              27.011698758272626
            ],
            [
              79.7234456118825,
              27.012275333206105
            ],
            [
              79.72202725110061,
              27.01346450011105
            ],
            [
              79.72065048411301,
              27.015230211005917
            ],
            [
              79.72090332842448,
              27.016445481641945
            ],
            [
              79.72197135522869,
              27.018484636183555
            ],
            [
              79.72166844960309,
              27.01967575804948
            ],
            [
              79.71960573625107,
              27.021171204307443
            ],
            [
              79.71926109938896,
              27.0218240000323
            ],
            [
              79.71971012318203,
              27.022459092149667
            ],
            [
              79.72015925387463,
              27.02309409104978
            ],
            [
              79.72259946356357,
              27.025520036634024
            ],
            [
              79.72499738865372,
              27.027753677024293
            ],
            [
              79.72705134073681,
              27.030332543773348
            ],
            [
              79.72790449591497,
              27.032640371674923
            ],
            [
              79.72888317538272,
              27.034008332335258
            ],
            [
              79.73081220325078,
              27.034895741124537
            ],
            [
              79.73312714197502,
              27.03589903815533
            ],
            [
              79.73368636120568,
              27.03524658268491
            ],
            [
              79.7351437277355,
              27.035979372295635
            ],
            [
              79.73831611827994,
              27.037406824185346
            ],
            [
              79.74067351407946,
              27.03867919297812
            ],
            [
              79.7406781952004,
              27.038687616738876
            ],
            [
              79.74140030594151,
              27.03998727591236
            ],
            [
              79.7419948666921,
              27.04302481182213
            ],
            [
              79.74194056622811,
              27.044582981256358
            ],
            [
              79.74056436877241,
              27.04604136592606
            ],
            [
              79.73970400012252,
              27.047077710223398
            ],
            [
              79.73940283543193,
              27.047423163663087
            ],
            [
              79.73905640193928,
              27.048960068949565
            ],
            [
              79.73909502230995,
              27.05103574302151
            ],
            [
              79.73926308272655,
              27.05276576996153
            ],
            [
              79.7388308152085,
              27.054302522867896
            ],
            [
              79.73676781888715,
              27.05575971960564
            ],
            [
              79.73612206225022,
              27.056719555705964
            ],
            [
              79.73624378127627,
              27.057471396208246
            ],
            [
              79.73722770241369,
              27.058972085352202
            ],
            [
              79.73847056921998,
              27.05981981062598
            ],
            [
              79.73971392920136,
              27.06043683638449
            ],
            [
              79.74173012599134,
              27.060901354811893
            ],
            [
              79.74327373797497,
              27.061595771346198
            ],
            [
              79.74365822679803,
              27.06244196086527
            ],
            [
              79.74464401014308,
              27.063135452711943
            ],
            [
              79.74544207164486,
              27.063759427797486
            ],
            [
              79.74626226044872,
              27.06696616170984
            ],
            [
              79.74698824023378,
              27.071249341678875
            ],
            [
              79.74797047703007,
              27.073710927319485
            ],
            [
              79.74843207274553,
              27.074384522976196
            ],
            [
              79.74853371711994,
              27.07518353490477
            ],
            [
              79.7485753154058,
              27.075510531248664
            ],
            [
              79.75023509033544,
              27.07769478329373
            ],
            [
              79.75126230487967,
              27.079898233609104
            ],
            [
              79.75188794105087,
              27.081341520700143
            ],
            [
              79.7518627217476,
              27.081606910315926
            ],
            [
              79.75160716093075,
              27.084296164830594
            ],
            [
              79.75156569559554,
              27.085905204360675
            ],
            [
              79.75026571120853,
              27.0872842299441
            ],
            [
              79.75023853357794,
              27.087307514011595
            ],
            [
              79.74928209998988,
              27.088126921676803
            ],
            [
              79.74850256534249,
              27.08873391604508
            ],
            [
              79.74665287578203,
              27.09061429671092
            ],
            [
              79.74385772465634,
              27.092992721319092
            ],
            [
              79.74076121839727,
              27.095755034654037
            ],
            [
              79.73904081257581,
              27.097281596942963
            ],
            [
              79.74032404607772,
              27.09951297603639
            ],
            [
              79.74109450594409,
              27.10062887082112
            ],
            [
              79.74319368191347,
              27.102823140825862
            ],
            [
              79.7450755805685,
              27.10636223628122
            ],
            [
              79.7475167289969,
              27.10936409071288
            ],
            [
              79.74738625319344,
              27.110209402163232
            ],
            [
              79.74480636176604,
              27.11212705321892
            ],
            [
              79.74373098314953,
              27.11308616507416
            ],
            [
              79.74446010434316,
              27.11347169232114
            ],
            [
              79.74647770699656,
              27.11366712129341
            ],
            [
              79.7486362050124,
              27.115470882370424
            ],
            [
              79.75036364015091,
              27.11419478660918
            ],
            [
              79.7507671148675,
              27.114581512616404
            ],
            [
              79.7522412816898,
              27.115853579688682
            ],
            [
              79.75401751780613,
              27.11713520074584
            ],
            [
              79.75697974299825,
              27.118466974715485
            ],
            [
              79.75881022478136,
              27.119676200879894
            ],
            [
              79.76004747801542,
              27.12100517338994
            ],
            [
              79.76023241508128,
              27.12183754596187
            ],
            [
              79.7614960320723,
              27.12352854807279
            ],
            [
              79.75993001969874,
              27.12492557421165
            ],
            [
              79.75650118978514,
              27.12791229672587
            ],
            [
              79.7589501661329,
              27.129918798168745
            ],
            [
              79.75800495879098,
              27.131909972266325
            ],
            [
              79.75684119673028,
              27.134296896865
            ],
            [
              79.75845447486084,
              27.135438680750443
            ],
            [
              79.75950624485337,
              27.13618304025845
            ],
            [
              79.76044959627593,
              27.13668901636131
            ],
            [
              79.75931580740303,
              27.137580021024828
            ],
            [
              79.76136229538439,
              27.138741273905488
            ],
            [
              79.76316573518248,
              27.140143466797223
            ],
            [
              79.76383776304989,
              27.141181947237452
            ],
            [
              79.76337777801372,
              27.14204990561332
            ],
            [
              79.7637009702934,
              27.142204968217154
            ],
            [
              79.76577373938669,
              27.143824690316574
            ],
            [
              79.76860055163455,
              27.145855643289988
            ],
            [
              79.76861790079762,
              27.145862934288772
            ],
            [
              79.7706748029481,
              27.146727318352454
            ],
            [
              79.77223598777529,
              27.148032454923012
            ],
            [
              79.77228896322426,
              27.1485633473136
            ],
            [
              79.77020993826329,
              27.15034586202258
            ],
            [
              79.76955606714438,
              27.150753388645903
            ],
            [
              79.76796976003193,
              27.151742035094337
            ],
            [
              79.76676113520766,
              27.14927916612835
            ],
            [
              79.76514124098503,
              27.150507305362748
            ],
            [
              79.7634941853015,
              27.15190420619677
            ],
            [
              79.76247392371756,
              27.15442192380783
            ],
            [
              79.7611760809142,
              27.15642264130454
            ],
            [
              79.75888221756483,
              27.157577267368378
            ],
            [
              79.75838978268563,
              27.157660212633218
            ],
            [
              79.75618528643568,
              27.15803151412818
            ],
            [
              79.75338116742854,
              27.158123646736225
            ],
            [
              79.75057771137806,
              27.157878001707886
            ],
            [
              79.74917526425145,
              27.156930499203362
            ],
            [
              79.74816332196536,
              27.15491141411683
            ],
            [
              79.74511299540008,
              27.15287414731246
            ],
            [
              79.74365289080525,
              27.15279485935335
            ],
            [
              79.74335193362552,
              27.153121349214825
            ],
            [
              79.74313591035923,
              27.15356266928972
            ],
            [
              79.74296210072482,
              27.15456170417984
            ],
            [
              79.74390634597111,
              27.156636128632698
            ],
            [
              79.74441739933285,
              27.15702376290734
            ],
            [
              79.74561585702477,
              27.15910106616033
            ],
            [
              79.74629890542408,
              27.161177525926576
            ],
            [
              79.74633007965939,
              27.16396578987546
            ],
            [
              79.74549065792532,
              27.164886824607912
            ],
            [
              79.74465122271648,
              27.165807854939704
            ],
            [
              79.74331941281558,
              27.166529945782234
            ],
            [
              79.741039812018,
              27.168025081990198
            ],
            [
              79.74017821806608,
              27.169253540168704
            ],
            [
              79.74013226115446,
              27.170713911273708
            ],
            [
              79.74012844690775,
              27.172514829856418
            ],
            [
              79.73909342241042,
              27.174511622971586
            ],
            [
              79.73848930807682,
              27.175817314723925
            ],
            [
              79.73865904115648,
              27.176816797811583
            ],
            [
              79.73943035532069,
              27.177740449170813
            ],
            [
              79.74075873275886,
              27.17935681505963
            ],
            [
              79.7427740932173,
              27.18116635323583
            ],
            [
              79.7445322588234,
              27.182744968767597
            ],
            [
              79.7458639285871,
              27.18278553267171
            ],
            [
              79.74753807206974,
              27.18340310394406
            ],
            [
              79.74835114082664,
              27.184980156782586
            ],
            [
              79.74852100865361,
              27.185309628991114
            ],
            [
              79.75086066901447,
              27.18773009993495
            ],
            [
              79.75376892162768,
              27.189906084049344
            ],
            [
              79.75841532807736,
              27.18571516934572
            ],
            [
              79.7605156682634,
              27.187334831721625
            ],
            [
              79.76178035694454,
              27.18880855816223
            ],
            [
              79.76349934432616,
              27.19250251686588
            ],
            [
              79.7654822252972,
              27.196040152702185
            ],
            [
              79.76614323532768,
              27.195765170900952
            ],
            [
              79.76706707803721,
              27.195404011311467
            ],
            [
              79.76790080624903,
              27.19503260322481
            ],
            [
              79.76940536667064,
              27.194118426770146
            ],
            [
              79.77090980312472,
              27.19320414294298
            ],
            [
              79.7735695035769,
              27.191495963785982
            ],
            [
              79.7739354673422,
              27.191258202804914
            ],
            [
              79.77451008459515,
              27.190997214001445
            ],
            [
              79.77613197756925,
              27.190506043319562
            ],
            [
              79.77705015640095,
              27.19010951286033
            ],
            [
              79.77796824270617,
              27.18971300176664
            ],
            [
              79.77879703557382,
              27.1892443012053
            ],
            [
              79.78123947488127,
              27.18791644715298
            ],
            [
              79.78125032383497,
              27.18791054926954
            ],
            [
              79.78223360537191,
              27.187375961294222
            ],
            [
              79.78383014070218,
              27.186285233809645
            ]
          ]
        ]
      }
    }
  ]
}