{
  "type": "FeatureCollection",
  "features": [
    {
      "type": "Feature",
      "properties": {
        "object_id": "09-193-00976",
        "stcode11": "09",
        "dtcode11": "193",
        "sdtcode11": "00976",
        "stname": "UTTAR PRADESH",
        "dtname": "Ballia",
        "sdtname": "Sikanderpur",
        "st_area_sh": 0.0,
        "st_length_": 0.0,
        "remarks": "",
        "dist_lgd": 126,
        "state_lgd": 9,
        "subdt_lgd": 976,
        "ac_no": 359,
        "st_length(shape)": 117771.99272334053,
        "st_area(shape)": 496125132.47568303
      },
      "geometry": {
        "type": "Polygon",
        "coordinates": [
          [
            [
              83.97948716959888,
              26.11429091064009
            ],
            [
              83.98094157977313,
              26.113964845632058
            ],
            [
              83.98267139095557,
              26.114162184766112
            ],
            [
              83.98501182207097,
              26.115166821644777
            ],
            [
              83.98667209826054,
              26.115720657844758
            ],
            [
              83.98757687243153,
              26.115719994010135
            ],
            [
              83.98975134788301,
              26.11553317966542
            ],
            [
              83.99121595663064,
              26.115486890224275
            ],
            [
              83.9928958493311,
              26.115625482634112
            ],
            [
              83.99436601775206,
              26.116071000680506
            ],
            [
              83.99561126778879,
              26.11652134532376
            ],
            [
              83.99679145823937,
              26.116921993109038
            ],
            [
              83.99746097801052,
              26.116564892729954
            ],
            [
              83.9979129976851,
              26.11630631015732
            ],
            [
              83.9979168541526,
              26.116302774025545
            ],
            [
              83.99791696195042,
              26.116302711110777
            ],
            [
              83.99945567901408,
              26.114891514972324
            ],
            [
              84.00056905816373,
              26.113874778905164
            ],
            [
              84.00210709160947,
              26.113059174991722
            ],
            [
              84.00406488263461,
              26.112363647143965
            ],
            [
              84.00571219343968,
              26.11221608600744
            ],
            [
              84.00692429025257,
              26.1123095708843
            ],
            [
              84.0077163357369,
              26.112594579271224
            ],
            [
              84.00860326307814,
              26.113008193256437
            ],
            [
              84.0094130188483,
              26.11312395799691
            ],
            [
              84.0108852498011,
              26.11301001460924
            ],
            [
              84.0120574865682,
              26.113044849387695
            ],
            [
              84.01290706016334,
              26.113298167106922
            ],
            [
              84.01400875402776,
              26.11391733999966
            ],
            [
              84.01442849723416,
              26.11410044488669
            ],
            [
              84.01527081693337,
              26.11414622912978
            ],
            [
              84.01598094774187,
              26.113837605186447
            ],
            [
              84.01725138564085,
              26.11310521211521
            ],
            [
              84.0191926593429,
              26.111276587720877
            ],
            [
              84.02106364256888,
              26.10960582764275
            ],
            [
              84.0220041993326,
              26.108816735186856
            ],
            [
              84.02359701743426,
              26.10798293410548
            ],
            [
              84.02533492243741,
              26.10694162020505
            ],
            [
              84.02784074327805,
              26.105192269899067
            ],
            [
              84.02945128514025,
              26.10399065920421
            ],
            [
              84.03181694094877,
              26.102286178371788
            ],
            [
              84.03323736516089,
              26.10111824111375
            ],
            [
              84.03499569066709,
              26.099424712339655
            ],
            [
              84.03566597041298,
              26.098734639099295
            ],
            [
              84.0369913708343,
              26.097555223734144
            ],
            [
              84.03773907278124,
              26.097018667205745
            ],
            [
              84.03832411408479,
              26.096639915383427
            ],
            [
              84.03916659098915,
              26.096308701763316
            ],
            [
              84.0406138784215,
              26.09595528572838
            ],
            [
              84.04248825009275,
              26.095782581166073
            ],
            [
              84.04343304959953,
              26.095679319887918
            ],
            [
              84.04408037469496,
              26.09551952603063
            ],
            [
              84.04465043389617,
              26.095176845389997
            ],
            [
              84.0457156453803,
              26.09423868009911
            ],
            [
              84.04632093291369,
              26.09360039824881
            ],
            [
              84.04772395316544,
              26.09198549870972
            ],
            [
              84.04874914290703,
              26.091094730778252
            ],
            [
              84.0498966050369,
              26.09037315372984
            ],
            [
              84.05098645102106,
              26.08995179364768
            ],
            [
              84.05161135596359,
              26.08971966229866
            ],
            [
              84.05221622128882,
              26.0894695496839
            ],
            [
              84.05265350589778,
              26.089481014898144
            ],
            [
              84.05294590303119,
              26.089573640169366
            ],
            [
              84.05313560116805,
              26.089916771270865
            ],
            [
              84.05351446294416,
              26.091577741736167
            ],
            [
              84.05400066082035,
              26.093353904170826
            ],
            [
              84.05443223214407,
              26.094624578618095
            ],
            [
              84.05524774881015,
              26.097499849859005
            ],
            [
              84.05569672589083,
              26.098896790639195
            ],
            [
              84.05592353073712,
              26.100054521786802
            ],
            [
              84.05595176209157,
              26.100055087291597
            ],
            [
              84.05597251407295,
              26.09999163134646
            ],
            [
              84.0572460296001,
              26.10001313021807
            ],
            [
              84.05988520983625,
              26.099967751863463
            ],
            [
              84.06169127720655,
              26.10001169669119
            ],
            [
              84.06217711755322,
              26.1000235150187
            ],
            [
              84.06302459268385,
              26.100099433828703
            ],
            [
              84.06747299607191,
              26.100032130699713
            ],
            [
              84.07182551418482,
              26.100003342383303
            ],
            [
              84.07223368259879,
              26.100008414180767
            ],
            [
              84.0733082257821,
              26.100021765260916
            ],
            [
              84.07365847711472,
              26.100026114243885
            ],
            [
              84.07424816360657,
              26.1000334359592
            ],
            [
              84.07640074801287,
              26.10006014214586
            ],
            [
              84.08047751118137,
              26.10007060922687
            ],
            [
              84.08462185281202,
              26.100177062816048
            ],
            [
              84.08727496412162,
              26.100218890757116
            ],
            [
              84.08867233576687,
              26.100240901847933
            ],
            [
              84.09104930405982,
              26.09888138229561
            ],
            [
              84.09309880858389,
              26.097831003635406
            ],
            [
              84.09317170327594,
              26.097798393311106
            ],
            [
              84.09663026293389,
              26.09625105633134
            ],
            [
              84.09879909696537,
              26.095018031043033
            ],
            [
              84.10010671164238,
              26.094466898618723
            ],
            [
              84.10201579870777,
              26.09343160298236
            ],
            [
              84.10276077965773,
              26.093143387811665
            ],
            [
              84.10379536038732,
              26.09274312485177
            ],
            [
              84.1038115453338,
              26.092736864378896
            ],
            [
              84.1038154655817,
              26.092732561110378
            ],
            [
              84.10515175717754,
              26.0912660279896
            ],
            [
              84.10640804211923,
              26.09015891033228
            ],
            [
              84.10720885336409,
              26.089380761400427
            ],
            [
              84.10918729306435,
              26.087458249252133
            ],
            [
              84.10970240231961,
              26.08705095009388
            ],
            [
              84.11207191729063,
              26.085177298262046
            ],
            [
              84.11208627416552,
              26.08516594638694
            ],
            [
              84.11347767830235,
              26.08384040690554
            ],
            [
              84.11505533643525,
              26.08225241130078
            ],
            [
              84.1153927813852,
              26.08194585825105
            ],
            [
              84.11683855605462,
              26.080632413222727
            ],
            [
              84.11777365914624,
              26.079983427713827
            ],
            [
              84.11972318836571,
              26.077893020678147
            ],
            [
              84.12111508118606,
              26.07654034032942
            ],
            [
              84.12124509974703,
              26.076359677953445
            ],
            [
              84.12250098044686,
              26.074614577721622
            ],
            [
              84.12314635529978,
              26.07355374739054
            ],
            [
              84.12318826440274,
              26.073488774635567
            ],
            [
              84.12320331298038,
              26.0734654440806
            ],
            [
              84.12443919179206,
              26.0715494130457
            ],
            [
              84.12472911676181,
              26.070928112380546
            ],
            [
              84.12577165027659,
              26.069779182217516
            ],
            [
              84.12578660902268,
              26.069762697642858
            ],
            [
              84.12685993768372,
              26.068561497746327
            ],
            [
              84.12859885508823,
              26.065875759144845
            ],
            [
              84.1293172063799,
              26.064685517378777
            ],
            [
              84.12948856361359,
              26.064447169161564
            ],
            [
              84.13059945173497,
              26.062901959027858
            ],
            [
              84.13144844501842,
              26.0616782096491
            ],
            [
              84.13228529936742,
              26.060336915788543
            ],
            [
              84.13342678500571,
              26.05858662103429
            ],
            [
              84.13448950995314,
              26.056992647608272
            ],
            [
              84.13569714124073,
              26.055189506805895
            ],
            [
              84.13572354632018,
              26.0551473407719
            ],
            [
              84.13656494614452,
              26.053803681797838
            ],
            [
              84.13729289234176,
              26.052212062014732
            ],
            [
              84.13800246260153,
              26.051581004103582
            ],
            [
              84.13935696933639,
              26.050511586349334
            ],
            [
              84.14041792909424,
              26.049806274023467
            ],
            [
              84.14058151769737,
              26.049671559857373
            ],
            [
              84.1429256130408,
              26.047741162779662
            ],
            [
              84.14332275822792,
              26.04741409800042
            ],
            [
              84.14584814527377,
              26.045431086016748
            ],
            [
              84.14627054120521,
              26.045099398236715
            ],
            [
              84.14699932193734,
              26.044557788608408
            ],
            [
              84.1479437423551,
              26.043855911791997
            ],
            [
              84.14831672375938,
              26.043574419616217
            ],
            [
              84.14927412393466,
              26.042851855638858
            ],
            [
              84.14930707683425,
              26.04282698628885
            ],
            [
              84.1493898709607,
              26.04275355335409
            ],
            [
              84.15184012471282,
              26.040580307335546
            ],
            [
              84.15228754411483,
              26.040183455605018
            ],
            [
              84.15545741218989,
              26.037818615604273
            ],
            [
              84.1555219938723,
              26.03777043335271
            ],
            [
              84.15562031897173,
              26.037683137829656
            ],
            [
              84.15859410727816,
              26.035042843322593
            ],
            [
              84.16109595756525,
              26.03317919102936
            ],
            [
              84.16136044673773,
              26.03300394008054
            ],
            [
              84.16240523143063,
              26.032311656035304
            ],
            [
              84.16607371569236,
              26.029690343724813
            ],
            [
              84.16679636721929,
              26.029086020967394
            ],
            [
              84.16929435295401,
              26.026996987872934
            ],
            [
              84.16958156141835,
              26.02677979361767
            ],
            [
              84.17245768758207,
              26.024604700124723
            ],
            [
              84.17244665357542,
              26.023607440791658
            ],
            [
              84.17224140021112,
              26.021131113292203
            ],
            [
              84.17203420289249,
              26.018735953974588
            ],
            [
              84.17200909318369,
              26.01811738531472
            ],
            [
              84.17186277828515,
              26.01589034436248
            ],
            [
              84.17150182083094,
              26.013036511123723
            ],
            [
              84.17145782404326,
              26.012742062705474
            ],
            [
              84.17145207841872,
              26.012703599893896
            ],
            [
              84.1714071680444,
              26.01240304572362
            ],
            [
              84.17117545570169,
              26.011077526849775
            ],
            [
              84.17095055708042,
              26.009790961373536
            ],
            [
              84.17092831659062,
              26.009593720845086
            ],
            [
              84.17084351383116,
              26.00884162662583
            ],
            [
              84.17074519142669,
              26.006904080250706
            ],
            [
              84.17061670628992,
              26.004975147186368
            ],
            [
              84.17046931341304,
              26.002551667113426
            ],
            [
              84.1704090247794,
              26.001560374365145
            ],
            [
              84.1703817483341,
              26.00000044995909
            ],
            [
              84.17040133609888,
              25.99959067415061
            ],
            [
              84.17035111757954,
              25.99894084515736
            ],
            [
              84.1703508912041,
              25.998254818698488
            ],
            [
              84.1702905001625,
              25.996964525382527
            ],
            [
              84.17029047860291,
              25.996964062730147
            ],
            [
              84.17025731010767,
              25.99669556739076
            ],
            [
              84.17025535896687,
              25.996679780652496
            ],
            [
              84.17019492300952,
              25.995131778604474
            ],
            [
              84.17014421401004,
              25.99318216971242
            ],
            [
              84.17009367658879,
              25.991733433215728
            ],
            [
              84.17007579382643,
              25.991051598197686
            ],
            [
              84.16919954475895,
              25.991732465881974
            ],
            [
              84.16676386976556,
              25.99265890395086
            ],
            [
              84.1646066338827,
              25.993527240683843
            ],
            [
              84.16052821242423,
              25.995091205852148
            ],
            [
              84.16012853129308,
              25.993444336248306
            ],
            [
              84.16015784242246,
              25.991417948752815
            ],
            [
              84.16082635158891,
              25.989296631204205
            ],
            [
              84.16049156295725,
              25.988506939186106
            ],
            [
              84.15922793788138,
              25.987739917648934
            ],
            [
              84.15752480217128,
              25.986548894329385
            ],
            [
              84.15600646069494,
              25.985411921931174
            ],
            [
              84.15626595882767,
              25.984757407710774
            ],
            [
              84.1556217212419,
              25.98457255994349
            ],
            [
              84.15462803002741,
              25.984766748122627
            ],
            [
              84.15238577129787,
              25.984022533724946
            ],
            [
              84.1516915119238,
              25.9829530243832
            ],
            [
              84.1491893732775,
              25.980832323641863
            ],
            [
              84.14664230988384,
              25.978549039115656
            ],
            [
              84.14522912429634,
              25.977786527394013
            ],
            [
              84.14386606919322,
              25.978698352994993
            ],
            [
              84.14170401384888,
              25.979118370245914
            ],
            [
              84.14085019930731,
              25.97874381221711
            ],
            [
              84.14013095958181,
              25.9773719192406
            ],
            [
              84.13961648992701,
              25.976018051266227
            ],
            [
              84.1390619464274,
              25.973797581368448
            ],
            [
              84.13799328810754,
              25.972200065781
            ],
            [
              84.1365251831168,
              25.970539328747268
            ],
            [
              84.13542183904715,
              25.97097266984767
            ],
            [
              84.13468287411465,
              25.9708057113857
            ],
            [
              84.13324987528522,
              25.970936684808887
            ],
            [
              84.13144735536198,
              25.968441034378607
            ],
            [
              84.13063834968509,
              25.966644767726272
            ],
            [
              84.12857647266462,
              25.967976194836606
            ],
            [
              84.12681396909402,
              25.96880669461741
            ],
            [
              84.12571053339623,
              25.968973697104996
            ],
            [
              84.12353862443152,
              25.970007177056768
            ],
            [
              84.1197890429609,
              25.96917213566429
            ],
            [
              84.11706792020115,
              25.968910310730415
            ],
            [
              84.11712814056284,
              25.96540354521537
            ],
            [
              84.11564065262323,
              25.96105277505964
            ],
            [
              84.11528625017563,
              25.96013657318735
            ],
            [
              84.11469228860136,
              25.958417010103435
            ],
            [
              84.11469244580654,
              25.957180342621943
            ],
            [
              84.11195662481212,
              25.956751398712242
            ],
            [
              84.10934067770418,
              25.95653452770921
            ],
            [
              84.10991992217916,
              25.9553114890873
            ],
            [
              84.11100855364104,
              25.952982755359898
            ],
            [
              84.11145289002498,
              25.95289252132369
            ],
            [
              84.11496729435088,
              25.953741331914536
            ],
            [
              84.11664969065603,
              25.953520264916186
            ],
            [
              84.11744344024444,
              25.95329468476461
            ],
            [
              84.11788781615421,
              25.952667368063675
            ],
            [
              84.11808751613347,
              25.951683505863937
            ],
            [
              84.11759338343839,
              25.95087564809426
            ],
            [
              84.11734378114681,
              25.950785322784
            ],
            [
              84.11907609683226,
              25.94921937904142
            ],
            [
              84.1207135477288,
              25.9479196211291
            ],
            [
              84.12115782841717,
              25.947161411752074
            ],
            [
              84.12137747279235,
              25.945920306870015
            ],
            [
              84.12222120733811,
              25.94485975431657
            ],
            [
              84.12408817599312,
              25.94290102572854
            ],
            [
              84.1259251301378,
              25.941456755020695
            ],
            [
              84.12727785820842,
              25.94017504113531
            ],
            [
              84.12739761172064,
              25.939114391606324
            ],
            [
              84.12742750495835,
              25.937643129348505
            ],
            [
              84.1272478302234,
              25.936040915774274
            ],
            [
              84.12500164765271,
              25.9338926683367
            ],
            [
              84.12361902095452,
              25.931554840971728
            ],
            [
              84.12283548431256,
              25.93119829415579
            ],
            [
              84.1213879300806,
              25.93169018340175
            ],
            [
              84.11913188760133,
              25.931252358601732
            ],
            [
              84.11889239225499,
              25.929704271116385
            ],
            [
              84.11759978303648,
              25.92923938364132
            ],
            [
              84.11579294042006,
              25.928806022209553
            ],
            [
              84.11571333531288,
              25.926531348034658
            ],
            [
              84.11550381584927,
              25.92495171568264
            ],
            [
              84.1161328233977,
              25.922695131025687
            ],
            [
              84.1172400913085,
              25.9213408199989
            ],
            [
              84.11775996073646,
              25.920704949073468
            ],
            [
              84.11613310187546,
              25.918854425388528
            ],
            [
              84.11574389599883,
              25.91801045114257
            ],
            [
              84.11153182409068,
              25.91776639593442
            ],
            [
              84.10984500987097,
              25.917138898913127
            ],
            [
              84.10800863424132,
              25.915969694779676
            ],
            [
              84.1073202139166,
              25.914417121811685
            ],
            [
              84.10644702990085,
              25.913248084608927
            ],
            [
              84.10626245126281,
              25.912674823157666
            ],
            [
              84.10572362019583,
              25.912020420785637
            ],
            [
              84.10459077994385,
              25.911929975996934
            ],
            [
              84.10460568389273,
              25.912345161251686
            ],
            [
              84.10448094832395,
              25.91234964404635
            ],
            [
              84.10403171881666,
              25.912435391601612
            ],
            [
              84.10336028383733,
              25.912321414072334
            ],
            [
              84.10331311060682,
              25.912313405963225
            ],
            [
              84.10280407486117,
              25.912466721040623
            ],
            [
              84.10257455440778,
              25.912507373993233
            ],
            [
              84.10228005341996,
              25.91251181718969
            ],
            [
              84.1016163574268,
              25.91266966165561
            ],
            [
              84.10088767281442,
              25.91270569197338
            ],
            [
              84.1006980007287,
              25.91277336675742
            ],
            [
              84.09970970928741,
              25.913594547830336
            ],
            [
              84.09946018604758,
              25.913725374005537
            ],
            [
              84.09912585376007,
              25.913842692031494
            ],
            [
              84.0987515266795,
              25.913833581116993
            ],
            [
              84.09825252421724,
              25.913761294921795
            ],
            [
              84.0973193300456,
              25.91353999614482
            ],
            [
              84.09681027992691,
              25.913449559793484
            ],
            [
              84.0965757558574,
              25.913436030734974
            ],
            [
              84.09607173001608,
              25.913508101395152
            ],
            [
              84.09556766464891,
              25.913512520314065
            ],
            [
              84.09539798367152,
              25.913553154322326
            ],
            [
              84.09516833296243,
              25.9136658701922
            ],
            [
              84.09469918061876,
              25.914031374905083
            ],
            [
              84.09444462411837,
              25.91415772433381
            ],
            [
              84.0939405300051,
              25.914265869641397
            ],
            [
              84.09305717616205,
              25.91427472600605
            ],
            [
              84.09284755968041,
              25.914364912864226
            ],
            [
              84.09276272188666,
              25.91436944406138
            ],
            [
              84.09240333019598,
              25.91479363380235
            ],
            [
              84.09234838114837,
              25.914816154770627
            ],
            [
              84.09229348240642,
              25.91492896962332
            ],
            [
              84.09204396455647,
              25.91505076429593
            ],
            [
              84.09184429062837,
              25.915010079900792
            ],
            [
              84.09150502389501,
              25.914793393022787
            ],
            [
              84.09134040492424,
              25.914639954116467
            ],
            [
              84.09106593457065,
              25.914621759073473
            ],
            [
              84.09089619610108,
              25.914752592996905
            ],
            [
              84.09066644837392,
              25.915217463273265
            ],
            [
              84.09059652710545,
              25.915483739181493
            ],
            [
              84.09046676366603,
              25.91568679014536
            ],
            [
              84.09030190394678,
              25.916115437599462
            ],
            [
              84.09021201941776,
              25.916124517634596
            ],
            [
              84.08946337334145,
              25.916417634010894
            ],
            [
              84.08941843871263,
              25.916476342197548
            ],
            [
              84.08930368522329,
              25.91650337780012
            ],
            [
              84.08928365908066,
              25.916548544315095
            ],
            [
              84.08890433018057,
              25.916719945187808
            ],
            [
              84.08813072621074,
              25.91690473227059
            ],
            [
              84.08762163117628,
              25.91713025121961
            ],
            [
              84.08713743564489,
              25.91752281772925
            ],
            [
              84.08683788702349,
              25.917874735883473
            ],
            [
              84.08646838389599,
              25.91824477798931
            ],
            [
              84.08620878335529,
              25.918420671887397
            ],
            [
              84.08586943577356,
              25.918569569990506
            ],
            [
              84.08550011859732,
              25.91859646937596
            ],
            [
              84.08529045360663,
              25.918650566265285
            ],
            [
              84.08507577960995,
              25.918745293732854
            ],
            [
              84.084651550217,
              25.919034021240005
            ],
            [
              84.08438698109448,
              25.919169357849533
            ],
            [
              84.0840076575843,
              25.919214370639764
            ],
            [
              84.08322914072815,
              25.91908778828261
            ],
            [
              84.08278492831174,
              25.91910569015646
            ],
            [
              84.08244554210243,
              25.919186838766453
            ],
            [
              84.08205632005615,
              25.919132608002617
            ],
            [
              84.08177186223323,
              25.91914604510855
            ],
            [
              84.08149732809925,
              25.91921822135259
            ],
            [
              84.08118778661864,
              25.919398635914803
            ],
            [
              84.08107301336635,
              25.919434685991238
            ],
            [
              84.08068367004749,
              25.919475167679334
            ],
            [
              84.08048900692206,
              25.919533836369745
            ],
            [
              84.0799598983214,
              25.919808913233805
            ],
            [
              84.07904154970811,
              25.920038863076968
            ],
            [
              84.0779883981067,
              25.920232574398437
            ],
            [
              84.07677563833712,
              25.920263766030544
            ],
            [
              84.07647620829339,
              25.920308785674415
            ],
            [
              84.07594574772823,
              25.920305578931284
            ],
            [
              84.07568764557742,
              25.92030401716896
            ],
            [
              84.07378101001441,
              25.920700523152572
            ],
            [
              84.07296234565159,
              25.920871682877653
            ],
            [
              84.07244338262376,
              25.920853496875772
            ],
            [
              84.07205904381937,
              25.92085332720763
            ],
            [
              84.07160488166284,
              25.920853141380576
            ],
            [
              84.07089627619368,
              25.92073552977461
            ],
            [
              84.07039724588365,
              25.92061805378609
            ],
            [
              84.06938925438821,
              25.920279163896357
            ],
            [
              84.06896472405964,
              25.920919824989806
            ],
            [
              84.06846046285975,
              25.921307793010875
            ],
            [
              84.06782658913738,
              25.921474560703828
            ],
            [
              84.06656379410484,
              25.92155530128999
            ],
            [
              84.06587499379275,
              25.92172653087255
            ],
            [
              84.06546577255328,
              25.921775962103535
            ],
            [
              84.06533603606331,
              25.921595354850425
            ],
            [
              84.06475732518761,
              25.921098700242418
            ],
            [
              84.06451292863308,
              25.920945106337165
            ],
            [
              84.0640439020536,
              25.92073736219258
            ],
            [
              84.063315211153,
              25.920691849866078
            ],
            [
              84.06285109117154,
              25.920736813598324
            ],
            [
              84.06255157758449,
              25.92084955411079
            ],
            [
              84.06205230293271,
              25.92117422905591
            ],
            [
              84.06116353404511,
              25.922004339098635
            ],
            [
              84.06083399965955,
              25.922162129652378
            ],
            [
              84.06030987042051,
              25.92231081781479
            ],
            [
              84.06020506217966,
              25.922346868616522
            ],
            [
              84.05957113006683,
              25.922585765393414
            ],
            [
              84.0589970131755,
              25.922842795676406
            ],
            [
              84.05876235705358,
              25.922914905022754
            ],
            [
              84.05855776574765,
              25.922914804839515
            ],
            [
              84.05828324688501,
              25.922837922242543
            ],
            [
              84.05801384931783,
              25.92272049924881
            ],
            [
              84.05793905738393,
              25.922580517876522
            ],
            [
              84.05791932229542,
              25.922111157043297
            ],
            [
              84.05776974112253,
              25.921907957980125
            ],
            [
              84.05742051386932,
              25.921754323116534
            ],
            [
              84.05700618930072,
              25.92175867062791
            ],
            [
              84.05661182799267,
              25.921961586362883
            ],
            [
              84.0561124832723,
              25.922466831314594
            ],
            [
              84.05590766109933,
              25.92281428382325
            ],
            [
              84.05570272304368,
              25.92326998304249
            ],
            [
              84.05565773810919,
              25.923445942156203
            ],
            [
              84.05546785761432,
              25.923802395277775
            ],
            [
              84.05491382705272,
              25.92385630314795
            ],
            [
              84.05392576198689,
              25.92368882219577
            ],
            [
              84.05167972314663,
              25.92387280012764
            ],
            [
              84.04838053989145,
              25.924028986071185
            ],
            [
              84.04631910484206,
              25.924298750874904
            ],
            [
              84.0434738609612,
              25.924852258005412
            ],
            [
              84.0423059298193,
              25.924982434243507
            ],
            [
              84.04209159897903,
              25.924553558071146
            ],
            [
              84.04136913699661,
              25.92282460997862
            ],
            [
              84.04069170396612,
              25.920964803178077
            ],
            [
              84.03959483315643,
              25.91947032238461
            ],
            [
              84.03885134161322,
              25.919284805700244
            ],
            [
              84.03822237987883,
              25.91940180713268
            ],
            [
              84.03790828843132,
              25.91901343128482
            ],
            [
              84.03783383336562,
              25.91844018978296
            ],
            [
              84.0377194850165,
              25.91788952000873
            ],
            [
              84.03699614538004,
              25.917401667136108
            ],
            [
              84.03614306835529,
              25.91699494782006
            ],
            [
              84.0357641436971,
              25.916493748372208
            ],
            [
              84.03528058507123,
              25.915735237366736
            ],
            [
              84.03486671864344,
              25.915252057836522
            ],
            [
              84.03432280311196,
              25.915206595103413
            ],
            [
              84.03352939488333,
              25.91505713928479
            ],
            [
              84.03313001289118,
              25.915291602893948
            ],
            [
              84.03267557585018,
              25.915661413136895
            ],
            [
              84.03220107763227,
              25.916198154124157
            ],
            [
              84.03201099321984,
              25.91673958779254
            ],
            [
              84.03190078610417,
              25.917245082971238
            ],
            [
              84.0311267581295,
              25.91784028590734
            ],
            [
              84.02993337322397,
              25.918624805306255
            ],
            [
              84.028759655135,
              25.919716225082297
            ],
            [
              84.02728628960998,
              25.92097893975365
            ],
            [
              84.02693139398731,
              25.92165569410973
            ],
            [
              84.02668152669273,
              25.922129355778086
            ],
            [
              84.02651116569064,
              25.92287395995621
            ],
            [
              84.0260766721473,
              25.92322565126775
            ],
            [
              84.0255076900261,
              25.92329300330633
            ],
            [
              84.02486388991986,
              25.923247417637185
            ],
            [
              84.0236060778422,
              25.923354832321017
            ],
            [
              84.02280754382657,
              25.923340755816927
            ],
            [
              84.02214864034546,
              25.923471164791124
            ],
            [
              84.02140981285518,
              25.92361053673841
            ],
            [
              84.02011681286955,
              25.924038399976432
            ],
            [
              84.0181597342084,
              25.924736495671986
            ],
            [
              84.01680191718174,
              25.92505591977569
            ],
            [
              84.01622761793239,
              25.925348875792654
            ],
            [
              84.01551378965814,
              25.925497240002173
            ],
            [
              84.01480994256508,
              25.925577968945905
            ],
            [
              84.01415110466094,
              25.92562706893413
            ],
            [
              84.01292340231497,
              25.92557650581862
            ],
            [
              84.01248423304057,
              25.925490438192462
            ],
            [
              84.01217973560027,
              25.925575871608256
            ],
            [
              84.01150589672923,
              25.925620561211517
            ],
            [
              84.01066235532124,
              25.925651483999477
            ],
            [
              84.00952432909516,
              25.925795001985392
            ],
            [
              84.00868069605902,
              25.925884546630176
            ],
            [
              84.00835113113071,
              25.92602418637302
            ],
            [
              84.00817174385669,
              25.925780289947667
            ],
            [
              84.00777277598786,
              25.925418984830742
            ],
            [
              84.00754324475467,
              25.925396172615653
            ],
            [
              84.00667467897782,
              25.925485795930868
            ],
            [
              84.00634009606037,
              25.925702138376714
            ],
            [
              84.00607062842458,
              25.925652278175736
            ],
            [
              84.00556649029387,
              25.925665425306534
            ],
            [
              84.00522234930179,
              25.925471048306424
            ],
            [
              84.00520785498468,
              25.92499713183837
            ],
            [
              84.00517407383843,
              25.923819137065763
            ],
            [
              84.00531445985607,
              25.923191949380364
            ],
            [
              84.00588840876244,
              25.92322404026055
            ],
            [
              84.00653741460577,
              25.92308916801706
            ],
            [
              84.00679238433116,
              25.92262001119206
            ],
            [
              84.00689786990174,
              25.921961133918686
            ],
            [
              84.00695337770145,
              25.921324805005288
            ],
            [
              84.00650963420561,
              25.9208596291678
            ],
            [
              84.00587634887978,
              25.920380639643753
            ],
            [
              84.00564235032469,
              25.919739604770477
            ],
            [
              84.0055333316801,
              25.919017396734013
            ],
            [
              84.00553382665183,
              25.918489342837834
            ],
            [
              84.00527504267971,
              25.917807616674914
            ],
            [
              84.00536108601257,
              25.916598186982128
            ],
            [
              84.00498733475212,
              25.916069812795996
            ],
            [
              84.00474339094848,
              25.91544228412213
            ],
            [
              84.00388671617104,
              25.913825871259558
            ],
            [
              84.0033040940306,
              25.91257066791301
            ],
            [
              84.00258532412401,
              25.912682929818175
            ],
            [
              84.00197123310083,
              25.91296222263745
            ],
            [
              84.00137706671067,
              25.913250575659806
            ],
            [
              84.00094111609991,
              25.91364770570268
            ],
            [
              84.00082762384523,
              25.91375103826791
            ],
            [
              84.00027329863623,
              25.914102608123894
            ],
            [
              83.99980368994842,
              25.914562541739784
            ],
            [
              83.99946875309473,
              25.915036137371533
            ],
            [
              83.99781141888772,
              25.915143201600586
            ],
            [
              83.99665806919947,
              25.914643190909178
            ],
            [
              83.99600361237901,
              25.913899072061298
            ],
            [
              83.99555379896681,
              25.91329015774821
            ],
            [
              83.99506415425486,
              25.912699383113367
            ],
            [
              83.99446487555242,
              25.912325231074185
            ],
            [
              83.99379564773373,
              25.91184288112925
            ],
            [
              83.99260262664595,
              25.91145568673982
            ],
            [
              83.99181433162794,
              25.911690992988227
            ],
            [
              83.99127061013256,
              25.91193972376626
            ],
            [
              83.99116647832312,
              25.911911223820454
            ],
            [
              83.99043202742494,
              25.911710210611343
            ],
            [
              83.98943850599207,
              25.911336382677497
            ],
            [
              83.98798097507053,
              25.910899783983588
            ],
            [
              83.98730214066822,
              25.910746791690368
            ],
            [
              83.98708241005475,
              25.910629633803346
            ],
            [
              83.98661288131701,
              25.910192210740114
            ],
            [
              83.98552984905427,
              25.910089227352206
            ],
            [
              83.9841474702911,
              25.910004569723412
            ],
            [
              83.98325934100397,
              25.910136076999407
            ],
            [
              83.98251582520625,
              25.91020884133844
            ],
            [
              83.98077930540525,
              25.91031397717618
            ],
            [
              83.97894311662516,
              25.910685339062095
            ],
            [
              83.97660789034855,
              25.91095777417113
            ],
            [
              83.97550499902984,
              25.910958591070706
            ],
            [
              83.97464177373735,
              25.911076525937187
            ],
            [
              83.97366859016249,
              25.911095190173256
            ],
            [
              83.97075461078936,
              25.91162068590464
            ],
            [
              83.97057009683,
              25.911774220852156
            ],
            [
              83.97059028377107,
              25.91199092378196
            ],
            [
              83.97066524009668,
              25.91216232723939
            ],
            [
              83.97095002041479,
              25.9125187223643
            ],
            [
              83.97111505440722,
              25.91297444602618
            ],
            [
              83.97081597919801,
              25.913344712781274
            ],
            [
              83.97010756057841,
              25.913737838096885
            ],
            [
              83.96991956385071,
              25.913737955255783
            ],
            [
              83.96954862162208,
              25.91373818472562
            ],
            [
              83.96872549442895,
              25.91409529339111
            ],
            [
              83.96810699537271,
              25.914483817140965
            ],
            [
              83.96752804913837,
              25.914466073738843
            ],
            [
              83.96720371599832,
              25.914515936247145
            ],
            [
              83.96643530788404,
              25.914692435233388
            ],
            [
              83.96550234637606,
              25.915013480704033
            ],
            [
              83.96478378577693,
              25.915176367672522
            ],
            [
              83.96474526691584,
              25.914919529943134
            ],
            [
              83.96469851230025,
              25.91460779222079
            ],
            [
              83.96410081642932,
              25.91341174161087
            ],
            [
              83.96409875479576,
              25.91340765315799
            ],
            [
              83.96370419855332,
              25.912970097382885
            ],
            [
              83.96288059076147,
              25.912713364736074
            ],
            [
              83.96215197082778,
              25.91278150977109
            ],
            [
              83.96067491592186,
              25.912886172252435
            ],
            [
              83.95945727380875,
              25.912918508337224
            ],
            [
              83.95730146984047,
              25.913032565281135
            ],
            [
              83.9570828243919,
              25.914463375060887
            ],
            [
              83.95704894892252,
              25.915984290885135
            ],
            [
              83.95704963793034,
              25.916950149910623
            ],
            [
              83.95703019030277,
              25.91772645499617
            ],
            [
              83.95638820299676,
              25.91781915602346
            ],
            [
              83.95637148624765,
              25.917821604963624
            ],
            [
              83.95698626807525,
              25.919107445036033
            ],
            [
              83.95712952510857,
              25.91931353413083
            ],
            [
              83.95782048497058,
              25.92030753901165
            ],
            [
              83.95825012491647,
              25.920812786204873
            ],
            [
              83.95878977704363,
              25.921710549864724
            ],
            [
              83.9589997348851,
              25.92223398814757
            ],
            [
              83.9590350925747,
              25.922811654818375
            ],
            [
              83.95890581781876,
              25.923538377726242
            ],
            [
              83.95859688539592,
              25.92428770579978
            ],
            [
              83.95807343169,
              25.9250778263843
            ],
            [
              83.95751465982033,
              25.925497918648073
            ],
            [
              83.95648671674239,
              25.925769224813614
            ],
            [
              83.95613229363356,
              25.925719779906924
            ],
            [
              83.95553344522413,
              25.925796836748454
            ],
            [
              83.95628321599118,
              25.92734450536687
            ],
            [
              83.95682321396973,
              25.92874774672897
            ],
            [
              83.95710780743825,
              25.928986817962123
            ],
            [
              83.95828633331064,
              25.929816624154753
            ],
            [
              83.95882578241853,
              25.930339785690443
            ],
            [
              83.95887766821102,
              25.931601623922415
            ],
            [
              83.95888164235784,
              25.931698254824152
            ],
            [
              83.95915735418315,
              25.9334131291178
            ],
            [
              83.95953174594241,
              25.93342644018569
            ],
            [
              83.9598120733117,
              25.934595214266196
            ],
            [
              83.96000222689439,
              25.935240457997466
            ],
            [
              83.96050655187469,
              25.935592206921925
            ],
            [
              83.96118643101771,
              25.93699987877546
            ],
            [
              83.96126175475426,
              25.937559497254465
            ],
            [
              83.96176722598487,
              25.93947275305479
            ],
            [
              83.96206814902862,
              25.94133202622866
            ],
            [
              83.96189846176303,
              25.941368278008742
            ],
            [
              83.96128448123262,
              25.941350571773814
            ],
            [
              83.96044084999312,
              25.94133299397691
            ],
            [
              83.95986175643509,
              25.941252084378043
            ],
            [
              83.95956722580289,
              25.9412838682213
            ],
            [
              83.95959741278972,
              25.9415050066624
            ],
            [
              83.95959906838476,
              25.941513565324744
            ],
            [
              83.95967248859127,
              25.94189306766356
            ],
            [
              83.95986263678408,
              25.94245262008209
            ],
            [
              83.96007275811893,
              25.943133983961033
            ],
            [
              83.96081663144614,
              25.943210244241502
            ],
            [
              83.96158031621862,
              25.94324595987862
            ],
            [
              83.96274339466139,
              25.94326323204538
            ],
            [
              83.96339772661601,
              25.94370061719929
            ],
            [
              83.9639273167137,
              25.944417934705378
            ],
            [
              83.96409747739142,
              25.94492331762395
            ],
            [
              83.96407779620188,
              25.9453114877202
            ],
            [
              83.9642060558615,
              25.945850886136657
            ],
            [
              83.96428805497894,
              25.946195878691473
            ],
            [
              83.96427370798554,
              25.946945073169523
            ],
            [
              83.9643158973629,
              25.94705766663378
            ],
            [
              83.96432599442666,
              25.94708457728699
            ],
            [
              83.964493737738,
              25.94753165187744
            ],
            [
              83.96460390442947,
              25.94790169939999
            ],
            [
              83.96512839119801,
              25.9484249389383
            ],
            [
              83.96608268679569,
              25.949457809380025
            ],
            [
              83.96698190578498,
              25.95034637915706
            ],
            [
              83.96793624090851,
              25.951356685644775
            ],
            [
              83.96842076073175,
              25.951798649651405
            ],
            [
              83.96879555942783,
              25.952290346249093
            ],
            [
              83.96876092667871,
              25.95267852679056
            ],
            [
              83.96872182301439,
              25.953730143402865
            ],
            [
              83.96891235119458,
              25.954777015011057
            ],
            [
              83.9690775208326,
              25.95521919395008
            ],
            [
              83.96911260004445,
              25.9554268587148
            ],
            [
              83.96919266598742,
              25.95565694015868
            ],
            [
              83.96969745270174,
              25.956333634235254
            ],
            [
              83.97005238335872,
              25.957010368844635
            ],
            [
              83.97039241815163,
              25.957718684316344
            ],
            [
              83.97018827420668,
              25.958319096709886
            ],
            [
              83.96942474214778,
              25.958725753332455
            ],
            [
              83.96850649504414,
              25.95923178882213
            ],
            [
              83.9679277239813,
              25.959624803845685
            ],
            [
              83.96766358784676,
              25.96024781571988
            ],
            [
              83.96770412522228,
              25.960924736201026
            ],
            [
              83.96744049843248,
              25.962211235734657
            ],
            [
              83.9673110503017,
              25.96273933110197
            ],
            [
              83.96658237916405,
              25.963024146731502
            ],
            [
              83.96596337974617,
              25.963110217621455
            ],
            [
              83.96521453514215,
              25.96322803083083
            ],
            [
              83.96392668429971,
              25.963499632105638
            ],
            [
              83.96327285360499,
              25.963739269221733
            ],
            [
              83.96229958738515,
              25.964164106623326
            ],
            [
              83.96218448894274,
              25.964234589110927
            ],
            [
              83.96142124883632,
              25.96470166364677
            ],
            [
              83.96046781921457,
              25.964923409867573
            ],
            [
              83.95965438304671,
              25.96538420389742
            ],
            [
              83.95965236902384,
              25.965390178804636
            ],
            [
              83.95923582381984,
              25.966625563909425
            ],
            [
              83.95886218305215,
              25.96769090985176
            ],
            [
              83.95852808881821,
              25.968331968854006
            ],
            [
              83.95820886080391,
              25.968806062255105
            ],
            [
              83.957704864607,
              25.969248585017247
            ],
            [
              83.95656205575033,
              25.970061667867192
            ],
            [
              83.95607798508475,
              25.970346201684016
            ],
            [
              83.95586340002124,
              25.970531398087438
            ],
            [
              83.9557206119085,
              25.97066676436307
            ],
            [
              83.95565381498065,
              25.970730087605865
            ],
            [
              83.95551913595997,
              25.97082940801119
            ],
            [
              83.95419154814094,
              25.971660599946873
            ],
            [
              83.95310862906592,
              25.972541254887208
            ],
            [
              83.95260465083534,
              25.9729296399772
            ],
            [
              83.95256977104947,
              25.973150861102535
            ],
            [
              83.9526048897872,
              25.973353924106224
            ],
            [
              83.95299951699657,
              25.97367414263424
            ],
            [
              83.95357892406662,
              25.973931046880818
            ],
            [
              83.95421317597969,
              25.97414734878006
            ],
            [
              83.95468268675116,
              25.974472014890594
            ],
            [
              83.95537214732498,
              25.97501327436826
            ],
            [
              83.95595658136737,
              25.975297284207052
            ],
            [
              83.95638598236137,
              25.975418825872513
            ],
            [
              83.9573895397726,
              25.975309960634824
            ],
            [
              83.9580236578367,
              25.97521028868195
            ],
            [
              83.9586628334159,
              25.975345363692874
            ],
            [
              83.95937195900957,
              25.975480314990637
            ],
            [
              83.96004597125548,
              25.97542582426787
            ],
            [
              83.96027063990802,
              25.97540759823596
            ],
            [
              83.96071991702603,
              25.97520879467606
            ],
            [
              83.96095941506728,
              25.975055172008222
            ],
            [
              83.96159828791421,
              25.974666643728465
            ],
            [
              83.96191797676427,
              25.974865049263748
            ],
            [
              83.96204803485111,
              25.97518994597339
            ],
            [
              83.96221819642716,
              25.975762967796673
            ],
            [
              83.96233861469267,
              25.976448895387446
            ],
            [
              83.9623777300351,
              25.976597220248358
            ],
            [
              83.96240102963861,
              25.976685577909805
            ],
            [
              83.96245879939622,
              25.97690464305539
            ],
            [
              83.96240477291842,
              25.978123295104098
            ],
            [
              83.96228041823532,
              25.978786727651226
            ],
            [
              83.96233124132084,
              25.9800730278052
            ],
            [
              83.96231170835328,
              25.980682255813843
            ],
            [
              83.96244702158454,
              25.98132307119477
            ],
            [
              83.96255725295474,
              25.981864572888746
            ],
            [
              83.96319173663316,
              25.98218465034321
            ],
            [
              83.9639058478767,
              25.982337678243507
            ],
            [
              83.96448533310019,
              25.9826441468966
            ],
            [
              83.96482023402125,
              25.983081728076133
            ],
            [
              83.9651752572047,
              25.98379914065781
            ],
            [
              83.96535049965202,
              25.984403778865243
            ],
            [
              83.96547178928334,
              25.986267649883423
            ],
            [
              83.96551224221723,
              25.986899461177888
            ],
            [
              83.96560236390148,
              25.98721984711143
            ],
            [
              83.96588834796206,
              25.98897975699314
            ],
            [
              83.96612883684509,
              25.98995897601902
            ],
            [
              83.96624417603599,
              25.99065394998212
            ],
            [
              83.96630848193561,
              25.991230537275545
            ],
            [
              83.96630960303308,
              25.991240578856285
            ],
            [
              83.96629686402405,
              25.991235143031272
            ],
            [
              83.96557021499409,
              25.99092511729418
            ],
            [
              83.96514059211619,
              25.99065459999116
            ],
            [
              83.96469098172321,
              25.990451776808168
            ],
            [
              83.96401660206641,
              25.990163369770347
            ],
            [
              83.96379188670144,
              25.990131901929768
            ],
            [
              83.96306289576356,
              25.990267784221693
            ],
            [
              83.96204934369645,
              25.990471456368912
            ],
            [
              83.96137530539943,
              25.99063888188326
            ],
            [
              83.9604416072729,
              25.990928315654244
            ],
            [
              83.95957789509355,
              25.991149884036616
            ],
            [
              83.95950179790749,
              25.99117528595723
            ],
            [
              83.95904863288094,
              25.991326231018185
            ],
            [
              83.95818510126297,
              25.99183217792722
            ],
            [
              83.95773620862388,
              25.992644838963166
            ],
            [
              83.95749181656097,
              25.993136900171777
            ],
            [
              83.95732735030383,
              25.993579257080963
            ],
            [
              83.956898536808,
              25.994455092961786
            ],
            [
              83.95670879465366,
              25.994608638603133
            ],
            [
              83.95614969040736,
              25.99479852594431
            ],
            [
              83.95560527631088,
              25.994812341983877
            ],
            [
              83.95467649017232,
              25.994894073865286
            ],
            [
              83.95263427637508,
              25.99536905088652
            ],
            [
              83.95142113212661,
              25.99592938008277
            ],
            [
              83.94979374325959,
              25.996941136000242
            ],
            [
              83.94889510278533,
              25.997483165652024
            ],
            [
              83.94869547017971,
              25.997672844878625
            ],
            [
              83.94870129216108,
              25.99779673559668
            ],
            [
              83.94870565258348,
              25.99788951406855
            ],
            [
              83.94840249363297,
              26.000290658380123
            ],
            [
              83.9485271968624,
              26.000682881387092
            ],
            [
              83.94890243393637,
              26.00492943329408
            ],
            [
              83.95057330755134,
              26.009069792699552
            ],
            [
              83.94930479204707,
              26.009356683973238
            ],
            [
              83.9498982460732,
              26.01077029838657
            ],
            [
              83.95042972892116,
              26.013107568984918
            ],
            [
              83.95088355061617,
              26.0162302869219
            ],
            [
              83.95118581574296,
              26.01736265664356
            ],
            [
              83.95192230312193,
              26.02012165496608
            ],
            [
              83.95333187388873,
              26.01964388238818
            ],
            [
              83.95732776712211,
              26.02499844587785
            ],
            [
              83.95806607628445,
              26.02657181738699
            ],
            [
              83.95807908658472,
              26.026599542890526
            ],
            [
              83.95811040724539,
              26.026666287652407
            ],
            [
              83.95740755907889,
              26.027564703081794
            ],
            [
              83.95676179166216,
              26.030296160710662
            ],
            [
              83.95673762967597,
              26.030287418012822
            ],
            [
              83.95429832369224,
              26.029404732317964
            ],
            [
              83.95235118399141,
              26.029006359138513
            ],
            [
              83.95195709577118,
              26.029830932205666
            ],
            [
              83.95182661996776,
              26.030861603057275
            ],
            [
              83.95158321784825,
              26.03110205691071
            ],
            [
              83.94946338961046,
              26.033196161017543
            ],
            [
              83.94714241241087,
              26.033187300688677
            ],
            [
              83.9469460766224,
              26.033186550018545
            ],
            [
              83.94513775807398,
              26.02985691904798
            ],
            [
              83.94477811934661,
              26.029614752999684
            ],
            [
              83.94356230530514,
              26.028796059690052
            ],
            [
              83.94014136439634,
              26.02844225830386
            ],
            [
              83.93854544980192,
              26.02672152873191
            ],
            [
              83.93660694470759,
              26.02442226087796
            ],
            [
              83.93471848116448,
              26.023736149186405
            ],
            [
              83.93423621162104,
              26.023824570689285
            ],
            [
              83.932861657184,
              26.024076581616693
            ],
            [
              83.92986043971867,
              26.026793876312077
            ],
            [
              83.92506774082833,
              26.031977764674348
            ],
            [
              83.92316426464019,
              26.034163109698845
            ],
            [
              83.92310737972316,
              26.034228418246943
            ],
            [
              83.9259717891606,
              26.040730906391126
            ],
            [
              83.92655585758864,
              26.043871412122865
            ],
            [
              83.9279427063687,
              26.049339778350273
            ],
            [
              83.92790134883133,
              26.049361536713267
            ],
            [
              83.92706377044018,
              26.0498021903109
            ],
            [
              83.92345757356361,
              26.051360573921777
            ],
            [
              83.92316435087848,
              26.051826541009014
            ],
            [
              83.92315827916545,
              26.051836190832464
            ],
            [
              83.92190936669728,
              26.053820939332052
            ],
            [
              83.92093351332943,
              26.05641368307775
            ],
            [
              83.92066994133685,
              26.058401448892443
            ],
            [
              83.92129895607185,
              26.06036686381557
            ],
            [
              83.92142030589034,
              26.060479218680126
            ],
            [
              83.92430845780072,
              26.063152850639646
            ],
            [
              83.92702485991366,
              26.064331857374484
            ],
            [
              83.93022140615605,
              26.065423709718356
            ],
            [
              83.93022593636002,
              26.065425256641966
            ],
            [
              83.9333690391312,
              26.069895435965147
            ],
            [
              83.93351257913383,
              26.069940407190494
            ],
            [
              83.93640346910922,
              26.070846123604877
            ],
            [
              83.93756247998037,
              26.071257600038322
            ],
            [
              83.94026319211854,
              26.07221626980556
            ],
            [
              83.94106628328758,
              26.07692713232339
            ],
            [
              83.93885740325905,
              26.079037477893493
            ],
            [
              83.93958897326013,
              26.084302117905345
            ],
            [
              83.93824330325273,
              26.085436667734186
            ],
            [
              83.93364461441259,
              26.089074719969535
            ],
            [
              83.93405326432357,
              26.09177934369965
            ],
            [
              83.93844269241488,
              26.09741554259972
            ],
            [
              83.93853669212622,
              26.097536237371248
            ],
            [
              83.94174551923685,
              26.098849331321006
            ],
            [
              83.94324173700441,
              26.102159352764705
            ],
            [
              83.94575632989381,
              26.10772184077915
            ],
            [
              83.94584486335661,
              26.107917552938147
            ],
            [
              83.94351125674248,
              26.108636937364356
            ],
            [
              83.94413859701777,
              26.110528803253338
            ],
            [
              83.94609736091837,
              26.11605574301473
            ],
            [
              83.94509888168344,
              26.117915356778486
            ],
            [
              83.94437734676242,
              26.1182270696645
            ],
            [
              83.94431152091333,
              26.123661638377392
            ],
            [
              83.94727997143033,
              26.12471772917275
            ],
            [
              83.94761496397959,
              26.124803306402516
            ],
            [
              83.95012560068845,
              26.126246243230888
            ],
            [
              83.95113063403168,
              26.126471294942185
            ],
            [
              83.95291050563002,
              26.1265109769797
            ],
            [
              83.95374054715592,
              26.126668479879157
            ],
            [
              83.9549010375523,
              26.12763369214138
            ],
            [
              83.95654698112153,
              26.12908592211745
            ],
            [
              83.95900302271906,
              26.130894339241515
            ],
            [
              83.96074357056577,
              26.131728192995592
            ],
            [
              83.96210865316648,
              26.131894344130213
            ],
            [
              83.96332850423686,
              26.13183944218958
            ],
            [
              83.96505279796685,
              26.130989956073158
            ],
            [
              83.9672611138534,
              26.12898021184413
            ],
            [
              83.9685894814101,
              26.127124500326328
            ],
            [
              83.97035762280743,
              26.124929971943637
            ],
            [
              83.97273610655823,
              26.12341652315558
            ],
            [
              83.97418913961515,
              26.1213756418785
            ],
            [
              83.97531656302591,
              26.118468412084987
            ],
            [
              83.97559010631814,
              26.116875079913076
            ],
            [
              83.97594935338005,
              26.11600832534514
            ],
            [
              83.97731842090735,
              26.115312402064284
            ],
            [
              83.97948716959888,
              26.11429091064009
            ]
          ]
        ]
      }
    }
  ]
}