{
  "type": "FeatureCollection",
  "features": [
    {
      "type": "Feature",
      "properties": {
        "objectid": "09-159-00830",
        "stcode11": "09",
        "dtcode11": "159",
        "sdtcode11": "00830",
        "stname": "UTTAR PRADESH",
        "dtname": "Farrukhabad",
        "sdtname": "Kaimganj",
        "st_area_sh": 0.0,
        "st_length_": 0.0,
        "remarks": "",
        "dist_lgd": 141,
        "state_lgd": 9,
        "subdt_lgd": 830,
        "ac_no": 192,
        "st_length(shape)": 225086.8580222651,
        "st_area(shape)": 1202416795.2618096
      },
      "geometry": {
        "type": "Polygon",
        "coordinates": [
          [
            [
              79.20607214485008,
              27.706254543129422
            ],
            [
              79.2137777783729,
              27.70299499969983
            ],
            [
              79.2192146061529,
              27.700848951880648
            ],
            [
              79.22022148194078,
              27.70013470832596
            ],
            [
              79.21958798191758,
              27.699015717835643
            ],
            [
              79.21914641324304,
              27.69839361439216
            ],
            [
              79.22272635865207,
              27.6958074368328
            ],
            [
              79.22745262083895,
              27.692408457281278
            ],
            [
              79.22957165855928,
              27.69646091321007
            ],
            [
              79.2308853727971,
              27.696390970707096
            ],
            [
              79.23107012840329,
              27.696381131745625
            ],
            [
              79.2303205220279,
              27.70056828932091
            ],
            [
              79.23005264710513,
              27.70339393316595
            ],
            [
              79.23014145365579,
              27.704795390652283
            ],
            [
              79.23202264443837,
              27.70678836577743
            ],
            [
              79.2351309599502,
              27.708489590164326
            ],
            [
              79.24165879882925,
              27.699204870131418
            ],
            [
              79.24333213203151,
              27.696824558621277
            ],
            [
              79.24865240430171,
              27.697453473903824
            ],
            [
              79.25119031116763,
              27.697772888180342
            ],
            [
              79.25235023742206,
              27.69762471933858
            ],
            [
              79.25338976158066,
              27.696970755995228
            ],
            [
              79.25637490189735,
              27.695350947005963
            ],
            [
              79.25823125695723,
              27.694173798371466
            ],
            [
              79.2568772496857,
              27.689643509713342
            ],
            [
              79.25610183381391,
              27.687356029316447
            ],
            [
              79.25756861019634,
              27.6868392282969
            ],
            [
              79.2619646939056,
              27.685629920214385
            ],
            [
              79.2655708925788,
              27.684548711687675
            ],
            [
              79.2674258471652,
              27.683569080371374
            ],
            [
              79.26923222714919,
              27.6824574056394
            ],
            [
              79.27094020388034,
              27.681301354629227
            ],
            [
              79.27274295556894,
              27.680804510366627
            ],
            [
              79.27354337874159,
              27.680618161365285
            ],
            [
              79.27573503357456,
              27.681089346817565
            ],
            [
              79.27777636342955,
              27.681977148708224
            ],
            [
              79.27883473064954,
              27.682289371677925
            ],
            [
              79.28056551021588,
              27.681440811059
            ],
            [
              79.28331083808095,
              27.679937945394926
            ],
            [
              79.2851590373364,
              27.678351261357513
            ],
            [
              79.29227231726928,
              27.671729059384564
            ],
            [
              79.29380943533172,
              27.670220587318163
            ],
            [
              79.29822876923718,
              27.66907629766451
            ],
            [
              79.29960537632466,
              27.669785185650856
            ],
            [
              79.29935527816305,
              27.67042092838638
            ],
            [
              79.29757055027233,
              27.672147951687325
            ],
            [
              79.29461783015421,
              27.675516877870272
            ],
            [
              79.29258269328479,
              27.677901510616945
            ],
            [
              79.29039666370214,
              27.680812522667303
            ],
            [
              79.2895056472297,
              27.681934612048064
            ],
            [
              79.28944936957376,
              27.68316413376544
            ],
            [
              79.28981176523077,
              27.684483424631466
            ],
            [
              79.29032422355763,
              27.68543004693245
            ],
            [
              79.2908398152082,
              27.685805696875523
            ],
            [
              79.29157854657872,
              27.685984698863308
            ],
            [
              79.29259100988767,
              27.685703687852463
            ],
            [
              79.29381483690153,
              27.685299810318522
            ],
            [
              79.29764414026037,
              27.68395527761583
            ],
            [
              79.30023476565711,
              27.683637309666132
            ],
            [
              79.30260344519489,
              27.68334027236338
            ],
            [
              79.30309898195677,
              27.6829852790922
            ],
            [
              79.30231384900858,
              27.682301082905568
            ],
            [
              79.30204458439204,
              27.6815025170139
            ],
            [
              79.303115063597,
              27.679662474672355
            ],
            [
              79.30457673844691,
              27.678395223394077
            ],
            [
              79.30628299939589,
              27.677480326982856
            ],
            [
              79.30820931794509,
              27.67689581536596
            ],
            [
              79.30848174103812,
              27.676677407695013
            ],
            [
              79.30730918087755,
              27.6746958096596
            ],
            [
              79.30572678233492,
              27.672866056997048
            ],
            [
              79.30899166701421,
              27.670947761317137
            ],
            [
              79.3111895543586,
              27.670276591330865
            ],
            [
              79.31471950313218,
              27.669435372936693
            ],
            [
              79.31771103136887,
              27.66866872120928
            ],
            [
              79.31929129281944,
              27.6682142819523
            ],
            [
              79.32087154169363,
              27.66775991797848
            ],
            [
              79.32353999712659,
              27.66665130138436
            ],
            [
              79.3301830359577,
              27.664505403290924
            ],
            [
              79.33334206675718,
              27.66383798569097
            ],
            [
              79.33448595089727,
              27.663777038334054
            ],
            [
              79.33734898860727,
              27.663130244617758
            ],
            [
              79.34144626839851,
              27.66215900060275
            ],
            [
              79.3448030902573,
              27.661360377392988
            ],
            [
              79.34595063593045,
              27.661145429962442
            ],
            [
              79.34990544291765,
              27.65909740861428
            ],
            [
              79.35199471136777,
              27.657804435112187
            ],
            [
              79.34967471333185,
              27.653600327954805
            ],
            [
              79.34935956816052,
              27.653090114036907
            ],
            [
              79.34758376772712,
              27.653280456670007
            ],
            [
              79.3455832393523,
              27.65401890700829
            ],
            [
              79.34675716405377,
              27.65108091531495
            ],
            [
              79.34678752980533,
              27.64998292678773
            ],
            [
              79.34836813441238,
              27.649396481688107
            ],
            [
              79.35009753506475,
              27.6486349293452
            ],
            [
              79.35116136314333,
              27.64787072187796
            ],
            [
              79.35219950838795,
              27.647303963359303
            ],
            [
              79.3532093629893,
              27.647461753379044
            ],
            [
              79.35402056055551,
              27.647882416900735
            ],
            [
              79.35500475657742,
              27.648237743832702
            ],
            [
              79.35608858205252,
              27.648373956056478
            ],
            [
              79.35788895140898,
              27.648183616819523
            ],
            [
              79.35915921323817,
              27.647863811652325
            ],
            [
              79.35971546802844,
              27.64753660830804
            ],
            [
              79.36027172012369,
              27.647209403984885
            ],
            [
              79.36197603442345,
              27.646513564760284
            ],
            [
              79.36520983559731,
              27.645560247212668
            ],
            [
              79.3685678288592,
              27.644409704113013
            ],
            [
              79.36959729458152,
              27.643968625270876
            ],
            [
              79.37273479096703,
              27.642531652265998
            ],
            [
              79.37441596376675,
              27.641506128387885
            ],
            [
              79.3752966603932,
              27.642827244740914
            ],
            [
              79.37566137100868,
              27.643839002915882
            ],
            [
              79.37619590633193,
              27.645400395022484
            ],
            [
              79.37663360506426,
              27.64658804474349
            ],
            [
              79.3790980477063,
              27.646685536996916
            ],
            [
              79.38088300915896,
              27.64684637165135
            ],
            [
              79.38433529228803,
              27.646552427694047
            ],
            [
              79.38615938615114,
              27.646515609843142
            ],
            [
              79.38722125680073,
              27.646124415831054
            ],
            [
              79.38852972936886,
              27.645690173894913
            ],
            [
              79.38957375318867,
              27.646551939898195
            ],
            [
              79.38982274462586,
              27.646757463300272
            ],
            [
              79.39051038521292,
              27.647265176288474
            ],
            [
              79.39102856670645,
              27.647157414636112
            ],
            [
              79.39243648636979,
              27.64654791100668
            ],
            [
              79.3968861213481,
              27.643863623289075
            ],
            [
              79.40207722666023,
              27.64072083986804
            ],
            [
              79.40280183831109,
              27.640377329178662
            ],
            [
              79.40352653889522,
              27.640033779212374
            ],
            [
              79.40948367897262,
              27.636388460651222
            ],
            [
              79.41469860221618,
              27.633289227808707
            ],
            [
              79.41732572885783,
              27.631680923609572
            ],
            [
              79.42009358557192,
              27.630043973044373
            ],
            [
              79.42320833391949,
              27.62799087494428
            ],
            [
              79.424961933389,
              27.627162718960143
            ],
            [
              79.4254280970377,
              27.627625585372215
            ],
            [
              79.42586916175735,
              27.628165326029837
            ],
            [
              79.4263103360715,
              27.628704977275092
            ],
            [
              79.4271664449103,
              27.630135586613658
            ],
            [
              79.42858874660133,
              27.6317000393686
            ],
            [
              79.43010596159031,
              27.633537236931016
            ],
            [
              79.43172363338093,
              27.63551962161227
            ],
            [
              79.43456554720701,
              27.639329168349246
            ],
            [
              79.43570389682667,
              27.640804531127856
            ],
            [
              79.43666125118786,
              27.641664509287313
            ],
            [
              79.4383335378528,
              27.642504973702728
            ],
            [
              79.44018093760764,
              27.642775028103802
            ],
            [
              79.44252288957078,
              27.642695488343445
            ],
            [
              79.44402774194485,
              27.642393276993314
            ],
            [
              79.44508958744161,
              27.64193583981548
            ],
            [
              79.44678818216795,
              27.64096251275936
            ],
            [
              79.44847065932143,
              27.63949699062567
            ],
            [
              79.45074830358837,
              27.637198897934486
            ],
            [
              79.45203756658243,
              27.635446412996686
            ],
            [
              79.45312588183734,
              27.63454979169672
            ],
            [
              79.45360673383925,
              27.634819924624804
            ],
            [
              79.45498231594901,
              27.63587880470192
            ],
            [
              79.45581538928897,
              27.637023703625786
            ],
            [
              79.46010949624718,
              27.63572076479706
            ],
            [
              79.46223248475816,
              27.634937366249687
            ],
            [
              79.46462787120936,
              27.633825403010224
            ],
            [
              79.46620148872012,
              27.632700019153468
            ],
            [
              79.46630892363481,
              27.632623188315883
            ],
            [
              79.46715223866734,
              27.63137413905611
            ],
            [
              79.46905423712685,
              27.62897557270948
            ],
            [
              79.4732062306071,
              27.62620018980156
            ],
            [
              79.47550261822242,
              27.624753481888362
            ],
            [
              79.47530981820287,
              27.623141259704653
            ],
            [
              79.4753441904406,
              27.620813361909505
            ],
            [
              79.47643982696508,
              27.618115603334783
            ],
            [
              79.47765542541092,
              27.616164963672023
            ],
            [
              79.48125310536028,
              27.613211876827474
            ],
            [
              79.48174271503791,
              27.612760248670035
            ],
            [
              79.48175417664261,
              27.612749676230557
            ],
            [
              79.482594528133,
              27.611974543771723
            ],
            [
              79.47681504607273,
              27.60334626060989
            ],
            [
              79.47456596913017,
              27.599077992087697
            ],
            [
              79.47509235763214,
              27.59891504923784
            ],
            [
              79.47919002459732,
              27.597083743206394
            ],
            [
              79.48146237958379,
              27.596296305793977
            ],
            [
              79.48242677943179,
              27.595962101685878
            ],
            [
              79.48556931536605,
              27.595223898940993
            ],
            [
              79.48666866911918,
              27.594965638104334
            ],
            [
              79.48633107864214,
              27.593163590313484
            ],
            [
              79.49383874503592,
              27.588795203225015
            ],
            [
              79.49392579358359,
              27.591650634670387
            ],
            [
              79.49915552914784,
              27.589998129103716
            ],
            [
              79.50332168456859,
              27.589063155243874
            ],
            [
              79.5069777190788,
              27.591586491961447
            ],
            [
              79.50763043406592,
              27.591237371883913
            ],
            [
              79.50829295775763,
              27.592252382946462
            ],
            [
              79.510029227827,
              27.593743302009827
            ],
            [
              79.51074635112167,
              27.59424859620845
            ],
            [
              79.51095762858829,
              27.5944517840313
            ],
            [
              79.51175270768334,
              27.596466539385855
            ],
            [
              79.51196372733347,
              27.596737235170913
            ],
            [
              79.51276570099832,
              27.596982840020285
            ],
            [
              79.5132649370225,
              27.597159906361668
            ],
            [
              79.5143519452287,
              27.598135590000105
            ],
            [
              79.51608581769455,
              27.60028821512386
            ],
            [
              79.51744038371821,
              27.60194466934341
            ],
            [
              79.51813180172104,
              27.60336477869355
            ],
            [
              79.51840486980446,
              27.603271095244622
            ],
            [
              79.51887222282264,
              27.603866703385336
            ],
            [
              79.51875030167564,
              27.604041952343074
            ],
            [
              79.5192793689538,
              27.604354199605208
            ],
            [
              79.51891663014038,
              27.602583032146953
            ],
            [
              79.51837956156797,
              27.60040718087676
            ],
            [
              79.51884949095435,
              27.600327503658054
            ],
            [
              79.51888111794055,
              27.59998426029479
            ],
            [
              79.52113006822066,
              27.59819491882085
            ],
            [
              79.52447960923404,
              27.596137708003035
            ],
            [
              79.52674122575962,
              27.594969515241704
            ],
            [
              79.52987465996341,
              27.593420580778663
            ],
            [
              79.53060253968532,
              27.593220116229897
            ],
            [
              79.53154343691052,
              27.592763733110004
            ],
            [
              79.53215072858531,
              27.592414471086716
            ],
            [
              79.53257500379233,
              27.592375217135032
            ],
            [
              79.53369709210868,
              27.592094886746242
            ],
            [
              79.53306200386406,
              27.591021001731804
            ],
            [
              79.53177047531881,
              27.58827702964186
            ],
            [
              79.53086485673141,
              27.586777324375934
            ],
            [
              79.52994349337207,
              27.584752530810597
            ],
            [
              79.5295853476447,
              27.583848913060173
            ],
            [
              79.52950067693759,
              27.582317370155973
            ],
            [
              79.52970646839279,
              27.580464370631727
            ],
            [
              79.5298568382865,
              27.578930213379042
            ],
            [
              79.52995532328605,
              27.576770645166395
            ],
            [
              79.53021429410772,
              27.575191794163928
            ],
            [
              79.53007214559548,
              27.57453047770306
            ],
            [
              79.52955514089498,
              27.573473163338758
            ],
            [
              79.52880010330541,
              27.57234257207278
            ],
            [
              79.52863853770828,
              27.5720519206857
            ],
            [
              79.52883767444385,
              27.571971957696228
            ],
            [
              79.52837397038239,
              27.571329335638115
            ],
            [
              79.52950297213313,
              27.57053135496459
            ],
            [
              79.528974269571,
              27.569960647060054
            ],
            [
              79.52867439216624,
              27.569721298021086
            ],
            [
              79.52840708138544,
              27.56967576818835
            ],
            [
              79.52714672258395,
              27.570456448198385
            ],
            [
              79.52663851598332,
              27.568880714693172
            ],
            [
              79.5264450592953,
              27.567017307940215
            ],
            [
              79.52635621771033,
              27.564773469286212
            ],
            [
              79.526250023369,
              27.56191183926762
            ],
            [
              79.5262041311361,
              27.560880248857973
            ],
            [
              79.5261729856469,
              27.560284009844207
            ],
            [
              79.5263094729762,
              27.559539280317818
            ],
            [
              79.52674787329273,
              27.55851235198776
            ],
            [
              79.52700374672332,
              27.55712709372889
            ],
            [
              79.52701019842367,
              27.555413250783086
            ],
            [
              79.52724763662802,
              27.554213574989006
            ],
            [
              79.52745408115841,
              27.552649408278764
            ],
            [
              79.52760926512374,
              27.551368187953276
            ],
            [
              79.52773056822981,
              27.550216567280366
            ],
            [
              79.5286497639544,
              27.550159694254283
            ],
            [
              79.53010422443427,
              27.550000057291737
            ],
            [
              79.5317755454103,
              27.549915635619293
            ],
            [
              79.53318560755557,
              27.549831620870112
            ],
            [
              79.53383795513173,
              27.54966967132044
            ],
            [
              79.53497648800766,
              27.549047105775852
            ],
            [
              79.53645075544125,
              27.548037970368593
            ],
            [
              79.53728837695151,
              27.54745923895241
            ],
            [
              79.53817613074285,
              27.546865678090363
            ],
            [
              79.53888324590693,
              27.545422173235846
            ],
            [
              79.53991787334891,
              27.544507709169537
            ],
            [
              79.54137530455745,
              27.543483592102973
            ],
            [
              79.54308441316587,
              27.54219195961818
            ],
            [
              79.54447501959872,
              27.541137855985394
            ],
            [
              79.5465087892323,
              27.539529380146995
            ],
            [
              79.54729525977196,
              27.539218671259064
            ],
            [
              79.54760051988191,
              27.53912603303953
            ],
            [
              79.54768419884897,
              27.53792319869576
            ],
            [
              79.54777334855608,
              27.536373520290656
            ],
            [
              79.54784564676677,
              27.534838761962504
            ],
            [
              79.54793714017846,
              27.532779539631616
            ],
            [
              79.54797240444324,
              27.532257972609365
            ],
            [
              79.54815982265592,
              27.53125999535358
            ],
            [
              79.54821167071918,
              27.530768328394583
            ],
            [
              79.54839758694867,
              27.53018766268882
            ],
            [
              79.5489038127641,
              27.528788155199628
            ],
            [
              79.54925835624721,
              27.527760795987234
            ],
            [
              79.54947715440939,
              27.527203186854745
            ],
            [
              79.5494951818005,
              27.526830654020518
            ],
            [
              79.54949603609833,
              27.526592187637636
            ],
            [
              79.54888047183809,
              27.525875118043178
            ],
            [
              79.5478913979642,
              27.525129513147448
            ],
            [
              79.54961135642459,
              27.52238972615151
            ],
            [
              79.55063596675285,
              27.520829632238744
            ],
            [
              79.55159165923077,
              27.51940427860864
            ],
            [
              79.55279703215375,
              27.517760901352876
            ],
            [
              79.55386754369805,
              27.51662219583879
            ],
            [
              79.55422241057461,
              27.51624471710811
            ],
            [
              79.55609860941915,
              27.514759639368318
            ],
            [
              79.55897387409848,
              27.51270640597614
            ],
            [
              79.55994734603254,
              27.512220139127233
            ],
            [
              79.56177036640887,
              27.510791608077266
            ],
            [
              79.56324428080457,
              27.509663030350612
            ],
            [
              79.56465824523144,
              27.509088843110025
            ],
            [
              79.56712565500885,
              27.507930453952905
            ],
            [
              79.56899688706818,
              27.50640990496282
            ],
            [
              79.57070841214471,
              27.504149234613887
            ],
            [
              79.5723424099173,
              27.50240221070612
            ],
            [
              79.57376808568053,
              27.50067720203243
            ],
            [
              79.57433804067715,
              27.50005278530157
            ],
            [
              79.57462342106989,
              27.49965110135886
            ],
            [
              79.57990543588876,
              27.49386515800417
            ],
            [
              79.5821002213505,
              27.491422254397587
            ],
            [
              79.58275596366013,
              27.490095909189602
            ],
            [
              79.58271147010409,
              27.489473227835177
            ],
            [
              79.58184153439645,
              27.488332916293462
            ],
            [
              79.57910904794835,
              27.48463188630343
            ],
            [
              79.57679291176986,
              27.481678952283286
            ],
            [
              79.57336581829966,
              27.477145740774425
            ],
            [
              79.57327576758233,
              27.476273968666103
            ],
            [
              79.57393039957428,
              27.475279635917698
            ],
            [
              79.57667815558554,
              27.47219830376305
            ],
            [
              79.57726073730183,
              27.47151762400831
            ],
            [
              79.58064752067025,
              27.467560357202746
            ],
            [
              79.58242304442255,
              27.465157782872545
            ],
            [
              79.58256507435718,
              27.464411096292846
            ],
            [
              79.58144975125326,
              27.46411757062473
            ],
            [
              79.58010206003647,
              27.46374046502697
            ],
            [
              79.57894266468638,
              27.46274126617202
            ],
            [
              79.57773802658532,
              27.4613268792624
            ],
            [
              79.57750736796643,
              27.46076596434635
            ],
            [
              79.57727671114421,
              27.460205048170707
            ],
            [
              79.5781169377688,
              27.459294223170033
            ],
            [
              79.58020901614914,
              27.45798627129007
            ],
            [
              79.58189045395184,
              27.455874004388757
            ],
            [
              79.58245553828303,
              27.453758675030624
            ],
            [
              79.58227851806977,
              27.451060403618445
            ],
            [
              79.58130616363991,
              27.44977112125982
            ],
            [
              79.580610437317,
              27.449188206698096
            ],
            [
              79.5791254251343,
              27.448229650645807
            ],
            [
              79.57810685956962,
              27.446857262230886
            ],
            [
              79.57671334259521,
              27.446355422236348
            ],
            [
              79.57523440482048,
              27.446513327389997
            ],
            [
              79.57285588603538,
              27.448457657870083
            ],
            [
              79.57034084039508,
              27.44952992899503
            ],
            [
              79.56871000559063,
              27.45039713516083
            ],
            [
              79.56815311479316,
              27.45006360096026
            ],
            [
              79.56509449857442,
              27.446900715987674
            ],
            [
              79.56398268159506,
              27.44565255206532
            ],
            [
              79.56310601930255,
              27.444243063319465
            ],
            [
              79.56259921856534,
              27.442871981395736
            ],
            [
              79.56232739015701,
              27.440795897340536
            ],
            [
              79.56242744630998,
              27.438762453858214
            ],
            [
              79.56080187203982,
              27.438176866905454
            ],
            [
              79.55898981560152,
              27.43771522623927
            ],
            [
              79.55694761617734,
              27.436588790703993
            ],
            [
              79.55671533879432,
              27.436525943173656
            ],
            [
              79.5564830632079,
              27.436463003123627
            ],
            [
              79.5539669395893,
              27.437867136369007
            ],
            [
              79.55145065786716,
              27.43927122464228
            ],
            [
              79.54982082019266,
              27.439889190889836
            ],
            [
              79.54909257036488,
              27.43789308015769
            ],
            [
              79.54849182561188,
              27.43681216671231
            ],
            [
              79.54723865333267,
              27.436144452283642
            ],
            [
              79.54389384913576,
              27.435221734033977
            ],
            [
              79.54101109789686,
              27.435088901681777
            ],
            [
              79.5384076885753,
              27.43487378207258
            ],
            [
              79.53799730761081,
              27.434751404927002
            ],
            [
              79.53758692844293,
              27.434629027645737
            ],
            [
              79.53591896536948,
              27.432963854913993
            ],
            [
              79.53263186984476,
              27.429052598617208
            ],
            [
              79.53218378299451,
              27.428597485017466
            ],
            [
              79.53064075042423,
              27.4270302179886
            ],
            [
              79.52627979443585,
              27.424360741118438
            ],
            [
              79.52057270311275,
              27.421147584287745
            ],
            [
              79.51788444611597,
              27.41889800215069
            ],
            [
              79.51638643800604,
              27.418159757185563
            ],
            [
              79.51593524478157,
              27.417937397610185
            ],
            [
              79.51481984981241,
              27.41780939669924
            ],
            [
              79.51290870380839,
              27.419048750047917
            ],
            [
              79.51057498310817,
              27.42132437168585
            ],
            [
              79.508162393021,
              27.42355331316574
            ],
            [
              79.50737076884651,
              27.4238414361781
            ],
            [
              79.50639548501056,
              27.423547801757167
            ],
            [
              79.50504910892734,
              27.423004025633947
            ],
            [
              79.50356416321998,
              27.422252266254535
            ],
            [
              79.50244666888798,
              27.422622300630465
            ],
            [
              79.5018418987842,
              27.422703353753374
            ],
            [
              79.50073009977112,
              27.42166215269078
            ],
            [
              79.50004017387,
              27.42063302704269
            ],
            [
              79.49958091826582,
              27.41917879963718
            ],
            [
              79.49953861570079,
              27.418140970273555
            ],
            [
              79.49870890834816,
              27.416312100926422
            ],
            [
              79.49864085737214,
              27.41545986016666
            ],
            [
              79.4980192752978,
              27.41511804912492
            ],
            [
              79.49829803690352,
              27.41478865303309
            ],
            [
              79.49919325120327,
              27.414433741264947
            ],
            [
              79.4987337656304,
              27.413716687914572
            ],
            [
              79.49818217040153,
              27.41291683761532
            ],
            [
              79.49778403257602,
              27.41228247634159
            ],
            [
              79.49837987881578,
              27.41166523834507
            ],
            [
              79.49772499888883,
              27.411649283682827
            ],
            [
              79.49838664043493,
              27.410847405626736
            ],
            [
              79.4990484796104,
              27.410045434029442
            ],
            [
              79.49728224443813,
              27.408553682345918
            ],
            [
              79.49529756683651,
              27.408200898158576
            ],
            [
              79.49410802222884,
              27.40897773960998
            ],
            [
              79.49285360398635,
              27.41036780106834
            ],
            [
              79.4923547955602,
              27.410198898210098
            ],
            [
              79.49069183340791,
              27.408746815810108
            ],
            [
              79.48938394564306,
              27.407906179052297
            ],
            [
              79.48737754228628,
              27.409962877963444
            ],
            [
              79.48581103673766,
              27.411296101081703
            ],
            [
              79.48468708801033,
              27.411292438363432
            ],
            [
              79.48169307503359,
              27.410501904012158
            ],
            [
              79.47975788202773,
              27.410384008711482
            ],
            [
              79.47888021901203,
              27.411217619361558
            ],
            [
              79.47899918829499,
              27.412667859084586
            ],
            [
              79.47843189141328,
              27.41394843863619
            ],
            [
              79.47692855539542,
              27.415058801727604
            ],
            [
              79.47563316139949,
              27.415672902034213
            ],
            [
              79.47393693463228,
              27.413710557999753
            ],
            [
              79.47232225512987,
              27.4115861229108
            ],
            [
              79.47113169901921,
              27.4125859453283
            ],
            [
              79.46874995797718,
              27.414696906120206
            ],
            [
              79.47005391561267,
              27.416429868693065
            ],
            [
              79.46998730014447,
              27.417433443751396
            ],
            [
              79.46904478056184,
              27.41882425761645
            ],
            [
              79.46730390483002,
              27.421269084240166
            ],
            [
              79.46592252768839,
              27.423048755009393
            ],
            [
              79.46507764329905,
              27.423492025840364
            ],
            [
              79.46423264931526,
              27.42393519920813
            ],
            [
              79.46217047405409,
              27.42426278830729
            ],
            [
              79.4606116535927,
              27.42369990281818
            ],
            [
              79.45942941498325,
              27.42269207090708
            ],
            [
              79.4583029644479,
              27.42324587390421
            ],
            [
              79.45586203341179,
              27.42452001332334
            ],
            [
              79.45417060993638,
              27.425740940300795
            ],
            [
              79.45367314359328,
              27.425237325047107
            ],
            [
              79.45304701873856,
              27.425625520302518
            ],
            [
              79.45154575064248,
              27.42617797621687
            ],
            [
              79.44947911255099,
              27.427508984750773
            ],
            [
              79.4478568117417,
              27.428725014161294
            ],
            [
              79.44785008425855,
              27.428730057278305
            ],
            [
              79.44679156163004,
              27.428001489131585
            ],
            [
              79.4454819059807,
              27.427606536810014
            ],
            [
              79.4429915981467,
              27.42586921428104
            ],
            [
              79.44143358796569,
              27.42513875426481
            ],
            [
              79.44250035443355,
              27.423971526370657
            ],
            [
              79.44138149376404,
              27.4227965763331
            ],
            [
              79.44088518534933,
              27.422069951317166
            ],
            [
              79.4412655293457,
              27.4207887626264
            ],
            [
              79.44177851767859,
              27.417779464331343
            ],
            [
              79.4420328756513,
              27.416018873107205
            ],
            [
              79.44203619043469,
              27.415995935246098
            ],
            [
              79.4413493188055,
              27.415993507094004
            ],
            [
              79.43972100197878,
              27.417047214033452
            ],
            [
              79.43772086886271,
              27.417486239610156
            ],
            [
              79.43609675165995,
              27.417591982760076
            ],
            [
              79.43554000459295,
              27.416418987105338
            ],
            [
              79.43407064555406,
              27.41393647388383
            ],
            [
              79.43220925992858,
              27.411308932157826
            ],
            [
              79.43184270507183,
              27.409523252296296
            ],
            [
              79.43166870140132,
              27.40656714677939
            ],
            [
              79.43187015489197,
              27.403445172056678
            ],
            [
              79.43119030988495,
              27.401881325195404
            ],
            [
              79.43066080602557,
              27.401628508824718
            ],
            [
              79.43013120335151,
              27.401375688685636
            ],
            [
              79.42931980276609,
              27.401316992986825
            ],
            [
              79.4292102145896,
              27.401422902345196
            ],
            [
              79.42794013691505,
              27.402650332382386
            ],
            [
              79.42639955225394,
              27.40353059367008
            ],
            [
              79.42458479098832,
              27.404416180871205
            ],
            [
              79.42158116603804,
              27.405855069787467
            ],
            [
              79.41957589905012,
              27.40740910478894
            ],
            [
              79.41857897659557,
              27.408012901905906
            ],
            [
              79.41719649003457,
              27.40885019882711
            ],
            [
              79.41575827019669,
              27.40929093166971
            ],
            [
              79.41469838482388,
              27.408952403878985
            ],
            [
              79.41363434564121,
              27.409506129031854
            ],
            [
              79.41200483944503,
              27.410782623159484
            ],
            [
              79.41050497721238,
              27.411055867016746
            ],
            [
              79.40950825957374,
              27.410550239789092
            ],
            [
              79.40788982511346,
              27.409484697036167
            ],
            [
              79.4073076081132,
              27.408469083624198
            ],
            [
              79.40696077127693,
              27.40786405370133
            ],
            [
              79.40524902970644,
              27.406688249669497
            ],
            [
              79.40368698159821,
              27.406905429074072
            ],
            [
              79.40156377120337,
              27.406953165118384
            ],
            [
              79.39869604877919,
              27.40599431886032
            ],
            [
              79.39589202858669,
              27.404812594206184
            ],
            [
              79.3949898990559,
              27.404140021652207
            ],
            [
              79.39408767610027,
              27.403467353291052
            ],
            [
              79.3938998940699,
              27.403578166884717
            ],
            [
              79.39258005422018,
              27.405357565217848
            ],
            [
              79.3915105550772,
              27.407026286764822
            ],
            [
              79.38994225918623,
              27.40852586237807
            ],
            [
              79.3873775780332,
              27.40946388626532
            ],
            [
              79.3859400606779,
              27.409737138168797
            ],
            [
              79.38301083330111,
              27.408610469828588
            ],
            [
              79.37901665315502,
              27.408204445344893
            ],
            [
              79.37695423804365,
              27.408586693079265
            ],
            [
              79.37545422399573,
              27.408859605035644
            ],
            [
              79.37452335196907,
              27.40808791287811
            ],
            [
              79.37389969388813,
              27.407570894371833
            ],
            [
              79.37334440478683,
              27.406230365926273
            ],
            [
              79.37342317356253,
              27.40294066879526
            ],
            [
              79.37194002718066,
              27.399867733604868
            ],
            [
              79.37219248162329,
              27.39938253927006
            ],
            [
              79.37244493606588,
              27.398897248695114
            ],
            [
              79.37182815908001,
              27.397389153727794
            ],
            [
              79.3737080652717,
              27.396002510893293
            ],
            [
              79.37614993055573,
              27.394618063942353
            ],
            [
              79.37934113811039,
              27.393180848837016
            ],
            [
              79.38146439881088,
              27.393077641786416
            ],
            [
              79.38059554018322,
              27.392014730934942
            ],
            [
              79.37841350181537,
              27.39139270500673
            ],
            [
              79.37660300036084,
              27.39138556728208
            ],
            [
              79.37542007723516,
              27.390711763682074
            ],
            [
              79.37399256441716,
              27.389033147063255
            ],
            [
              79.37227067727382,
              27.38909595302247
            ],
            [
              79.3706469750927,
              27.389201027020512
            ],
            [
              79.36870913565002,
              27.38969520807253
            ],
            [
              79.36815174089769,
              27.38880077379691
            ],
            [
              79.36678671938243,
              27.38712233794739
            ],
            [
              79.36504850086723,
              27.3851636347254
            ],
            [
              79.36386890240641,
              27.383876294163723
            ],
            [
              79.36281830471532,
              27.381752928046527
            ],
            [
              79.36226127018742,
              27.380802695890836
            ],
            [
              79.36120771344581,
              27.379292761159405
            ],
            [
              79.35908779178321,
              27.378782338106397
            ],
            [
              79.35708959184164,
              27.37888575313394
            ],
            [
              79.35533374299065,
              27.380439947874383
            ],
            [
              79.35376448769891,
              27.382106515336204
            ],
            [
              79.35354670463302,
              27.38196615533412
            ],
            [
              79.35332892156711,
              27.38182588608822
            ],
            [
              79.3530233596232,
              27.38054203561082
            ],
            [
              79.3523467296866,
              27.37858752260744
            ],
            [
              79.35166609955202,
              27.37741366469802
            ],
            [
              79.35048699965617,
              27.37607044526468
            ],
            [
              79.34949454901512,
              27.3748395213212
            ],
            [
              79.34931070519896,
              27.374169620704233
            ],
            [
              79.34943871063537,
              27.373556681862926
            ],
            [
              79.34745167765108,
              27.37154095588838
            ],
            [
              79.34745471485506,
              27.370955432244045
            ],
            [
              79.34745775116072,
              27.37036990709741
            ],
            [
              79.34752279008559,
              27.36985437314749
            ],
            [
              79.348838565957,
              27.368911809010868
            ],
            [
              79.35099967088378,
              27.367442849184293
            ],
            [
              79.35197209628052,
              27.366498845261354
            ],
            [
              79.3516660106188,
              27.365326507348968
            ],
            [
              79.35067569257822,
              27.36435468062422
            ],
            [
              79.34980844462989,
              27.363068395185298
            ],
            [
              79.35068950507406,
              27.361677854009255
            ],
            [
              79.35181989921351,
              27.36034409965874
            ],
            [
              79.35138901060938,
              27.359171241007836
            ],
            [
              79.34890799405036,
              27.356149594216642
            ],
            [
              79.34723880028493,
              27.355362736351637
            ],
            [
              79.34505571807472,
              27.355074839381707
            ],
            [
              79.34431253375536,
              27.35395642664197
            ],
            [
              79.3435662664179,
              27.353451387287823
            ],
            [
              79.3409390265885,
              27.354555766680292
            ],
            [
              79.33931388620462,
              27.354995140914664
            ],
            [
              79.33763929086945,
              27.352980459670082
            ],
            [
              79.3345940802097,
              27.350513908388336
            ],
            [
              79.33085883225773,
              27.348713529317724
            ],
            [
              79.32923145506882,
              27.349598963329086
            ],
            [
              79.3279136499032,
              27.350931773929812
            ],
            [
              79.32521888820548,
              27.352983624848562
            ],
            [
              79.32371133280071,
              27.354761753090656
            ],
            [
              79.32407989090053,
              27.355878656930123
            ],
            [
              79.32450961618639,
              27.357218903690374
            ],
            [
              79.32406731179161,
              27.35822088436482
            ],
            [
              79.32306236199172,
              27.359387668823466
            ],
            [
              79.3234337416998,
              27.360249065208585
            ],
            [
              79.32373805318885,
              27.361700310888274
            ],
            [
              79.32254818698432,
              27.36242022505211
            ],
            [
              79.32247637206724,
              27.362466419785385
            ],
            [
              79.32048123268582,
              27.363749738819674
            ],
            [
              79.31816146012704,
              27.36563583411882
            ],
            [
              79.31621983877703,
              27.366854289059777
            ],
            [
              79.31496468571258,
              27.368075698286844
            ],
            [
              79.31315128629294,
              27.369468846746134
            ],
            [
              79.31258269134564,
              27.369905660838533
            ],
            [
              79.31197512298976,
              27.370653911962506
            ],
            [
              79.3108229536878,
              27.37207283085718
            ],
            [
              79.30956810425396,
              27.37323842190018
            ],
            [
              79.30774498236796,
              27.3755725809195
            ],
            [
              79.30792921874792,
              27.37613108402604
            ],
            [
              79.30967060292616,
              27.37730977525735
            ],
            [
              79.31178297874037,
              27.37915929599716
            ],
            [
              79.31165919897903,
              27.379905716086448
            ],
            [
              79.31114945895422,
              27.38179955502411
            ],
            [
              79.31018802444498,
              27.386368140943
            ],
            [
              79.30941986606238,
              27.389822170357206
            ],
            [
              79.30946509893191,
              27.392945222945244
            ],
            [
              79.30969685529205,
              27.396236382803934
            ],
            [
              79.3093709725581,
              27.396403731812914
            ],
            [
              79.30904509072249,
              27.39657098964644
            ],
            [
              79.30729628017177,
              27.3966748641858
            ],
            [
              79.30535920699201,
              27.39694519594084
            ],
            [
              79.30476842275887,
              27.39652438086005
            ],
            [
              79.30417764301734,
              27.396103563379892
            ],
            [
              79.302250469272,
              27.39458940699853
            ],
            [
              79.29994764432938,
              27.393296633730962
            ],
            [
              79.29658908423053,
              27.390995291206924
            ],
            [
              79.29540909230761,
              27.389874748898293
            ],
            [
              79.29267086742152,
              27.388301074783538
            ],
            [
              79.29011374110001,
              27.38784344908016
            ],
            [
              79.2850645516365,
              27.386482305793653
            ],
            [
              79.28387962616604,
              27.38625395204539
            ],
            [
              79.2827498680338,
              27.38730834215563
            ],
            [
              79.28118657575892,
              27.387747292054655
            ],
            [
              79.27849825767672,
              27.388404255982746
            ],
            [
              79.27693493665576,
              27.388843254972446
            ],
            [
              79.27612080429354,
              27.3892855830615
            ],
            [
              79.2760442067459,
              27.39173896106705
            ],
            [
              79.27504759690508,
              27.394049563183522
            ],
            [
              79.27322643065148,
              27.395881455314584
            ],
            [
              79.27090083341639,
              27.39854742528696
            ],
            [
              79.27026716001835,
              27.400161681396767
            ],
            [
              79.27094295272514,
              27.402060728996023
            ],
            [
              79.27081227210581,
              27.40306394809311
            ],
            [
              79.26956418968099,
              27.402946643791807
            ],
            [
              79.2678812085726,
              27.402436940015892
            ],
            [
              79.26690563637742,
              27.40100909068085
            ],
            [
              79.26504457414542,
              27.39893720574683
            ],
            [
              79.26249027392383,
              27.397977237971233
            ],
            [
              79.25863110517506,
              27.395951693902052
            ],
            [
              79.25558671557549,
              27.393414009687046
            ],
            [
              79.25355055821987,
              27.394603281650017
            ],
            [
              79.25016871558552,
              27.39634391688371
            ],
            [
              79.24860220015542,
              27.39728443923377
            ],
            [
              79.2471148191153,
              27.397880883191952
            ],
            [
              79.24407206175462,
              27.39976127006124
            ],
            [
              79.2417240578414,
              27.40165725167169
            ],
            [
              79.24055151834206,
              27.402214064699383
            ],
            [
              79.23994205723588,
              27.40254776261789
            ],
            [
              79.23936085982345,
              27.403092628360564
            ],
            [
              79.23796368131597,
              27.403513202310293
            ],
            [
              79.23651412743416,
              27.4042168503809
            ],
            [
              79.23579894809376,
              27.404594650666304
            ],
            [
              79.23478776668071,
              27.404781974058768
            ],
            [
              79.2342663144212,
              27.40519646462495
            ],
            [
              79.232964283672,
              27.406230163363027
            ],
            [
              79.2321838363363,
              27.406573839321492
            ],
            [
              79.23078349486072,
              27.406474323603113
            ],
            [
              79.23000711509665,
              27.40616937602417
            ],
            [
              79.22974014657397,
              27.40590879707183
            ],
            [
              79.22941265226241,
              27.405240107040978
            ],
            [
              79.22923924686987,
              27.405063688664832
            ],
            [
              79.22911735357066,
              27.40530090525847
            ],
            [
              79.22905298568726,
              27.40523807580764
            ],
            [
              79.22868602119877,
              27.40583861266126
            ],
            [
              79.22808727429897,
              27.406913707002303
            ],
            [
              79.22739414770048,
              27.407824591125603
            ],
            [
              79.22710595378429,
              27.40813481823553
            ],
            [
              79.22662697836302,
              27.408919961853684
            ],
            [
              79.22612164008306,
              27.40941696871259
            ],
            [
              79.2251302997597,
              27.410315595917865
            ],
            [
              79.2238804260942,
              27.411050881307073
            ],
            [
              79.22395772702274,
              27.41113399238817
            ],
            [
              79.22378759958264,
              27.41126265335405
            ],
            [
              79.22467989525603,
              27.412222155650795
            ],
            [
              79.22595220793902,
              27.413512880624154
            ],
            [
              79.22668499605562,
              27.414333318765667
            ],
            [
              79.2269201336745,
              27.414802196607127
            ],
            [
              79.22732670039231,
              27.41528495966471
            ],
            [
              79.22755866156835,
              27.41566810392778
            ],
            [
              79.22769831006916,
              27.41576102862725
            ],
            [
              79.22797211477113,
              27.415633927879693
            ],
            [
              79.2289528756354,
              27.416346878019503
            ],
            [
              79.22980444977864,
              27.417008477993612
            ],
            [
              79.23032690186305,
              27.41761830609677
            ],
            [
              79.23095858010286,
              27.418398628186853
            ],
            [
              79.2317465481341,
              27.418066575346568
            ],
            [
              79.23283870907674,
              27.417755750158538
            ],
            [
              79.23379953362993,
              27.417506752232608
            ],
            [
              79.23420462441571,
              27.417933538949544
            ],
            [
              79.23442458409956,
              27.418178343147815
            ],
            [
              79.23496005007748,
              27.418092004676307
            ],
            [
              79.2355312501391,
              27.41799245707013
            ],
            [
              79.23584879291393,
              27.418070725853756
            ],
            [
              79.23649673784689,
              27.418698912288512
            ],
            [
              79.2372987564275,
              27.418475587344002
            ],
            [
              79.23865337365515,
              27.41778388676605
            ],
            [
              79.2396144039225,
              27.41749874861029
            ],
            [
              79.24000024381178,
              27.417144874214298
            ],
            [
              79.24025698770987,
              27.41668778816383
            ],
            [
              79.24026236412683,
              27.416683738079318
            ],
            [
              79.24133440909533,
              27.415298941763176
            ],
            [
              79.24206286014575,
              27.41497803485377
            ],
            [
              79.24369863658256,
              27.414754263798642
            ],
            [
              79.24510629303953,
              27.414921132624297
            ],
            [
              79.2457873938913,
              27.415276596241462
            ],
            [
              79.24652356057172,
              27.415924633673797
            ],
            [
              79.24759680928268,
              27.416614849141144
            ],
            [
              79.24815575722212,
              27.416920507891934
            ],
            [
              79.24858365802963,
              27.416948912643942
            ],
            [
              79.25044622044814,
              27.41745562297504
            ],
            [
              79.25351829073487,
              27.42064869813161
            ],
            [
              79.25469638092434,
              27.422076171669232
            ],
            [
              79.2562814950741,
              27.42331041702742
            ],
            [
              79.25724040891066,
              27.42484836934135
            ],
            [
              79.25893529179822,
              27.427680386309472
            ],
            [
              79.25971148201782,
              27.428436823361945
            ],
            [
              79.25986444804269,
              27.428967363380476
            ],
            [
              79.25801580142623,
              27.43004599118891
            ],
            [
              79.25748214465528,
              27.430517448617653
            ],
            [
              79.258353023594,
              27.431107038060706
            ],
            [
              79.25941168995297,
              27.431613898699194
            ],
            [
              79.25936768508046,
              27.433788378194933
            ],
            [
              79.25919977019095,
              27.435795067330545
            ],
            [
              79.258687314559,
              27.43787197417132
            ],
            [
              79.25849410131443,
              27.438874845690496
            ],
            [
              79.25901503614433,
              27.4405500701995
            ],
            [
              79.25981866989581,
              27.441975808333023
            ],
            [
              79.26106057819968,
              27.443208364304606
            ],
            [
              79.26257640618988,
              27.444811964268098
            ],
            [
              79.26000439568247,
              27.446723692922046
            ],
            [
              79.25604887722959,
              27.450190095276767
            ],
            [
              79.25328698263405,
              27.45246332435173
            ],
            [
              79.25162325960875,
              27.453877309205733
            ],
            [
              79.25090930467206,
              27.45453152429219
            ],
            [
              79.25102641264574,
              27.455842496841846
            ],
            [
              79.25158804295467,
              27.456572666742467
            ],
            [
              79.25180123562944,
              27.456849833920028
            ],
            [
              79.25301846811078,
              27.456994958069245
            ],
            [
              79.25429777866984,
              27.457196221964534
            ],
            [
              79.25634448134856,
              27.459687145031058
            ],
            [
              79.25730225432471,
              27.461448078315478
            ],
            [
              79.25772592496551,
              27.462655195310624
            ],
            [
              79.2544680588235,
              27.464256824322625
            ],
            [
              79.25327726106606,
              27.46492036490799
            ],
            [
              79.25336392243982,
              27.46609171962463
            ],
            [
              79.25076251905631,
              27.467584931848982
            ],
            [
              79.24904362689614,
              27.468403028036047
            ],
            [
              79.24857351964333,
              27.468651682374094
            ],
            [
              79.2480350137665,
              27.468798588315376
            ],
            [
              79.24784565878605,
              27.46896578909088
            ],
            [
              79.24766744291514,
              27.46912315176315
            ],
            [
              79.24714548939573,
              27.469773382074496
            ],
            [
              79.24665238527167,
              27.47069576824931
            ],
            [
              79.24649158324253,
              27.47210920285397
            ],
            [
              79.24688134158305,
              27.473171756369382
            ],
            [
              79.24775933877208,
              27.474127862382623
            ],
            [
              79.24860020859043,
              27.47464594872629
            ],
            [
              79.24974993357648,
              27.475655054651202
            ],
            [
              79.25023713756578,
              27.47777617467693
            ],
            [
              79.25091753144342,
              27.478922493879118
            ],
            [
              79.25075646261469,
              27.4797302442111
            ],
            [
              79.2498112435946,
              27.481052857010372
            ],
            [
              79.24917805079525,
              27.482471750096977
            ],
            [
              79.24986128784077,
              27.483144053307253
            ],
            [
              79.2514766752156,
              27.484657207049953
            ],
            [
              79.25228630971318,
              27.485107138842235
            ],
            [
              79.2529740518099,
              27.48502670137175
            ],
            [
              79.25421532410655,
              27.48642653129934
            ],
            [
              79.25541273076958,
              27.48685475838227
            ],
            [
              79.2566101446191,
              27.487283066678447
            ],
            [
              79.25828506604277,
              27.489326025126438
            ],
            [
              79.25874651623118,
              27.490554954237094
            ],
            [
              79.25909056290016,
              27.49092347888827
            ],
            [
              79.25924319295514,
              27.4910869756567
            ],
            [
              79.26021234219604,
              27.49097999128991
            ],
            [
              79.26127758242626,
              27.490455282362465
            ],
            [
              79.2625924869318,
              27.48998749025863
            ],
            [
              79.26464908275673,
              27.49088917315206
            ],
            [
              79.26708212568631,
              27.491541691126198
            ],
            [
              79.26935925342195,
              27.49213768867361
            ],
            [
              79.26973345743333,
              27.492250941700465
            ],
            [
              79.27069419484992,
              27.493593568725544
            ],
            [
              79.27090722942123,
              27.494570244388427
            ],
            [
              79.26892480838762,
              27.497014505278592
            ],
            [
              79.26725652731054,
              27.499139310397048
            ],
            [
              79.26685774718962,
              27.500056926349068
            ],
            [
              79.26804435161135,
              27.501078164306694
            ],
            [
              79.26742318905025,
              27.502041783322763
            ],
            [
              79.2678853650774,
              27.503010420872506
            ],
            [
              79.26996877830852,
              27.504623532021874
            ],
            [
              79.27129175956681,
              27.505749908164344
            ],
            [
              79.2718543780225,
              27.506389479788137
            ],
            [
              79.27147676759957,
              27.507815473750444
            ],
            [
              79.27138914682507,
              27.510187426221762
            ],
            [
              79.27159990416712,
              27.51211356012116
            ],
            [
              79.27267356520481,
              27.51378791838926
            ],
            [
              79.2732598327087,
              27.514603318674105
            ],
            [
              79.27230024603399,
              27.51463087207689
            ],
            [
              79.27129066901206,
              27.514626221683766
            ],
            [
              79.27067364678608,
              27.51488702023782
            ],
            [
              79.27044718689287,
              27.51572063373763
            ],
            [
              79.2703347887862,
              27.51811431103594
            ],
            [
              79.27031286719834,
              27.518117727217785
            ],
            [
              79.26910251671036,
              27.518306305389313
            ],
            [
              79.26774624658262,
              27.518629536660793
            ],
            [
              79.26596555212751,
              27.51996117204915
            ],
            [
              79.26490405068553,
              27.520781065167753
            ],
            [
              79.26477826408787,
              27.520878219204928
            ],
            [
              79.26298944796427,
              27.520755246848942
            ],
            [
              79.25813940871102,
              27.520600832335205
            ],
            [
              79.25712975802722,
              27.520618045103685
            ],
            [
              79.25514135690875,
              27.51957634909133
            ],
            [
              79.2519383131519,
              27.517877122754083
            ],
            [
              79.25156946938785,
              27.51778755769226
            ],
            [
              79.25119645205093,
              27.51805829376486
            ],
            [
              79.25082756606605,
              27.518333192634483
            ],
            [
              79.24900686244482,
              27.521106124675963
            ],
            [
              79.2483112016989,
              27.52120202766685
            ],
            [
              79.24580862467474,
              27.521239713748784
            ],
            [
              79.24483532072566,
              27.52125987008126
            ],
            [
              79.24361685036585,
              27.52181752289926
            ],
            [
              79.2423565822942,
              27.52332453739144
            ],
            [
              79.24176649605204,
              27.524363412847155
            ],
            [
              79.23920145736957,
              27.52551680614192
            ],
            [
              79.23822700806848,
              27.526229915658664
            ],
            [
              79.23752804870882,
              27.526846607949288
            ],
            [
              79.23716478258433,
              27.527142485315586
            ],
            [
              79.23649629857074,
              27.527337676663723
            ],
            [
              79.23538349434286,
              27.527431600203194
            ],
            [
              79.23471470310538,
              27.52767638670155
            ],
            [
              79.23415663641322,
              27.52799611719853
            ],
            [
              79.23387757656687,
              27.52816838135492
            ],
            [
              79.23329259365384,
              27.528339162749944
            ],
            [
              79.2325980944296,
              27.52823658401246
            ],
            [
              79.23218204958721,
              27.52806094631058
            ],
            [
              79.23025474738279,
              27.529490113377086
            ],
            [
              79.22638105377418,
              27.532833020268924
            ],
            [
              79.22459215859885,
              27.534337193757853
            ],
            [
              79.22302891662964,
              27.535321700335203
            ],
            [
              79.22054715357064,
              27.5364255813174
            ],
            [
              79.22272409938913,
              27.539635861688378
            ],
            [
              79.22451435191886,
              27.54193406300828
            ],
            [
              79.22481984469246,
              27.542411942638914
            ],
            [
              79.22426015384626,
              27.542979734379465
            ],
            [
              79.22484016907576,
              27.543627429618844
            ],
            [
              79.22522649136033,
              27.54410056034387
            ],
            [
              79.22561291874777,
              27.54457368982775
            ],
            [
              79.22591170020792,
              27.545740841367643
            ],
            [
              79.22443338316904,
              27.54645285114541
            ],
            [
              79.22484136473341,
              27.547943052925838
            ],
            [
              79.22592157179459,
              27.547985455282298
            ],
            [
              79.2280398504385,
              27.551740964943026
            ],
            [
              79.23018745009331,
              27.55527335661936
            ],
            [
              79.23026672731544,
              27.55565678988593
            ],
            [
              79.22867300191537,
              27.557037910272676
            ],
            [
              79.22855971357824,
              27.55735977808463
            ],
            [
              79.22877735471033,
              27.558154487367695
            ],
            [
              79.22907924344304,
              27.55882559934398
            ],
            [
              79.22910453191662,
              27.559222546029876
            ],
            [
              79.22882356943843,
              27.559692494124246
            ],
            [
              79.2284871009572,
              27.56013727939328
            ],
            [
              79.22859176007769,
              27.561204250831192
            ],
            [
              79.22927609037292,
              27.56299328480109
            ],
            [
              79.22882467436627,
              27.563574926254386
            ],
            [
              79.22781630108679,
              27.56473566673751
            ],
            [
              79.22792080569705,
              27.565827432866865
            ],
            [
              79.22780501824681,
              27.566570903732234
            ],
            [
              79.22626393232574,
              27.568398752842455
            ],
            [
              79.2228272583231,
              27.571552129346447
            ],
            [
              79.22153774469903,
              27.57318265588895
            ],
            [
              79.22101437723136,
              27.574035622637787
            ],
            [
              79.21919406976718,
              27.576010724901774
            ],
            [
              79.2185910630563,
              27.576533625712077
            ],
            [
              79.21578856640654,
              27.578963736805658
            ],
            [
              79.21523533804051,
              27.578464976241616
            ],
            [
              79.21486058965006,
              27.5783391118784
            ],
            [
              79.21448584215794,
              27.578213247370766
            ],
            [
              79.21230967158554,
              27.579244060951243
            ],
            [
              79.21156282483472,
              27.578570716145354
            ],
            [
              79.2108672862597,
              27.578592048365113
            ],
            [
              79.20963778907975,
              27.57947873997597
            ],
            [
              79.20737847583455,
              27.580459466638235
            ],
            [
              79.20391713319587,
              27.582351836862422
            ],
            [
              79.20350939237998,
              27.58251934834118
            ],
            [
              79.2012653334266,
              27.581069585759977
            ],
            [
              79.19982835595876,
              27.579574181946196
            ],
            [
              79.19913581416353,
              27.579124261659683
            ],
            [
              79.19843947968116,
              27.579269539065717
            ],
            [
              79.19657227926083,
              27.57980568407586
            ],
            [
              79.19451314928847,
              27.57991921465333
            ],
            [
              79.19220554261356,
              27.57973384119309
            ],
            [
              79.19121129085036,
              27.57861271969697
            ],
            [
              79.18977856331215,
              27.57895829528109
            ],
            [
              79.18657654183811,
              27.579437877767226
            ],
            [
              79.184601444769,
              27.579452507871345
            ],
            [
              79.18371440064674,
              27.579447932679532
            ],
            [
              79.18156951210749,
              27.579436849025743
            ],
            [
              79.18009653914622,
              27.579230813093748
            ],
            [
              79.17965234739104,
              27.579104505306255
            ],
            [
              79.1783443203873,
              27.579196918700298
            ],
            [
              79.17803126110407,
              27.579251051946414
            ],
            [
              79.17667338299194,
              27.57948584004097
            ],
            [
              79.1749989574383,
              27.580320344894133
            ],
            [
              79.17027096689282,
              27.58438783593401
            ],
            [
              79.17047477666449,
              27.584746127762386
            ],
            [
              79.17223904632293,
              27.587185928784617
            ],
            [
              79.17402420360837,
              27.59069223363014
            ],
            [
              79.17479093187303,
              27.592556274825125
            ],
            [
              79.17531573934012,
              27.593129422373256
            ],
            [
              79.17614767002303,
              27.593530564004524
            ],
            [
              79.1769123339592,
              27.595717073329602
            ],
            [
              79.17884238770333,
              27.596622947385466
            ],
            [
              79.18196862909663,
              27.59931757639699
            ],
            [
              79.1834972508931,
              27.599548676214457
            ],
            [
              79.18387041824866,
              27.59992260467322
            ],
            [
              79.18424358829914,
              27.600296532652305
            ],
            [
              79.18610656663765,
              27.60474553971695
            ],
            [
              79.1852328517176,
              27.606477046791717
            ],
            [
              79.18418461120581,
              27.60937333435611
            ],
            [
              79.18284537493247,
              27.61079113292163
            ],
            [
              79.1812452732905,
              27.61723089974596
            ],
            [
              79.18088271863171,
              27.617420532676533
            ],
            [
              79.1799684923873,
              27.616820603683454
            ],
            [
              79.17925381340851,
              27.61547771225918
            ],
            [
              79.17842477889404,
              27.61448408234169
            ],
            [
              79.17787132055928,
              27.614034810779096
            ],
            [
              79.17720429091813,
              27.613907345126513
            ],
            [
              79.1761474921566,
              27.613827446091815
            ],
            [
              79.17536693342984,
              27.61404658503664
            ],
            [
              79.17458646992446,
              27.614265706031322
            ],
            [
              79.17319122728644,
              27.614878415777298
            ],
            [
              79.1718798792111,
              27.6154171526622
            ],
            [
              79.17060012668091,
              27.615385648636344
            ],
            [
              79.16951184017206,
              27.61513191270543
            ],
            [
              79.16929434187213,
              27.615081202382214
            ],
            [
              79.16762728430047,
              27.614725243239036
            ],
            [
              79.16593146806332,
              27.614493114382945
            ],
            [
              79.1643183498329,
              27.61584188501229
            ],
            [
              79.16268785099834,
              27.61833812766031
            ],
            [
              79.16185988637737,
              27.61935832484117
            ],
            [
              79.16156557134083,
              27.619720966023515
            ],
            [
              79.16047558611781,
              27.620434468032013
            ],
            [
              79.1586090441626,
              27.62077174782373
            ],
            [
              79.15734499418357,
              27.62252579134284
            ],
            [
              79.15583347720843,
              27.623856909095373
            ],
            [
              79.15461142885883,
              27.624707896909992
            ],
            [
              79.15293882598695,
              27.625145342072127
            ],
            [
              79.15174166995388,
              27.625238127336445
            ],
            [
              79.14745225220146,
              27.62583506139372
            ],
            [
              79.14694068141009,
              27.625906675083467
            ],
            [
              79.14490040977047,
              27.62619227218981
            ],
            [
              79.14164013973678,
              27.626844205371548
            ],
            [
              79.14016032340967,
              27.627580152808832
            ],
            [
              79.13808799359255,
              27.62947852371631
            ],
            [
              79.13767849657027,
              27.630061557036225
            ],
            [
              79.13714739999791,
              27.63040594532175
            ],
            [
              79.13634011998468,
              27.63045113874749
            ],
            [
              79.13503477355374,
              27.630071928040476
            ],
            [
              79.13428530372232,
              27.629795035976336
            ],
            [
              79.13317195960695,
              27.629838540015136
            ],
            [
              79.13196949542888,
              27.63067521779908
            ],
            [
              79.13065505625065,
              27.631610376171146
            ],
            [
              79.12995181821529,
              27.6326976793469
            ],
            [
              79.12851952815663,
              27.634574632220108
            ],
            [
              79.1283821002912,
              27.634791004694893
            ],
            [
              79.13015209670957,
              27.636387893227468
            ],
            [
              79.13256226314213,
              27.637988265609614
            ],
            [
              79.13436465101304,
              27.6389405931057
            ],
            [
              79.13602681456302,
              27.640040834768122
            ],
            [
              79.13571747789833,
              27.640510326626146
            ],
            [
              79.13737449410173,
              27.642379382637547
            ],
            [
              79.13663082469208,
              27.643751486313278
            ],
            [
              79.13696357863961,
              27.64392689266506
            ],
            [
              79.13484592342651,
              27.648329615903613
            ],
            [
              79.13360554764849,
              27.65140641397516
            ],
            [
              79.13358962501009,
              27.651569804686336
            ],
            [
              79.13345579489739,
              27.652943202268407
            ],
            [
              79.13227358593232,
              27.654846217605304
            ],
            [
              79.13512854509298,
              27.660615181793496
            ],
            [
              79.13303315731913,
              27.66174453514923
            ],
            [
              79.13375358012584,
              27.66356693068717
            ],
            [
              79.13385854467353,
              27.664485134839985
            ],
            [
              79.13402024142466,
              27.665254765263736
            ],
            [
              79.13539446797667,
              27.66781658280227
            ],
            [
              79.1335652878524,
              27.670683163340872
            ],
            [
              79.1336712872593,
              27.671437511755233
            ],
            [
              79.13366186932187,
              27.672801351672753
            ],
            [
              79.13234425819238,
              27.674133318319516
            ],
            [
              79.13156128838736,
              27.67464978168902
            ],
            [
              79.13238796123092,
              27.675869413334944
            ],
            [
              79.12998824490008,
              27.67667457321255
            ],
            [
              79.13050632488398,
              27.678239776283686
            ],
            [
              79.13022524113326,
              27.678634997640078
            ],
            [
              79.12994415828088,
              27.679030218361977
            ],
            [
              79.12801619761137,
              27.680036320354233
            ],
            [
              79.12759955628765,
              27.679910034965406
            ],
            [
              79.12649463926795,
              27.678664052350367
            ],
            [
              79.12532383800868,
              27.67888076796323
            ],
            [
              79.12457427026091,
              27.678579051211617
            ],
            [
              79.12270485998498,
              27.679188648321485
            ],
            [
              79.12289349361821,
              27.68008241367336
            ],
            [
              79.12130013113753,
              27.68101589267197
            ],
            [
              79.12116218314755,
              27.68172452738345
            ],
            [
              79.12020938414314,
              27.68261195261736
            ],
            [
              79.12020277613593,
              27.683554227919533
            ],
            [
              79.12050202112674,
              27.684547888370826
            ],
            [
              79.12051611120197,
              27.68455709997341
            ],
            [
              79.1232179803702,
              27.68632358381989
            ],
            [
              79.12601402621789,
              27.68859571226788
            ],
            [
              79.12769364942376,
              27.68968798264803
            ],
            [
              79.13007959817459,
              27.690891388247135
            ],
            [
              79.13075611761842,
              27.69372209722995
            ],
            [
              79.13179344629444,
              27.696261338142676
            ],
            [
              79.13247644618473,
              27.698149671220666
            ],
            [
              79.13285476987004,
              27.699813245741193
            ],
            [
              79.13616391184841,
              27.704468477084518
            ],
            [
              79.1387872350232,
              27.70361487065003
            ],
            [
              79.14299933298248,
              27.702497061141198
            ],
            [
              79.14520235419873,
              27.70201293630059
            ],
            [
              79.14608490764287,
              27.702042220213027
            ],
            [
              79.14767312996351,
              27.701877197361963
            ],
            [
              79.14842710125286,
              27.70155889188719
            ],
            [
              79.14957290509268,
              27.700945123157478
            ],
            [
              79.15122840224494,
              27.699069425168176
            ],
            [
              79.15206263530995,
              27.699222676838183
            ],
            [
              79.15377963112655,
              27.700595705324442
            ],
            [
              79.15354776427364,
              27.701958304631187
            ],
            [
              79.15500224810972,
              27.703049059795806
            ],
            [
              79.15730057339111,
              27.70494597073234
            ],
            [
              79.15772748515347,
              27.70355952000297
            ],
            [
              79.15820871085455,
              27.702396618637966
            ],
            [
              79.15932003106556,
              27.70274968132708
            ],
            [
              79.16245147729765,
              27.7049980972191
            ],
            [
              79.16502779163359,
              27.706995454785268
            ],
            [
              79.16815450464239,
              27.705772066162616
            ],
            [
              79.17066767190543,
              27.704694184363422
            ],
            [
              79.1712332269538,
              27.705462177021378
            ],
            [
              79.17358805267328,
              27.70728474821446
            ],
            [
              79.17702141368922,
              27.710253450363492
            ],
            [
              79.17939849427152,
              27.712943923818752
            ],
            [
              79.18041283236451,
              27.714327778057296
            ],
            [
              79.1814335278347,
              27.715325932251293
            ],
            [
              79.18547720874624,
              27.714384122084805
            ],
            [
              79.18972931317668,
              27.713006210802437
            ],
            [
              79.20607214485008,
              27.706254543129422
            ]
          ]
        ]
      }
    }
  ]
}