{
  "type": "FeatureCollection",
  "features": [
    {
      "type": "Feature",
      "properties": {
        "object_id": "09-175-00892",
        "stcode11": "09",
        "dtcode11": "175",
        "sdtcode11": "00892",
        "stname": "UTTAR PRADESH",
        "dtname": "Prayagraj",
        "sdtname": "Karchhana",
        "st_area_sh": 0.0,
        "st_length_": 0.0,
        "remarks": "",
        "dist_lgd": 120,
        "state_lgd": 9,
        "subdt_lgd": 892,
        "ac_no": 260,
        "st_length(shape)": 153326.54644542738,
        "st_area(shape)": 723850879.5167671
      },
      "geometry": {
        "type": "Polygon",
        "coordinates": [
          [
            [
              81.91507465331485,
              25.36760875094136
            ],
            [
              81.9160426652886,
              25.36542848472179
            ],
            [
              81.917001721059,
              25.366299348986498
            ],
            [
              81.91795082708927,
              25.367134064379762
            ],
            [
              81.92056964700949,
              25.369164392666427
            ],
            [
              81.92374503433366,
              25.371347932324326
            ],
            [
              81.92694035796897,
              25.373590065043874
            ],
            [
              81.92767500110664,
              25.371901757919264
            ],
            [
              81.92848893763615,
              25.37006445215471
            ],
            [
              81.92975478604232,
              25.367829772750156
            ],
            [
              81.93022873898286,
              25.36677792526184
            ],
            [
              81.93070263173627,
              25.365726061312717
            ],
            [
              81.93127379227198,
              25.365315146099057
            ],
            [
              81.93315611313518,
              25.36448390366209
            ],
            [
              81.93437293688307,
              25.36394177264393
            ],
            [
              81.93521693643186,
              25.362903370079906
            ],
            [
              81.93601137772303,
              25.36205896906851
            ],
            [
              81.93654763691336,
              25.36153967192845
            ],
            [
              81.93704418517824,
              25.36124159392714
            ],
            [
              81.93768502533561,
              25.36116013575375
            ],
            [
              81.9389019946106,
              25.360965529641817
            ],
            [
              81.9409385041058,
              25.36072991636181
            ],
            [
              81.94306448400664,
              25.360462595843565
            ],
            [
              81.94437589676068,
              25.360304040718617
            ],
            [
              81.94508132399037,
              25.360366899928717
            ],
            [
              81.9454889210758,
              25.360876782643874
            ],
            [
              81.94620042271345,
              25.362758569678405
            ],
            [
              81.94758490443272,
              25.362658358299125
            ],
            [
              81.94795889015346,
              25.362631286260402
            ],
            [
              81.9477695136135,
              25.361864466682455
            ],
            [
              81.9477248403944,
              25.361683576008666
            ],
            [
              81.94712748498497,
              25.35963477159971
            ],
            [
              81.946709230287,
              25.35792428616256
            ],
            [
              81.94642494943217,
              25.355970034601764
            ],
            [
              81.94618965640477,
              25.35280623110462
            ],
            [
              81.94603877357302,
              25.349597088387036
            ],
            [
              81.94559459529256,
              25.345963969643172
            ],
            [
              81.9456285803564,
              25.34474070531236
            ],
            [
              81.94541402763227,
              25.342912863853186
            ],
            [
              81.94502436091987,
              25.339044880942968
            ],
            [
              81.94489919326145,
              25.33735241832936
            ],
            [
              81.9446842336005,
              25.3348159042727
            ],
            [
              81.94459384062505,
              25.333105235083337
            ],
            [
              81.9447754745856,
              25.331926869162587
            ],
            [
              81.94503486222555,
              25.33134022124578
            ],
            [
              81.94634560303975,
              25.330757405301743
            ],
            [
              81.9506006081303,
              25.328927235026036
            ],
            [
              81.95176062241961,
              25.32841914196943
            ],
            [
              81.95311781511715,
              25.327824665952647
            ],
            [
              81.95635505683856,
              25.326608773650587
            ],
            [
              81.95763293458471,
              25.326027186182404
            ],
            [
              81.95829128739858,
              25.325727550170797
            ],
            [
              81.96075875466818,
              25.324864070259235
            ],
            [
              81.96195258513805,
              25.32459542570206
            ],
            [
              81.96274987588532,
              25.3244160082644
            ],
            [
              81.96532165013579,
              25.32350271619224
            ],
            [
              81.96720347602725,
              25.323095379715813
            ],
            [
              81.96848945927226,
              25.322850779369467
            ],
            [
              81.96995407879969,
              25.322348925401844
            ],
            [
              81.97388158329046,
              25.321538378054544
            ],
            [
              81.97651813775101,
              25.321130336641858
            ],
            [
              81.97796798178867,
              25.320894705861306
            ],
            [
              81.97831940182948,
              25.320890143170747
            ],
            [
              81.98127532444157,
              25.32085173909746
            ],
            [
              81.98400647689147,
              25.320786529692043
            ],
            [
              81.98735999474658,
              25.320917277332207
            ],
            [
              81.98741325855475,
              25.32091935283223
            ],
            [
              81.98948927056621,
              25.32113444622207
            ],
            [
              81.99154061573834,
              25.321638399386885
            ],
            [
              81.99289667206706,
              25.321989351175556
            ],
            [
              81.99419977181144,
              25.322307285964698
            ],
            [
              81.99424276607925,
              25.32231777540148
            ],
            [
              81.9954152831207,
              25.322867405027356
            ],
            [
              81.99681653458968,
              25.323647146224648
            ],
            [
              81.99819282187694,
              25.324481044385976
            ],
            [
              81.99862966002316,
              25.32462582078138
            ],
            [
              82.0008538446492,
              25.325205479215818
            ],
            [
              82.00112638093,
              25.325276513834506
            ],
            [
              82.0030781514461,
              25.32578510401982
            ],
            [
              82.00438884285299,
              25.326183394970627
            ],
            [
              82.00472638122774,
              25.32629197474172
            ],
            [
              82.00506402111213,
              25.326400551167573
            ],
            [
              82.00633998993831,
              25.32670851472391
            ],
            [
              82.00749669483412,
              25.32711567502673
            ],
            [
              82.00794881332334,
              25.327272527113344
            ],
            [
              82.00955698632814,
              25.32783043333738
            ],
            [
              82.01090744076275,
              25.328300870910788
            ],
            [
              82.01257504361179,
              25.32938546710235
            ],
            [
              82.01320038423727,
              25.329819179766194
            ],
            [
              82.01579129529826,
              25.33155891412505
            ],
            [
              82.01773662758873,
              25.33318522713559
            ],
            [
              82.01892809818433,
              25.33379987832215
            ],
            [
              82.01956365085796,
              25.333908686719305
            ],
            [
              82.02214562008864,
              25.3345965985961
            ],
            [
              82.02756872071278,
              25.335069690007202
            ],
            [
              82.031025357976,
              25.335144205202766
            ],
            [
              82.03132331388437,
              25.335148863974034
            ],
            [
              82.03229673910604,
              25.335217201259393
            ],
            [
              82.03507786842843,
              25.335327265225608
            ],
            [
              82.03569609439684,
              25.33536426740284
            ],
            [
              82.03690548458574,
              25.335436644648574
            ],
            [
              82.03825648339944,
              25.335401401910712
            ],
            [
              82.03980600090776,
              25.335366206253617
            ],
            [
              82.04112228342896,
              25.335186419932047
            ],
            [
              82.04235411802524,
              25.33497045515224
            ],
            [
              82.04287077328111,
              25.334862396297595
            ],
            [
              82.043506628687,
              25.33453774012215
            ],
            [
              82.04422209279332,
              25.334213227597836
            ],
            [
              82.04470894464302,
              25.33398331629898
            ],
            [
              82.045970823394,
              25.33334755511647
            ],
            [
              82.04819660791954,
              25.33208490774917
            ],
            [
              82.0488325091395,
              25.331796403787276
            ],
            [
              82.04998505932713,
              25.33125538961405
            ],
            [
              82.05240934098774,
              25.330015368143165
            ],
            [
              82.0529856264122,
              25.329762858753693
            ],
            [
              82.05356183008992,
              25.329510409734006
            ],
            [
              82.05431685779801,
              25.329294127907158
            ],
            [
              82.05546933432379,
              25.3287891551219
            ],
            [
              82.0567011240043,
              25.328424141211062
            ],
            [
              82.0574560816438,
              25.3282800099955
            ],
            [
              82.05813158868635,
              25.328063659389333
            ],
            [
              82.05884703302974,
              25.327666819923444
            ],
            [
              82.06012360013392,
              25.327089654652646
            ],
            [
              82.06098787376035,
              25.326746977837487
            ],
            [
              82.0638192063307,
              25.32568297334356
            ],
            [
              82.06511069355345,
              25.325141926975668
            ],
            [
              82.06807104396157,
              25.32384323985701
            ],
            [
              82.0693030124068,
              25.32316211767816
            ],
            [
              82.06991892880666,
              25.322783214621076
            ],
            [
              82.07063422941961,
              25.3223501450279
            ],
            [
              82.07121039087654,
              25.322043475275162
            ],
            [
              82.07212418592965,
              25.32191740031158
            ],
            [
              82.07279971363342,
              25.321737157968126
            ],
            [
              82.07450824282846,
              25.321087728869987
            ],
            [
              82.07640550536978,
              25.32044293207777
            ],
            [
              82.07753802761815,
              25.31966697374607
            ],
            [
              82.07851173311418,
              25.318778167398012
            ],
            [
              82.07924699339443,
              25.317731188597392
            ],
            [
              82.07956505270056,
              25.317279931647484
            ],
            [
              82.07966454111826,
              25.316702276740457
            ],
            [
              82.07982375582431,
              25.315817663961667
            ],
            [
              82.07998296783538,
              25.31493305121855
            ],
            [
              82.07994370606755,
              25.313849787276283
            ],
            [
              82.07932886225619,
              25.311389636395763
            ],
            [
              82.0787341263341,
              25.308451103071917
            ],
            [
              82.07833777885097,
              25.306085952097426
            ],
            [
              82.07827900298025,
              25.304136017945527
            ],
            [
              82.07828418266618,
              25.303562754071304
            ],
            [
              82.07834718870357,
              25.30051457296582
            ],
            [
              82.07836003101887,
              25.299893266994058
            ],
            [
              82.07847969919115,
              25.29857534522665
            ],
            [
              82.07873903742376,
              25.29566869437538
            ],
            [
              82.0789384023314,
              25.293727900365315
            ],
            [
              82.0790977284285,
              25.29244607567311
            ],
            [
              82.07957498896593,
              25.290640822762015
            ],
            [
              82.07993280860484,
              25.28961177266032
            ],
            [
              82.08094639480791,
              25.287490759795958
            ],
            [
              82.08180097022252,
              25.285667540125107
            ],
            [
              82.08243689479868,
              25.284439966881045
            ],
            [
              82.08257608156542,
              25.283952528186905
            ],
            [
              82.08301361680434,
              25.282025360154893
            ],
            [
              82.08372929111646,
              25.27971464566015
            ],
            [
              82.08442477579257,
              25.277981634315182
            ],
            [
              82.08466819767501,
              25.2774986811956
            ],
            [
              82.08519409659515,
              25.27644373285154
            ],
            [
              82.08284697842083,
              25.275661155145173
            ],
            [
              82.0820726710701,
              25.27561577601745
            ],
            [
              82.08183929774245,
              25.275602159189024
            ],
            [
              82.08119896872645,
              25.275583972276667
            ],
            [
              82.07943677417632,
              25.27527651808604
            ],
            [
              82.07661230024314,
              25.275275544118227
            ],
            [
              82.07526699405342,
              25.275297707366693
            ],
            [
              82.07458194780091,
              25.275274937317622
            ],
            [
              82.07332130243682,
              25.274823082839653
            ],
            [
              82.0719464389793,
              25.274375782185405
            ],
            [
              82.06950604333913,
              25.273864560387175
            ],
            [
              82.06860095475777,
              25.27367495030564
            ],
            [
              82.06709274358285,
              25.2732242580013
            ],
            [
              82.0666801329998,
              25.2731009551058
            ],
            [
              82.06473449528212,
              25.272675837013534
            ],
            [
              82.06275858523769,
              25.273148967126406
            ],
            [
              82.06196929488635,
              25.27317116163182
            ],
            [
              82.0592539950063,
              25.27304359719035
            ],
            [
              82.05881226463501,
              25.27298475430472
            ],
            [
              82.05585392285987,
              25.272568097085838
            ],
            [
              82.05552639081907,
              25.272477720734784
            ],
            [
              82.05395799431675,
              25.272070753782753
            ],
            [
              82.0520176961851,
              25.2711219106104
            ],
            [
              82.04971756169678,
              25.270419375940026
            ],
            [
              82.04947164519278,
              25.270344262854366
            ],
            [
              82.04755109472605,
              25.26967079703336
            ],
            [
              82.04582412940641,
              25.268870942255077
            ],
            [
              82.04420657080354,
              25.267922250351287
            ],
            [
              82.04323934216072,
              25.266960275243637
            ],
            [
              82.04244117375943,
              25.26543878478545
            ],
            [
              82.04219651579517,
              25.264605217262755
            ],
            [
              82.0419509190914,
              25.26376843506134
            ],
            [
              82.04184282840653,
              25.26214349284491
            ],
            [
              82.04181352356535,
              25.26137165804498
            ],
            [
              82.04195292772438,
              25.260870716185355
            ],
            [
              82.04228072386988,
              25.26044664064812
            ],
            [
              82.04371116878897,
              25.259025650130837
            ],
            [
              82.04469438924049,
              25.25843036012964
            ],
            [
              82.04521074356073,
              25.258164327364447
            ],
            [
              82.04633757318516,
              25.257916744369602
            ],
            [
              82.04913243235836,
              25.257096724613575
            ],
            [
              82.0510783395706,
              25.25677273105467
            ],
            [
              82.05307866941773,
              25.256548052029487
            ],
            [
              82.05384801537313,
              25.256399410784887
            ],
            [
              82.05563016060744,
              25.25592638031869
            ],
            [
              82.05609682641436,
              25.255700919777965
            ],
            [
              82.05733322804555,
              25.2548032957519
            ],
            [
              82.05766107090346,
              25.25432947667323
            ],
            [
              82.05815295601366,
              25.253305122602782
            ],
            [
              82.05834686724923,
              25.252610130976755
            ],
            [
              82.05843180295935,
              25.251558502233227
            ],
            [
              82.05829300156984,
              25.2512605321811
            ],
            [
              82.0580155829455,
              25.25042377827266
            ],
            [
              82.05778254199447,
              25.249936234654896
            ],
            [
              82.057519844961,
              25.249417049107656
            ],
            [
              82.05692990334761,
              25.248279289966888
            ],
            [
              82.05623562241396,
              25.247267919882894
            ],
            [
              82.05570991663161,
              25.246662931035
            ],
            [
              82.05519393601053,
              25.246279012992407
            ],
            [
              82.05399331517542,
              25.245691622352652
            ],
            [
              82.0528371860997,
              25.245271351650953
            ],
            [
              82.05088702716118,
              25.244913779234498
            ],
            [
              82.05026660840515,
              25.24487734502443
            ],
            [
              82.04953666255811,
              25.244928720661914
            ],
            [
              82.04880256918942,
              25.2449803871596
            ],
            [
              82.04807789016486,
              25.245133477102623
            ],
            [
              82.04697580463494,
              25.24564291614962
            ],
            [
              82.04575448571737,
              25.24629227479241
            ],
            [
              82.04453324405492,
              25.246864851342014
            ],
            [
              82.04385825803527,
              25.246961521743255
            ],
            [
              82.0431831723026,
              25.247058204255186
            ],
            [
              82.0425530382668,
              25.246863721144983
            ],
            [
              82.0420917533684,
              25.246479776111524
            ],
            [
              82.0416731743786,
              25.246035842089743
            ],
            [
              82.04082716440026,
              25.245138573218078
            ],
            [
              82.04015786381802,
              25.244027844938145
            ],
            [
              82.03935621534329,
              25.240845281013982
            ],
            [
              82.03895142639145,
              25.237744199333644
            ],
            [
              82.03893102924458,
              25.23754751713153
            ],
            [
              82.03886762435522,
              25.23693615888456
            ],
            [
              82.03859577618391,
              25.235383306896214
            ],
            [
              82.03838952928292,
              25.2322913861265
            ],
            [
              82.03826155618586,
              25.23093270987207
            ],
            [
              82.03822352780493,
              25.22855400559722
            ],
            [
              82.03836782868058,
              25.227904144245954
            ],
            [
              82.03889511190461,
              25.226098945762015
            ],
            [
              82.04009215474993,
              25.224474738229976
            ],
            [
              82.04194418711667,
              25.222747072661374
            ],
            [
              82.04402910682255,
              25.22127231012367
            ],
            [
              82.04660024237086,
              25.219951177169968
            ],
            [
              82.0477716311283,
              25.21941016065503
            ],
            [
              82.0503869161779,
              25.21870293026378
            ],
            [
              82.05295238605174,
              25.218279932307404
            ],
            [
              82.055016613065,
              25.21803264433916
            ],
            [
              82.05706094419138,
              25.21792072824513
            ],
            [
              82.05779545886995,
              25.21769087200236
            ],
            [
              82.05952266763302,
              25.216667107193906
            ],
            [
              82.06006091928664,
              25.21626362592611
            ],
            [
              82.06059983210032,
              25.215859644313845
            ],
            [
              82.06104156696321,
              25.21544007670259
            ],
            [
              82.06143886576224,
              25.214862489643416
            ],
            [
              82.06169213587512,
              25.2142893048097
            ],
            [
              82.06201070542433,
              25.212353125131653
            ],
            [
              82.06196742100067,
              25.209680998616182
            ],
            [
              82.06194894624855,
              25.20730234367199
            ],
            [
              82.06194880611136,
              25.207284336724353
            ],
            [
              82.06218308044923,
              25.20533003267592
            ],
            [
              82.06247634984679,
              25.20412499989601
            ],
            [
              82.06348935304322,
              25.199468365291875
            ],
            [
              82.06369968009227,
              25.198501469673616
            ],
            [
              82.06384971221944,
              25.195973945387433
            ],
            [
              82.06376724507973,
              25.192340343858724
            ],
            [
              82.06368353467168,
              25.19119390083556
            ],
            [
              82.06334710930957,
              25.189293485238988
            ],
            [
              82.06270310528575,
              25.187541967188373
            ],
            [
              82.06175657382708,
              25.185894077865527
            ],
            [
              82.06139864279706,
              25.185411819678905
            ],
            [
              82.06104275184104,
              25.18493230319028
            ],
            [
              82.05960981769033,
              25.183704017165375
            ],
            [
              82.05794867193157,
              25.182651538189734
            ],
            [
              82.05725433170912,
              25.18240300803329
            ],
            [
              82.05607392117128,
              25.182149698914035
            ],
            [
              82.05536463118585,
              25.1820725818614
            ],
            [
              82.05473461842259,
              25.18220770291744
            ],
            [
              82.05334557056675,
              25.182513985319382
            ],
            [
              82.0521648312455,
              25.182897029904566
            ],
            [
              82.05107306376495,
              25.18358708788047
            ],
            [
              82.05054706243685,
              25.183970468082908
            ],
            [
              82.0499564821213,
              25.184389958800917
            ],
            [
              82.04943279215843,
              25.18507302290422
            ],
            [
              82.04800545990182,
              25.186934680711367
            ],
            [
              82.04668004241246,
              25.18839185361919
            ],
            [
              82.04578226521922,
              25.1894179981942
            ],
            [
              82.04488800942188,
              25.19044009328029
            ],
            [
              82.04320447584958,
              25.193129328621065
            ],
            [
              82.04257376958691,
              25.194203182240138
            ],
            [
              82.04135143467478,
              25.197059647886004
            ],
            [
              82.04114266440611,
              25.197673366247077
            ],
            [
              82.04038245791041,
              25.199455894139945
            ],
            [
              82.03958300042667,
              25.200394241727494
            ],
            [
              82.03835712974553,
              25.20119698561329
            ],
            [
              82.03775168860025,
              25.20133198710579
            ],
            [
              82.03703733660822,
              25.201349668996713
            ],
            [
              82.03631806993327,
              25.20123632733238
            ],
            [
              82.0352022563492,
              25.20066248903582
            ],
            [
              82.03427515006022,
              25.19979527190593
            ],
            [
              82.03351685517943,
              25.198815367948402
            ],
            [
              82.03288765988307,
              25.19774521031738
            ],
            [
              82.03242717897687,
              25.196499127040152
            ],
            [
              82.0321106099758,
              25.195248667624703
            ],
            [
              82.03165009583192,
              25.194133483654085
            ],
            [
              82.03145700655485,
              25.193632385046
            ],
            [
              82.03104131025883,
              25.192350267388647
            ],
            [
              82.03074451227884,
              25.191235140606064
            ],
            [
              82.03053673015697,
              25.19058510434394
            ],
            [
              82.02988826330284,
              25.18877920270062
            ],
            [
              82.02873409704603,
              25.18666150538986
            ],
            [
              82.02785252096889,
              25.18497288661507
            ],
            [
              82.02617416618422,
              25.180959064128043
            ],
            [
              82.02496141988944,
              25.177884445835456
            ],
            [
              82.02443705439345,
              25.176119326863624
            ],
            [
              82.02340733265125,
              25.17373989528367
            ],
            [
              82.023115226572,
              25.17318447440522
            ],
            [
              82.0226010452764,
              25.17225458711657
            ],
            [
              82.02221390193166,
              25.171554435689185
            ],
            [
              82.02060426197805,
              25.168836147085372
            ],
            [
              82.0192165023063,
              25.1676073549346
            ],
            [
              82.01808133721437,
              25.16695659017522
            ],
            [
              82.0157460956664,
              25.166034138668753
            ],
            [
              82.01191353860962,
              25.16471778477509
            ],
            [
              82.00991538088884,
              25.16416102271607
            ],
            [
              82.00720326823141,
              25.163296819993896
            ],
            [
              82.00539366688878,
              25.162699533797113
            ],
            [
              82.00399058016166,
              25.162210932131167
            ],
            [
              82.00285549771475,
              25.16159614240591
            ],
            [
              82.00115035786324,
              25.160637792606128
            ],
            [
              81.99967850420283,
              25.15954422095141
            ],
            [
              81.99818211216211,
              25.158315261185777
            ],
            [
              81.99613815203993,
              25.156332503096202
            ],
            [
              81.99211376334749,
              25.153905357346748
            ],
            [
              81.98819768003725,
              25.152184996092622
            ],
            [
              81.98658430668529,
              25.152036158247792
            ],
            [
              81.98602612411047,
              25.151984661275613
            ],
            [
              81.98529635972311,
              25.151949740964
            ],
            [
              81.98238063312671,
              25.15203138105096
            ],
            [
              81.98064031255376,
              25.152673377711608
            ],
            [
              81.97934425560119,
              25.153752371392905
            ],
            [
              81.97801056103482,
              25.15554011304758
            ],
            [
              81.97710951756719,
              25.157012458159166
            ],
            [
              81.97595162330195,
              25.158657053780264
            ],
            [
              81.97525395482135,
              25.159647949216794
            ],
            [
              81.97339695387278,
              25.16219487477002
            ],
            [
              81.9711044290132,
              25.16488006319684
            ],
            [
              81.96870510704275,
              25.166946854015784
            ],
            [
              81.9663420383822,
              25.16821640524637
            ],
            [
              81.96378115261126,
              25.169267035657153
            ],
            [
              81.96293076424419,
              25.169299976174223
            ],
            [
              81.96208034713102,
              25.169332875218103
            ],
            [
              81.9591142115725,
              25.169326153130722
            ],
            [
              81.95733409024254,
              25.168972394222717
            ],
            [
              81.95555393567493,
              25.16861860664533
            ],
            [
              81.95392429742643,
              25.168315973172096
            ],
            [
              81.95144096770555,
              25.16808171097019
            ],
            [
              81.9492661338263,
              25.168950212405633
            ],
            [
              81.94724718639488,
              25.170480623114
            ],
            [
              81.94643481562896,
              25.171420500387445
            ],
            [
              81.94549348002589,
              25.173468583853808
            ],
            [
              81.94509076618232,
              25.17577547433711
            ],
            [
              81.94511963444228,
              25.177678616912715
            ],
            [
              81.94553078077142,
              25.17913426727688
            ],
            [
              81.94659269184518,
              25.18182115807912
            ],
            [
              81.94671078976234,
              25.183191905136496
            ],
            [
              81.9468288526452,
              25.184562700182177
            ],
            [
              81.9463196210668,
              25.186251301880326
            ],
            [
              81.94631779299522,
              25.186253961727463
            ],
            [
              81.94536800244867,
              25.187635511165666
            ],
            [
              81.94449880156293,
              25.188044836960263
            ],
            [
              81.94265992682011,
              25.18864334513258
            ],
            [
              81.940563905734,
              25.188315490822134
            ],
            [
              81.9387359967259,
              25.187021572327616
            ],
            [
              81.9383518546525,
              25.18674964420244
            ],
            [
              81.93573481159989,
              25.18412633696996
            ],
            [
              81.93501578926671,
              25.18320568433549
            ],
            [
              81.93429679298467,
              25.182285084089475
            ],
            [
              81.93319849475198,
              25.180395389738354
            ],
            [
              81.93239525805585,
              25.178723305135772
            ],
            [
              81.93261438859469,
              25.177126921949004
            ],
            [
              81.9326671700075,
              25.17396390939779
            ],
            [
              81.9328876255614,
              25.17245615367661
            ],
            [
              81.93263115205619,
              25.171573972312206
            ],
            [
              81.93233077698477,
              25.17100221625702
            ],
            [
              81.93203046120212,
              25.170430507114553
            ],
            [
              81.93158028307388,
              25.16959511032191
            ],
            [
              81.93156628283019,
              25.16866562168385
            ],
            [
              81.93202443170993,
              25.16680076274869
            ],
            [
              81.93253910977388,
              25.165466263343212
            ],
            [
              81.93094418871617,
              25.16287446298513
            ],
            [
              81.92822594236196,
              25.159942409907803
            ],
            [
              81.92594978929846,
              25.157953189723486
            ],
            [
              81.92458026183373,
              25.15675625772317
            ],
            [
              81.92375852523261,
              25.156129929271966
            ],
            [
              81.91929234238846,
              25.15272561515941
            ],
            [
              81.9170904261,
              25.151779039896322
            ],
            [
              81.91569978283621,
              25.151442115027777
            ],
            [
              81.91430924557365,
              25.151105177031774
            ],
            [
              81.91128830020637,
              25.150655525938145
            ],
            [
              81.90894000703562,
              25.149666364299364
            ],
            [
              81.90473486113832,
              25.14803602509153
            ],
            [
              81.90146644158838,
              25.147279368039623
            ],
            [
              81.89936913411475,
              25.146818138693856
            ],
            [
              81.89708535076119,
              25.14689041932684
            ],
            [
              81.8948100645719,
              25.14753809293706
            ],
            [
              81.89190864184978,
              25.148591710930972
            ],
            [
              81.88949465667898,
              25.1497278811362
            ],
            [
              81.88808102013715,
              25.150797320351757
            ],
            [
              81.88591125455271,
              25.152018919681254
            ],
            [
              81.8840144618303,
              25.15249036025992
            ],
            [
              81.88310174026397,
              25.152717204087786
            ],
            [
              81.88134922685765,
              25.152561395061053
            ],
            [
              81.87768997727706,
              25.151676243306753
            ],
            [
              81.87666634521416,
              25.15148944730792
            ],
            [
              81.87564271584624,
              25.151302643704845
            ],
            [
              81.87179425232067,
              25.15077369026485
            ],
            [
              81.86965297411052,
              25.150622541354664
            ],
            [
              81.86742537588641,
              25.151224862317907
            ],
            [
              81.86446234041392,
              25.15139340770253
            ],
            [
              81.86105393639325,
              25.15103600186225
            ],
            [
              81.85751592164672,
              25.150024091280784
            ],
            [
              81.85165298160497,
              25.14801378498495
            ],
            [
              81.8489323484271,
              25.148134763797163
            ],
            [
              81.8470405009303,
              25.148423016933688
            ],
            [
              81.84555989228913,
              25.14857346599529
            ],
            [
              81.84407931059741,
              25.14872389535554
            ],
            [
              81.84122173733928,
              25.149466176594743
            ],
            [
              81.83760026101804,
              25.151191323323086
            ],
            [
              81.83574990670422,
              25.15171574331251
            ],
            [
              81.83270989998492,
              25.152577272360837
            ],
            [
              81.82947609162454,
              25.15344454578538
            ],
            [
              81.82873847506329,
              25.153642356692046
            ],
            [
              81.82591989228175,
              25.1537199007307
            ],
            [
              81.82467103191587,
              25.15335134066758
            ],
            [
              81.82466155109637,
              25.153367530920015
            ],
            [
              81.82413950235554,
              25.15425897212495
            ],
            [
              81.82392696365427,
              25.154704167040975
            ],
            [
              81.82339672587128,
              25.15502026784547
            ],
            [
              81.82288981194635,
              25.155269720605734
            ],
            [
              81.82318396977773,
              25.15544327814935
            ],
            [
              81.82359905432105,
              25.155571226134235
            ],
            [
              81.82379813625936,
              25.15590092077425
            ],
            [
              81.82360566142997,
              25.156035930980817
            ],
            [
              81.82311861015428,
              25.15597529467373
            ],
            [
              81.82265645568667,
              25.155958551849967
            ],
            [
              81.82248950918103,
              25.156181908296436
            ],
            [
              81.82276097287337,
              25.156466475296376
            ],
            [
              81.82308664001161,
              25.157148723384132
            ],
            [
              81.82295088121599,
              25.15785858788994
            ],
            [
              81.82310079476557,
              25.15814458609895
            ],
            [
              81.82344423237676,
              25.158361841123533
            ],
            [
              81.82371601676765,
              25.158668494849998
            ],
            [
              81.82376896526713,
              25.158977818818162
            ],
            [
              81.82368216465451,
              25.15970920083277
            ],
            [
              81.82332483369912,
              25.16022247014792
            ],
            [
              81.82338124161072,
              25.160775144123935
            ],
            [
              81.82267700195385,
              25.16082771471849
            ],
            [
              81.82197622081081,
              25.16112372391682
            ],
            [
              81.82159397957261,
              25.16159300311881
            ],
            [
              81.8215008808715,
              25.16188186028518
            ],
            [
              81.8215068519732,
              25.162302293751914
            ],
            [
              81.82106989075773,
              25.162351712224634
            ],
            [
              81.82055948687793,
              25.162357714315476
            ],
            [
              81.82031741336672,
              25.16242693103691
            ],
            [
              81.82019993888039,
              25.162716074054618
            ],
            [
              81.82020213705789,
              25.162870974924914
            ],
            [
              81.8194748690887,
              25.163012264862402
            ],
            [
              81.81870369326508,
              25.163202948372074
            ],
            [
              81.81819956142259,
              25.163651557219737
            ],
            [
              81.81822618389432,
              25.163817216956314
            ],
            [
              81.81825280995936,
              25.163982878907035
            ],
            [
              81.8183809582279,
              25.164446154877062
            ],
            [
              81.81855576858554,
              25.164776141808627
            ],
            [
              81.81799534022251,
              25.166398456162366
            ],
            [
              81.81802661417083,
              25.166885054792843
            ],
            [
              81.81803383033747,
              25.16739402871489
            ],
            [
              81.81768419524911,
              25.168460529248563
            ],
            [
              81.81747296718986,
              25.168994159766036
            ],
            [
              81.81726800937125,
              25.16997049620481
            ],
            [
              81.8172474990367,
              25.170236312097018
            ],
            [
              81.81677450370024,
              25.17117142212369
            ],
            [
              81.81641680084232,
              25.171662582199758
            ],
            [
              81.8158358441784,
              25.171846415600395
            ],
            [
              81.81525843496155,
              25.172273779726286
            ],
            [
              81.81480164882608,
              25.172633263975584
            ],
            [
              81.8141197367956,
              25.172552697833535
            ],
            [
              81.81359023922444,
              25.172935216007232
            ],
            [
              81.81296207878728,
              25.17320814730465
            ],
            [
              81.81240016910233,
              25.173015520110496
            ],
            [
              81.81198816757706,
              25.173108898004827
            ],
            [
              81.81140282264296,
              25.172982912301404
            ],
            [
              81.81076903336223,
              25.172857490690504
            ],
            [
              81.81031400702643,
              25.173349775666775
            ],
            [
              81.81002450875647,
              25.17350808574547
            ],
            [
              81.80941426701428,
              25.173338197764703
            ],
            [
              81.80900038890837,
              25.173298755979843
            ],
            [
              81.8083989865886,
              25.17374837401018
            ],
            [
              81.80794488372088,
              25.174307010952457
            ],
            [
              81.80746619216725,
              25.17484384019017
            ],
            [
              81.80738383372369,
              25.1753665609733
            ],
            [
              81.80719745037021,
              25.175944254893686
            ],
            [
              81.80649405512969,
              25.176063110956775
            ],
            [
              81.80581129598788,
              25.175916147716116
            ],
            [
              81.80497947669605,
              25.17554962295833
            ],
            [
              81.80431788186236,
              25.175181018294367
            ],
            [
              81.80353160715542,
              25.17459256490619
            ],
            [
              81.8027016698341,
              25.17435874808853
            ],
            [
              81.80240687330054,
              25.17414088173652
            ],
            [
              81.80139146441577,
              25.174551104060562
            ],
            [
              81.8005721972834,
              25.17506968962468
            ],
            [
              81.79987718781608,
              25.17578602927693
            ],
            [
              81.79954337026322,
              25.176254686218982
            ],
            [
              81.79986958627215,
              25.176981338794157
            ],
            [
              81.8000035825732,
              25.17786505980985
            ],
            [
              81.79937682171125,
              25.178248658003255
            ],
            [
              81.79865720289672,
              25.1789430908266
            ],
            [
              81.79906280662053,
              25.181859966263985
            ],
            [
              81.79900229969624,
              25.182746036242886
            ],
            [
              81.79844533523695,
              25.182907429770164
            ],
            [
              81.79902993097606,
              25.184715559687415
            ],
            [
              81.79462423708989,
              25.186942991873966
            ],
            [
              81.79274066756847,
              25.187872264721996
            ],
            [
              81.79206332706445,
              25.18812358416048
            ],
            [
              81.79109034740718,
              25.188090560937443
            ],
            [
              81.78972885896592,
              25.188106300295694
            ],
            [
              81.78846436881244,
              25.188098815118238
            ],
            [
              81.78658507167847,
              25.187589269198632
            ],
            [
              81.78505715056791,
              25.187872550863116
            ],
            [
              81.78457985230128,
              25.18851984425475
            ],
            [
              81.78453186879038,
              25.190313215875555
            ],
            [
              81.78503412944214,
              25.19145836333295
            ],
            [
              81.78562836769751,
              25.19222613460326
            ],
            [
              81.78616512006295,
              25.19235277834725
            ],
            [
              81.7868215091596,
              25.19234520726639
            ],
            [
              81.78733264965794,
              25.19238358615475
            ],
            [
              81.78755679279605,
              25.19275721920982
            ],
            [
              81.78747058776645,
              25.193555020022668
            ],
            [
              81.78747367168283,
              25.193776278688883
            ],
            [
              81.7889573256128,
              25.19380342663467
            ],
            [
              81.7901609899401,
              25.194674880770734
            ],
            [
              81.79082758928826,
              25.195397519373024
            ],
            [
              81.79223013702617,
              25.196576505637303
            ],
            [
              81.79318199279957,
              25.19874777560172
            ],
            [
              81.79359385778092,
              25.20038080097924
            ],
            [
              81.79384146311762,
              25.20243631437195
            ],
            [
              81.79376437059824,
              25.203875890952705
            ],
            [
              81.79342259666696,
              25.207102682195018
            ],
            [
              81.79273744171826,
              25.21027554313211
            ],
            [
              81.79020904262127,
              25.21549272611542
            ],
            [
              81.78932642629506,
              25.218468730822696
            ],
            [
              81.78889163630764,
              25.220421465884275
            ],
            [
              81.7867965728256,
              25.22335630562262
            ],
            [
              81.78643596122281,
              25.223659259065226
            ],
            [
              81.7860752993143,
              25.223962219067175
            ],
            [
              81.78501457581335,
              25.22463841039216
            ],
            [
              81.78429831579966,
              25.225598376946653
            ],
            [
              81.78391903091703,
              25.226310985958698
            ],
            [
              81.78713679806137,
              25.228575726362617
            ],
            [
              81.78925233684367,
              25.230277631225707
            ],
            [
              81.79268984268631,
              25.232812739723794
            ],
            [
              81.79604732840005,
              25.234610820207145
            ],
            [
              81.79693489893505,
              25.235463686015226
            ],
            [
              81.79675778889028,
              25.23670520260097
            ],
            [
              81.79609663243444,
              25.238129343685895
            ],
            [
              81.79620752137141,
              25.239101860957557
            ],
            [
              81.7968760386227,
              25.239935175292175
            ],
            [
              81.79751521330357,
              25.240414708294292
            ],
            [
              81.79805393926766,
              25.240674021966733
            ],
            [
              81.79855670477261,
              25.240966981819643
            ],
            [
              81.7990594729725,
              25.241259941778896
            ],
            [
              81.80076365162662,
              25.243487280059238
            ],
            [
              81.80189521177934,
              25.244381555600114
            ],
            [
              81.80324878696125,
              25.2454945296912
            ],
            [
              81.80419636226229,
              25.245417131016396
            ],
            [
              81.8059397595651,
              25.244843506806056
            ],
            [
              81.8081019307921,
              25.244641186629373
            ],
            [
              81.8100928480917,
              25.24437455977297
            ],
            [
              81.81344364494983,
              25.2439369858296
            ],
            [
              81.81439182841032,
              25.243903699867484
            ],
            [
              81.81490318180938,
              25.24394198692964
            ],
            [
              81.81614797370533,
              25.246598429242088
            ],
            [
              81.81638003369605,
              25.247525324988153
            ],
            [
              81.8175571752646,
              25.248197572202052
            ],
            [
              81.81840845116717,
              25.248187584164526
            ],
            [
              81.81933457739417,
              25.248309541678385
            ],
            [
              81.82050272682669,
              25.248340098068727
            ],
            [
              81.822063758042,
              25.248631590761324
            ],
            [
              81.82304423144537,
              25.2491511883485
            ],
            [
              81.82417662613298,
              25.250089568599048
            ],
            [
              81.82432791230829,
              25.250464088799845
            ],
            [
              81.82424670280996,
              25.25184767002909
            ],
            [
              81.82416873533151,
              25.253176009853355
            ],
            [
              81.80733924404792,
              25.262759800131434
            ],
            [
              81.8073528499312,
              25.262802135940124
            ],
            [
              81.80879588743393,
              25.267292069618673
            ],
            [
              81.8121989895978,
              25.275141657996087
            ],
            [
              81.80981318457745,
              25.276591048237478
            ],
            [
              81.81037409713241,
              25.280442811694208
            ],
            [
              81.81038387259936,
              25.28046507066034
            ],
            [
              81.81168253286963,
              25.283421955605647
            ],
            [
              81.81169195709526,
              25.28344461528262
            ],
            [
              81.81325560959456,
              25.287204241135328
            ],
            [
              81.81483866660231,
              25.29167729988574
            ],
            [
              81.81552728814967,
              25.291608935597043
            ],
            [
              81.81812665415411,
              25.29135084261769
            ],
            [
              81.8208357897947,
              25.29039773177994
            ],
            [
              81.82482675936197,
              25.2905235731353
            ],
            [
              81.8250624296818,
              25.290738774903144
            ],
            [
              81.82605047318809,
              25.29164099016955
            ],
            [
              81.82569516613702,
              25.293372732635035
            ],
            [
              81.82557416935644,
              25.298211283080036
            ],
            [
              81.82598027074697,
              25.300049204929074
            ],
            [
              81.8261521939193,
              25.301137591
            ],
            [
              81.8268156051465,
              25.305337261155625
            ],
            [
              81.827008772577,
              25.309999305940217
            ],
            [
              81.82692587694088,
              25.310117673645543
            ],
            [
              81.82692485555641,
              25.31011913133517
            ],
            [
              81.82582945888211,
              25.311683214088557
            ],
            [
              81.82676520067591,
              25.314476226957243
            ],
            [
              81.82925979527046,
              25.321921484692922
            ],
            [
              81.83012165242877,
              25.323900818149532
            ],
            [
              81.83150935011672,
              25.327087645839907
            ],
            [
              81.83187917663774,
              25.327936919200344
            ],
            [
              81.83354799400901,
              25.332840011617556
            ],
            [
              81.83391179193615,
              25.333908820686737
            ],
            [
              81.8338390373813,
              25.333916273335333
            ],
            [
              81.82594474956397,
              25.334724639000488
            ],
            [
              81.8258646414002,
              25.33473205506251
            ],
            [
              81.8248272480455,
              25.3348280911574
            ],
            [
              81.82217485628644,
              25.33552670937647
            ],
            [
              81.82117638783129,
              25.335946111227848
            ],
            [
              81.82036682160567,
              25.335945858723807
            ],
            [
              81.81940812965301,
              25.336256905166902
            ],
            [
              81.82021736170533,
              25.336889060014915
            ],
            [
              81.82067401399182,
              25.337584352975412
            ],
            [
              81.8209469796673,
              25.33804036421543
            ],
            [
              81.82036589274769,
              25.338004018056832
            ],
            [
              81.81986923578665,
              25.33793611914577
            ],
            [
              81.81929311295727,
              25.33789980137225
            ],
            [
              81.81867737083064,
              25.337619749338298
            ],
            [
              81.81817549914936,
              25.338283026728902
            ],
            [
              81.81794703691138,
              25.338143034118197
            ],
            [
              81.81752470565864,
              25.338494905022387
            ],
            [
              81.81744537633419,
              25.338215002942576
            ],
            [
              81.81713737276938,
              25.33842249388252
            ],
            [
              81.81683447163536,
              25.33831862586099
            ],
            [
              81.81540901865431,
              25.338421844367694
            ],
            [
              81.81498726142505,
              25.337478340006857
            ],
            [
              81.81302546481204,
              25.337549705985303
            ],
            [
              81.81299946038119,
              25.33755065184811
            ],
            [
              81.81323979565231,
              25.338468426751156
            ],
            [
              81.81371439537985,
              25.340280748055108
            ],
            [
              81.81411070513373,
              25.34223079518038
            ],
            [
              81.8141584991001,
              25.342837551320198
            ],
            [
              81.81420456470788,
              25.34342233061627
            ],
            [
              81.81362693720043,
              25.346342420189824
            ],
            [
              81.8134121167783,
              25.347099346956842
            ],
            [
              81.81327855256693,
              25.34756996210279
            ],
            [
              81.81251337120116,
              25.34923654867786
            ],
            [
              81.81223429698176,
              25.34984436481731
            ],
            [
              81.81147429530193,
              25.35082686871221
            ],
            [
              81.81017153871397,
              25.352510980172696
            ],
            [
              81.81012021706346,
              25.352579789859035
            ],
            [
              81.80903573222491,
              25.354033770729238
            ],
            [
              81.80750490955597,
              25.35297874271634
            ],
            [
              81.79972856963715,
              25.352125443229355
            ],
            [
              81.79966278960217,
              25.352462622109034
            ],
            [
              81.7995064225556,
              25.35326413164565
            ],
            [
              81.79843364456181,
              25.353037903136144
            ],
            [
              81.79710419273857,
              25.3579659303908
            ],
            [
              81.79701215225286,
              25.35804954107367
            ],
            [
              81.79700976902242,
              25.35805170523063
            ],
            [
              81.79706925815549,
              25.358169016928574
            ],
            [
              81.7972480462532,
              25.358254940988246
            ],
            [
              81.7975659447609,
              25.35831375382841
            ],
            [
              81.79802788363283,
              25.35838617660123
            ],
            [
              81.79825124703329,
              25.358544298327388
            ],
            [
              81.79833062127346,
              25.358779012381977
            ],
            [
              81.79826580692742,
              25.35919875004313
            ],
            [
              81.79823579960365,
              25.359442465162065
            ],
            [
              81.79822084804405,
              25.35961853495195
            ],
            [
              81.79823563880522,
              25.359690710982587
            ],
            [
              81.7983001962331,
              25.359735893022712
            ],
            [
              81.79847409569908,
              25.359704422264286
            ],
            [
              81.79873254190461,
              25.35953298283209
            ],
            [
              81.79893631125212,
              25.35937064615447
            ],
            [
              81.79898101142065,
              25.359379699634577
            ],
            [
              81.79937837489837,
              25.35947017270526
            ],
            [
              81.7995418350424,
              25.360224053611095
            ],
            [
              81.8022332630921,
              25.36180063822591
            ],
            [
              81.80230654316142,
              25.36185363325086
            ],
            [
              81.80237982412905,
              25.36190662662911
            ],
            [
              81.80115997934686,
              25.363299692969086
            ],
            [
              81.79947404098456,
              25.36522497286711
            ],
            [
              81.79900412058133,
              25.365639008603882
            ],
            [
              81.7989645929122,
              25.365673800148667
            ],
            [
              81.79845514124659,
              25.366122624951647
            ],
            [
              81.79712299357914,
              25.367295431201335
            ],
            [
              81.79542333165425,
              25.36836423369
            ],
            [
              81.79445403598797,
              25.36921231628991
            ],
            [
              81.79301195159775,
              25.37120646665553
            ],
            [
              81.79206201013425,
              25.37274509911516
            ],
            [
              81.79162901677739,
              25.373904789669684
            ],
            [
              81.79141456735952,
              25.37505109638655
            ],
            [
              81.79141420174521,
              25.37557197417349
            ],
            [
              81.79141368521391,
              25.376305845936255
            ],
            [
              81.79148244855396,
              25.377483948253015
            ],
            [
              81.79155157840667,
              25.378079775842572
            ],
            [
              81.79171510772099,
              25.37873885189968
            ],
            [
              81.7921763369238,
              25.379899071709886
            ],
            [
              81.79304965928011,
              25.38150185791586
            ],
            [
              81.79351616159366,
              25.382328078776585
            ],
            [
              81.7939826683988,
              25.383154295607692
            ],
            [
              81.79516219229947,
              25.38470122932293
            ],
            [
              81.79564564582245,
              25.385335258832292
            ],
            [
              81.7960877804356,
              25.385934958663704
            ],
            [
              81.7972668120595,
              25.387534137700573
            ],
            [
              81.79819238582262,
              25.388789503375808
            ],
            [
              81.79926259912621,
              25.389983506286992
            ],
            [
              81.800754492404,
              25.391647911674852
            ],
            [
              81.80397240597375,
              25.39483598736149
            ],
            [
              81.80662425964192,
              25.397631118927432
            ],
            [
              81.80903257285004,
              25.40072403965477
            ],
            [
              81.81069110990124,
              25.402814492397344
            ],
            [
              81.81209635887325,
              25.4048552353756
            ],
            [
              81.81261435172057,
              25.405445620226267
            ],
            [
              81.81295417810435,
              25.405805860741456
            ],
            [
              81.81329536813072,
              25.40608880009716
            ],
            [
              81.81650730071732,
              25.408752271975153
            ],
            [
              81.81783840633902,
              25.41024221760085
            ],
            [
              81.81996928744805,
              25.412725478098963
            ],
            [
              81.82010247257038,
              25.412822326083766
            ],
            [
              81.8202490973877,
              25.412928944784863
            ],
            [
              81.8202828991952,
              25.41295352511981
            ],
            [
              81.82213044088384,
              25.414296951187435
            ],
            [
              81.82372021010342,
              25.415502616751915
            ],
            [
              81.82547915185388,
              25.416338291792623
            ],
            [
              81.82676618433113,
              25.416808114670477
            ],
            [
              81.82824612013418,
              25.417325561944196
            ],
            [
              81.82829586164809,
              25.417342952704917
            ],
            [
              81.82928562273317,
              25.41768900430558
            ],
            [
              81.83140753416413,
              25.418317103918312
            ],
            [
              81.83261055619597,
              25.41840956527815
            ],
            [
              81.8326449526882,
              25.418412207864783
            ],
            [
              81.83482170626722,
              25.41869270792407
            ],
            [
              81.8360144129447,
              25.419040508981915
            ],
            [
              81.83710999377364,
              25.419304405736224
            ],
            [
              81.83743167418865,
              25.419381888827903
            ],
            [
              81.83809665656929,
              25.419542061284798
            ],
            [
              81.83935391887802,
              25.42004342570312
            ],
            [
              81.8417771162721,
              25.421185112607226
            ],
            [
              81.84338902087858,
              25.42194452929846
            ],
            [
              81.84604781762559,
              25.42291544021556
            ],
            [
              81.84642537594623,
              25.423011669899005
            ],
            [
              81.84845815473805,
              25.423529750150966
            ],
            [
              81.8517382937092,
              25.42456845231382
            ],
            [
              81.85439224584188,
              25.425462515253876
            ],
            [
              81.85690897941662,
              25.426207278005432
            ],
            [
              81.85700149061951,
              25.426234653007363
            ],
            [
              81.86032644204862,
              25.427097113286507
            ],
            [
              81.86278172277306,
              25.427801508181588
            ],
            [
              81.86615652980211,
              25.42828918829999
            ],
            [
              81.86764263613283,
              25.428560044314853
            ],
            [
              81.86892151909379,
              25.428618633877946
            ],
            [
              81.8689249623363,
              25.428618791267695
            ],
            [
              81.8702881710513,
              25.428565588655086
            ],
            [
              81.87042602831144,
              25.42856020900627
            ],
            [
              81.87233468059223,
              25.428212652030414
            ],
            [
              81.87358218360372,
              25.427928374032227
            ],
            [
              81.87413944989694,
              25.427723612685917
            ],
            [
              81.87485960770067,
              25.427458996084823
            ],
            [
              81.87738951417073,
              25.426556220788022
            ],
            [
              81.87941231986623,
              25.425834059125727
            ],
            [
              81.87984858219238,
              25.42565644462229
            ],
            [
              81.88114194509744,
              25.425129874219454
            ],
            [
              81.88287649938458,
              25.42410070095419
            ],
            [
              81.88403952392844,
              25.423484048397
            ],
            [
              81.88465576911165,
              25.423157300228787
            ],
            [
              81.88689716815347,
              25.42182113127759
            ],
            [
              81.88734932976185,
              25.421396839833534
            ],
            [
              81.88745351457186,
              25.421225350877524
            ],
            [
              81.88766745374666,
              25.420873208154706
            ],
            [
              81.8884624627731,
              25.41974025001452
            ],
            [
              81.88917311999437,
              25.418846520288405
            ],
            [
              81.88943538134494,
              25.41867847271474
            ],
            [
              81.89028625570059,
              25.418133257657868
            ],
            [
              81.89142929722094,
              25.417681852159003
            ],
            [
              81.89155339318923,
              25.41762900334061
            ],
            [
              81.89206541493488,
              25.41741094735853
            ],
            [
              81.89269157212892,
              25.417288993792592
            ],
            [
              81.89339725897175,
              25.417130907606413
            ],
            [
              81.89396879769821,
              25.41694132074611
            ],
            [
              81.89463965056926,
              25.4165801479624
            ],
            [
              81.89573794071707,
              25.41586684190363
            ],
            [
              81.89647822886799,
              25.41490533896456
            ],
            [
              81.89730806378138,
              25.41393482116121
            ],
            [
              81.8982223196702,
              25.41313584493649
            ],
            [
              81.89866452435194,
              25.41263929501118
            ],
            [
              81.89999594887558,
              25.41056731303994
            ],
            [
              81.90147144700113,
              25.408454799789812
            ],
            [
              81.90268373785011,
              25.407086905634454
            ],
            [
              81.90364757625105,
              25.406179502708685
            ],
            [
              81.90391637464194,
              25.405986870339206
            ],
            [
              81.90576418672346,
              25.404662603325878
            ],
            [
              81.90723479621721,
              25.40347070368274
            ],
            [
              81.90818368216027,
              25.402495527765776
            ],
            [
              81.90866563729335,
              25.40201253908312
            ],
            [
              81.90889907440139,
              25.401547516837308
            ],
            [
              81.90948506522416,
              25.400261084958185
            ],
            [
              81.91005617635254,
              25.399132595976763
            ],
            [
              81.91120360434643,
              25.397742137997962
            ],
            [
              81.91347349615243,
              25.394658766232933
            ],
            [
              81.9151126071356,
              25.39269954421272
            ],
            [
              81.91665726026665,
              25.39068154770856
            ],
            [
              81.91716694729085,
              25.38997745701364
            ],
            [
              81.91779453999274,
              25.389110474684006
            ],
            [
              81.91803376135293,
              25.388733954027487
            ],
            [
              81.91853450385184,
              25.387945802693174
            ],
            [
              81.91864865367332,
              25.387422223823954
            ],
            [
              81.91877237684075,
              25.386212520057786
            ],
            [
              81.91868250937976,
              25.38498934978528
            ],
            [
              81.91832933942075,
              25.38369414263082
            ],
            [
              81.91763809209782,
              25.381920524870647
            ],
            [
              81.91701420943804,
              25.380815629955894
            ],
            [
              81.91642003406474,
              25.379763327396496
            ],
            [
              81.91554004620903,
              25.377926584347342
            ],
            [
              81.91468477460008,
              25.375769396701482
            ],
            [
              81.91407811623756,
              25.374090438634102
            ],
            [
              81.9138790846049,
              25.372921531006046
            ],
            [
              81.91396296479455,
              25.371084475323077
            ],
            [
              81.91426560002724,
              25.369947021321586
            ],
            [
              81.91507465331485,
              25.36760875094136
            ]
          ]
        ]
      }
    }
  ]
}