{
  "type": "FeatureCollection",
  "features": [
    {
      "type": "Feature",
      "properties": {
        "object_id": "09-193-00980",
        "stcode11": "09",
        "dtcode11": "193",
        "sdtcode11": "00980",
        "stname": "UTTAR PRADESH",
        "dtname": "Ballia",
        "sdtname": "Bairia",
        "st_area_sh": 0.0,
        "st_length_": 0.0,
        "remarks": "",
        "dist_lgd": 126,
        "state_lgd": 9,
        "subdt_lgd": 980,
        "ac_no": 363,
        "st_length(shape)": 142249.26855860045,
        "st_area(shape)": 412889064.104129
      },
      "geometry": {
        "type": "Polygon",
        "coordinates": [
          [
            [
              84.53560380343227,
              25.87313428727569
            ],
            [
              84.53683251189135,
              25.871226014150885
            ],
            [
              84.5376067842078,
              25.869813779322158
            ],
            [
              84.53822115101376,
              25.868780666273405
            ],
            [
              84.53862079261903,
              25.86800463411668
            ],
            [
              84.53940005777181,
              25.866556283249565
            ],
            [
              84.53971472234447,
              25.8660148949868
            ],
            [
              84.54046883377099,
              25.864792271259834
            ],
            [
              84.54136787130058,
              25.863217693832002
            ],
            [
              84.54193724598554,
              25.86230184306218
            ],
            [
              84.54268140138376,
              25.86098436594509
            ],
            [
              84.54322087115291,
              25.859955641899894
            ],
            [
              84.54320089890918,
              25.859869928975126
            ],
            [
              84.5431593644037,
              25.859857375126097
            ],
            [
              84.54303080291014,
              25.85981851638766
            ],
            [
              84.54161496729252,
              25.859390560960357
            ],
            [
              84.5413855465521,
              25.859385951666404
            ],
            [
              84.54065709280674,
              25.859660776664448
            ],
            [
              84.5391149837046,
              25.860639276094517
            ],
            [
              84.53746814092176,
              25.861563544965865
            ],
            [
              84.53636524241655,
              25.862298485199066
            ],
            [
              84.53492289032836,
              25.863186756298667
            ],
            [
              84.53395067513739,
              25.863821756985406
            ],
            [
              84.53385980515652,
              25.863881108902138
            ],
            [
              84.5337001080552,
              25.864029919809013
            ],
            [
              84.53322513732344,
              25.863899389367297
            ],
            [
              84.53271263408082,
              25.86375854039152
            ],
            [
              84.53013935605054,
              25.862786463996517
            ],
            [
              84.5292218563452,
              25.862384219804756
            ],
            [
              84.52783538755253,
              25.861932015174798
            ],
            [
              84.52664358458027,
              25.86151596631017
            ],
            [
              84.52458399736543,
              25.860778892812846
            ],
            [
              84.52321937380384,
              25.86029028733301
            ],
            [
              84.52337801268976,
              25.860164661117963
            ],
            [
              84.52401623605472,
              25.859659248050825
            ],
            [
              84.52543397699907,
              25.85837844962732
            ],
            [
              84.5259731637989,
              25.85788686021496
            ],
            [
              84.52694661956326,
              25.857002959812903
            ],
            [
              84.52830934588296,
              25.855726607854304
            ],
            [
              84.52943750142074,
              25.85471635922573
            ],
            [
              84.53040086281625,
              25.853931715787045
            ],
            [
              84.53075527334867,
              25.853503200652113
            ],
            [
              84.530631295958,
              25.85266810194088
            ],
            [
              84.5305317841841,
              25.85213008582739
            ],
            [
              84.53043260029524,
              25.851593836892377
            ],
            [
              84.53046827598844,
              25.851399426822617
            ],
            [
              84.53053776606558,
              25.851020744948837
            ],
            [
              84.5305729863129,
              25.850727406368705
            ],
            [
              84.53083793901608,
              25.849933218825036
            ],
            [
              84.53091817204569,
              25.849364666269217
            ],
            [
              84.53078957911107,
              25.847978974148592
            ],
            [
              84.53065095738464,
              25.846778390623378
            ],
            [
              84.53051240932004,
              25.845329536342874
            ],
            [
              84.53037829444138,
              25.844593805858473
            ],
            [
              84.5303091645887,
              25.84382651376087
            ],
            [
              84.53028006097011,
              25.842707211346518
            ],
            [
              84.5304606798344,
              25.841430022727412
            ],
            [
              84.53065628888585,
              25.839954361893984
            ],
            [
              84.53066247288827,
              25.839907666316094
            ],
            [
              84.53084695271163,
              25.838514715396876
            ],
            [
              84.53093588322982,
              25.837497288096248
            ],
            [
              84.53097278871664,
              25.837075048957082
            ],
            [
              84.5311333059798,
              25.83599651315279
            ],
            [
              84.53118863231983,
              25.835382773685918
            ],
            [
              84.53120941664056,
              25.834367290665117
            ],
            [
              84.53113498133781,
              25.83381208100435
            ],
            [
              84.53090629901257,
              25.832977005788887
            ],
            [
              84.53052674822861,
              25.831629533701605
            ],
            [
              84.53052169520512,
              25.831611595926294
            ],
            [
              84.53073255136187,
              25.83160272931974
            ],
            [
              84.53184497470409,
              25.83155593988798
            ],
            [
              84.53261620712159,
              25.831510829806422
            ],
            [
              84.53266293478771,
              25.831508096890605
            ],
            [
              84.53306686405188,
              25.83148446929444
            ],
            [
              84.53458311335191,
              25.831255268753477
            ],
            [
              84.53530120143722,
              25.831251213841494
            ],
            [
              84.53750061142605,
              25.831076536348572
            ],
            [
              84.5391613915705,
              25.830951176651546
            ],
            [
              84.54006424963501,
              25.830726051839108
            ],
            [
              84.54185990463283,
              25.83028924086978
            ],
            [
              84.54383029991976,
              25.829536694857136
            ],
            [
              84.54472801333262,
              25.829352154326664
            ],
            [
              84.54635407718462,
              25.82896034100919
            ],
            [
              84.54781108259168,
              25.82853755715709
            ],
            [
              84.54787535166038,
              25.82851890736684
            ],
            [
              84.54810219333761,
              25.828524568203097
            ],
            [
              84.5484192096997,
              25.828532479304247
            ],
            [
              84.54861340480286,
              25.828537325095976
            ],
            [
              84.54875753140537,
              25.82936336999663
            ],
            [
              84.54902076473307,
              25.831019824081505
            ],
            [
              84.54943794504595,
              25.833660334261502
            ],
            [
              84.54948244039862,
              25.834274148152936
            ],
            [
              84.54983534355799,
              25.836133819907324
            ],
            [
              84.55003421079896,
              25.837144898332916
            ],
            [
              84.55051655400423,
              25.839455922273455
            ],
            [
              84.55083771788799,
              25.840587718369157
            ],
            [
              84.55086495031583,
              25.84068368320917
            ],
            [
              84.55211212095062,
              25.840183348313328
            ],
            [
              84.5543869651688,
              25.8391419462765
            ],
            [
              84.55618790136221,
              25.838253624715108
            ],
            [
              84.55795892455494,
              25.83745114376394
            ],
            [
              84.55976479699082,
              25.8366260333653
            ],
            [
              84.56143587811667,
              25.83584150196002
            ],
            [
              84.56270795364439,
              25.83525530101177
            ],
            [
              84.56459160491252,
              25.834398218759205
            ],
            [
              84.56623768412734,
              25.8336677210853
            ],
            [
              84.56732221208503,
              25.83313600200391
            ],
            [
              84.5700805870813,
              25.831927533237707
            ],
            [
              84.5709037232576,
              25.831458466966602
            ],
            [
              84.57210092061317,
              25.830754774324156
            ],
            [
              84.57466988313682,
              25.82917157469762
            ],
            [
              84.575482972555,
              25.82879725669719
            ],
            [
              84.57698441402592,
              25.827831908174307
            ],
            [
              84.57822642114446,
              25.82713278835098
            ],
            [
              84.58060574212513,
              25.825707318217766
            ],
            [
              84.58178282620149,
              25.825084879856966
            ],
            [
              84.58273059104702,
              25.82431782432029
            ],
            [
              84.5842487501654,
              25.823127790025083
            ],
            [
              84.58467595567687,
              25.822792911692144
            ],
            [
              84.58515974786471,
              25.822441036094283
            ],
            [
              84.5863070294332,
              25.821579348129916
            ],
            [
              84.58772853521688,
              25.82045587462334
            ],
            [
              84.58889561385759,
              25.819589620398467
            ],
            [
              84.59092559529562,
              25.818073692400674
            ],
            [
              84.59209272873356,
              25.817207407811626
            ],
            [
              84.59403782656375,
              25.815718453000976
            ],
            [
              84.59449171832735,
              25.81534844874839
            ],
            [
              84.5971099929702,
              25.813331522346484
            ],
            [
              84.60000753407195,
              25.811093527836935
            ],
            [
              84.60196985979269,
              25.809617161292685
            ],
            [
              84.60314432707659,
              25.808733514112348
            ],
            [
              84.60352218812952,
              25.80844169218362
            ],
            [
              84.6035542606801,
              25.808416921317157
            ],
            [
              84.60610939184335,
              25.8064435206205
            ],
            [
              84.609183356677,
              25.804041003011054
            ],
            [
              84.60990695412993,
              25.803475438301135
            ],
            [
              84.6101730476935,
              25.803280556139402
            ],
            [
              84.61029214094395,
              25.80318763018053
            ],
            [
              84.61028449628088,
              25.803180345783836
            ],
            [
              84.6120408284255,
              25.801807539975748
            ],
            [
              84.61213996021203,
              25.801730053676454
            ],
            [
              84.6152463317696,
              25.799356253102108
            ],
            [
              84.61820932861453,
              25.7970801747999
            ],
            [
              84.6185420726806,
              25.796824562094905
            ],
            [
              84.6186327135911,
              25.79675573793838
            ],
            [
              84.62229281387627,
              25.793976521299115
            ],
            [
              84.62352274584077,
              25.79304254691785
            ],
            [
              84.62397365340101,
              25.792669154883786
            ],
            [
              84.62405926644085,
              25.792598259351674
            ],
            [
              84.62457464519072,
              25.79217147306299
            ],
            [
              84.6246035439934,
              25.792100922601136
            ],
            [
              84.62473917163501,
              25.791769830031615
            ],
            [
              84.6247692589088,
              25.791311482668682
            ],
            [
              84.624828942078,
              25.790402253841926
            ],
            [
              84.62482895914597,
              25.789161099641078
            ],
            [
              84.62466427100492,
              25.786735394361585
            ],
            [
              84.6245198021443,
              25.78506092137425
            ],
            [
              84.6243802704245,
              25.78352398500235
            ],
            [
              84.62421086163664,
              25.782025638788454
            ],
            [
              84.62408618086509,
              25.78027892562347
            ],
            [
              84.62405135228319,
              25.77836535971699
            ],
            [
              84.62392174155738,
              25.777106110872797
            ],
            [
              84.62381708872509,
              25.77479979597498
            ],
            [
              84.6237323245932,
              25.773951299344485
            ],
            [
              84.62371517485612,
              25.7731116482162
            ],
            [
              84.62370759577007,
              25.77274056691126
            ],
            [
              84.62370245740664,
              25.77248898536271
            ],
            [
              84.62366515037287,
              25.77221939826864
            ],
            [
              84.62363692979824,
              25.772015469089048
            ],
            [
              84.6235389748047,
              25.77130760185396
            ],
            [
              84.62349138475591,
              25.770963689768813
            ],
            [
              84.62346825313735,
              25.770796529327026
            ],
            [
              84.62287009732898,
              25.771166628962593
            ],
            [
              84.62123510422308,
              25.77181643539916
            ],
            [
              84.62107524811995,
              25.77186770337599
            ],
            [
              84.62064088213737,
              25.77200701140174
            ],
            [
              84.61940578935155,
              25.772403112848654
            ],
            [
              84.6190103590483,
              25.77194745567538
            ],
            [
              84.61896713391349,
              25.771897647909032
            ],
            [
              84.61893740416913,
              25.771839854856413
            ],
            [
              84.61859330629618,
              25.771170951271927
            ],
            [
              84.61834520508945,
              25.771294404385145
            ],
            [
              84.61803998720032,
              25.77144627711773
            ],
            [
              84.61762628157094,
              25.771942659342926
            ],
            [
              84.61761018376106,
              25.771971493962173
            ],
            [
              84.61697984401101,
              25.773100546946747
            ],
            [
              84.61693334631359,
              25.773183832733363
            ],
            [
              84.61639494104806,
              25.77387428668187
            ],
            [
              84.6157492194454,
              25.774445550038923
            ],
            [
              84.61573688737319,
              25.774456460271708
            ],
            [
              84.61521837529962,
              25.77489919791685
            ],
            [
              84.61494933077034,
              25.77512892408574
            ],
            [
              84.61469286265505,
              25.775301627743435
            ],
            [
              84.61428692835119,
              25.775574979098014
            ],
            [
              84.61413170935155,
              25.775679500146513
            ],
            [
              84.61379780017057,
              25.77578322834634
            ],
            [
              84.61378749020606,
              25.775782950072593
            ],
            [
              84.61346375444566,
              25.775774228131965
            ],
            [
              84.6120681363118,
              25.774754120674285
            ],
            [
              84.6108911959659,
              25.774027171341515
            ],
            [
              84.610767280559,
              25.77395063115363
            ],
            [
              84.60958600224859,
              25.773120034636875
            ],
            [
              84.60834495363241,
              25.772348102860168
            ],
            [
              84.60761731555735,
              25.77175680838844
            ],
            [
              84.60737809779046,
              25.771413796365284
            ],
            [
              84.60718885330279,
              25.77000103399386
            ],
            [
              84.6067854612312,
              25.768218235308304
            ],
            [
              84.60660147458294,
              25.767252533247166
            ],
            [
              84.60659113407569,
              25.767198257055675
            ],
            [
              84.60660334757029,
              25.767098842191373
            ],
            [
              84.60668596023709,
              25.766426446943182
            ],
            [
              84.60707492895845,
              25.765713445603648
            ],
            [
              84.60710140410652,
              25.765429467894545
            ],
            [
              84.60711218209329,
              25.765313856045662
            ],
            [
              84.60714477656506,
              25.764964236832416
            ],
            [
              84.6068908075629,
              25.763628208326544
            ],
            [
              84.60678894040632,
              25.76314796609493
            ],
            [
              84.6067697982059,
              25.7630577229577
            ],
            [
              84.60657201972307,
              25.762125318168955
            ],
            [
              84.60622325600053,
              25.761272202761777
            ],
            [
              84.60621500677128,
              25.76127434427531
            ],
            [
              84.60493732665446,
              25.761606001712607
            ],
            [
              84.60447494311647,
              25.76172166086015
            ],
            [
              84.60394543656217,
              25.761854108891633
            ],
            [
              84.60336896877972,
              25.76193664127316
            ],
            [
              84.60334730680495,
              25.761939743901927
            ],
            [
              84.60331135083739,
              25.761939350713522
            ],
            [
              84.60299175990369,
              25.761935855705367
            ],
            [
              84.60295629621291,
              25.761935468180134
            ],
            [
              84.60351222132142,
              25.761271707632847
            ],
            [
              84.60396582562416,
              25.76073468731372
            ],
            [
              84.60611430293297,
              25.758744610630874
            ],
            [
              84.60617640436688,
              25.75868629176291
            ],
            [
              84.60812377583306,
              25.756857404715184
            ],
            [
              84.60944905318519,
              25.75561271590453
            ],
            [
              84.61057249526267,
              25.75478196113423
            ],
            [
              84.61070010364372,
              25.754687596662475
            ],
            [
              84.61113825063535,
              25.754446659954937
            ],
            [
              84.61168397537382,
              25.754146562642784
            ],
            [
              84.61204579521069,
              25.753947592846618
            ],
            [
              84.61245142768061,
              25.753707272779344
            ],
            [
              84.61272365314433,
              25.753545990327307
            ],
            [
              84.6128955844015,
              25.753475525315366
            ],
            [
              84.61389520090357,
              25.753065835962566
            ],
            [
              84.61694999838402,
              25.751813183102072
            ],
            [
              84.61782206040395,
              25.751551555912837
            ],
            [
              84.61869412062727,
              25.75128983510056
            ],
            [
              84.61898962233828,
              25.751197254353322
            ],
            [
              84.6201344263532,
              25.750838573668393
            ],
            [
              84.62115109018447,
              25.750441476268445
            ],
            [
              84.62203145982413,
              25.750057155016357
            ],
            [
              84.62216150892783,
              25.75000038213894
            ],
            [
              84.62226929957538,
              25.749941058106163
            ],
            [
              84.62242695929764,
              25.749854289777467
            ],
            [
              84.62368780768098,
              25.74892460675676
            ],
            [
              84.62534733377728,
              25.747525512384634
            ],
            [
              84.62683241872352,
              25.745760734799635
            ],
            [
              84.62816298535606,
              25.744352629700433
            ],
            [
              84.6284210668456,
              25.744070699847825
            ],
            [
              84.62846855718142,
              25.74401882190506
            ],
            [
              84.62995200180396,
              25.742398270087552
            ],
            [
              84.63099512910514,
              25.740755196279867
            ],
            [
              84.63107808492839,
              25.740624528370258
            ],
            [
              84.63178069144806,
              25.739279538653346
            ],
            [
              84.63178302437285,
              25.739274177809197
            ],
            [
              84.63274726701569,
              25.73705886615609
            ],
            [
              84.63310590412149,
              25.73614146628783
            ],
            [
              84.63312052420275,
              25.73610406723745
            ],
            [
              84.63325542061568,
              25.735758992327572
            ],
            [
              84.63373869806887,
              25.73441110638726
            ],
            [
              84.63407748420356,
              25.733466191905986
            ],
            [
              84.63428663625623,
              25.73206253595567
            ],
            [
              84.63451571204355,
              25.729697549633503
            ],
            [
              84.63466011981873,
              25.728266845837254
            ],
            [
              84.63465011258646,
              25.727941860747634
            ],
            [
              84.63464513681811,
              25.7279338603913
            ],
            [
              84.63460520939869,
              25.727869651159565
            ],
            [
              84.63410960077158,
              25.72796443994174
            ],
            [
              84.63370833501227,
              25.728041183758954
            ],
            [
              84.63079348606995,
              25.728767987301044
            ],
            [
              84.6302355271756,
              25.72886728210762
            ],
            [
              84.63023541937778,
              25.728867302338973
            ],
            [
              84.63017062209971,
              25.72885379263717
            ],
            [
              84.63005604018856,
              25.728722864820924
            ],
            [
              84.62908935861975,
              25.726732564282408
            ],
            [
              84.62883521444611,
              25.72616840262268
            ],
            [
              84.62879702526673,
              25.72616372502317
            ],
            [
              84.6286508334374,
              25.726145816613286
            ],
            [
              84.62842634175296,
              25.726174758654636
            ],
            [
              84.62742512714799,
              25.726303833615173
            ],
            [
              84.62698131268523,
              25.726373005338324
            ],
            [
              84.6269616674283,
              25.72637606681373
            ],
            [
              84.6268819868626,
              25.726434696116257
            ],
            [
              84.62686707213392,
              25.726538515885537
            ],
            [
              84.62691184237106,
              25.726913164753952
            ],
            [
              84.6268820111171,
              25.72698533365019
            ],
            [
              84.62597012228906,
              25.72726063568028
            ],
            [
              84.62284599103835,
              25.72815877734511
            ],
            [
              84.618979301594,
              25.729106444200173
            ],
            [
              84.61721671807335,
              25.72954746374818
            ],
            [
              84.61603946960528,
              25.729842012672684
            ],
            [
              84.61396599443617,
              25.730380623619894
            ],
            [
              84.61299988060262,
              25.730631571719087
            ],
            [
              84.61119600242665,
              25.73107825514422
            ],
            [
              84.61106148689939,
              25.731127944078224
            ],
            [
              84.61098175423139,
              25.73121363927316
            ],
            [
              84.61096675236614,
              25.731330992614875
            ],
            [
              84.61122082108133,
              25.732039583674023
            ],
            [
              84.61138019658577,
              25.732301404343467
            ],
            [
              84.6114100619757,
              25.73243230879732
            ],
            [
              84.61139512838243,
              25.73248648596568
            ],
            [
              84.61040850241768,
              25.732937715942757
            ],
            [
              84.60919254734065,
              25.733804128048256
            ],
            [
              84.60830540081048,
              25.73462096534033
            ],
            [
              84.60808116514588,
              25.7350406562402
            ],
            [
              84.60792163243624,
              25.73518505614173
            ],
            [
              84.6077621967447,
              25.735329458295457
            ],
            [
              84.60754291798384,
              25.735446794626725
            ],
            [
              84.60750428234178,
              25.73543736166425
            ],
            [
              84.60741331444454,
              25.735415152080062
            ],
            [
              84.60728377199067,
              25.735315820663438
            ],
            [
              84.60721519370355,
              25.73529157022606
            ],
            [
              84.60707955079059,
              25.73524360260678
            ],
            [
              84.60594325741468,
              25.735762466257363
            ],
            [
              84.60591790605905,
              25.73577465373764
            ],
            [
              84.6038834213665,
              25.736752630018135
            ],
            [
              84.60320236812542,
              25.737080003244493
            ],
            [
              84.60171752213104,
              25.73787743298548
            ],
            [
              84.60143812631476,
              25.738027477604607
            ],
            [
              84.6010799455531,
              25.73813895029656
            ],
            [
              84.60032186896295,
              25.738374874777705
            ],
            [
              84.599110321919,
              25.738352407610744
            ],
            [
              84.59786517518853,
              25.73832930684337
            ],
            [
              84.59603632205108,
              25.738365004275703
            ],
            [
              84.59570236436103,
              25.738351871926724
            ],
            [
              84.59559601281457,
              25.738347690031105
            ],
            [
              84.59200001540972,
              25.738206242664987
            ],
            [
              84.586772689127,
              25.738010846269443
            ],
            [
              84.58158038815725,
              25.737770176759703
            ],
            [
              84.57648266990543,
              25.73757448914598
            ],
            [
              84.57321493307508,
              25.737448952900078
            ],
            [
              84.57138498219634,
              25.737378622377562
            ],
            [
              84.56615789127223,
              25.737123828643885
            ],
            [
              84.56516377066306,
              25.737092624320304
            ],
            [
              84.56330688020726,
              25.737034319907384
            ],
            [
              84.56222622488677,
              25.73700037884756
            ],
            [
              84.56117768703264,
              25.736942592277334
            ],
            [
              84.56032773704341,
              25.73689574606668
            ],
            [
              84.56029282401988,
              25.736895722599897
            ],
            [
              84.56028289763599,
              25.736895716126277
            ],
            [
              84.56019334368702,
              25.736670033203815
            ],
            [
              84.56011441860447,
              25.735094830601376
            ],
            [
              84.56064360895184,
              25.733343902784775
            ],
            [
              84.56138704030793,
              25.73137183404627
            ],
            [
              84.56154990307229,
              25.730885629202398
            ],
            [
              84.56191607704335,
              25.72979246239199
            ],
            [
              84.56208597541303,
              25.72901780503939
            ],
            [
              84.5624505387048,
              25.72735552367832
            ],
            [
              84.56276179327263,
              25.72649975990375
            ],
            [
              84.56294950164116,
              25.72598366967367
            ],
            [
              84.56329847287454,
              25.723715780861355
            ],
            [
              84.56332450784808,
              25.72354658492032
            ],
            [
              84.56349963800598,
              25.722174634370607
            ],
            [
              84.5640042405657,
              25.71933141790812
            ],
            [
              84.56433391419012,
              25.717806095284313
            ],
            [
              84.56434935622985,
              25.716808628106257
            ],
            [
              84.56421537340353,
              25.715761463705476
            ],
            [
              84.56420142166887,
              25.71376659434388
            ],
            [
              84.56393850364982,
              25.71147370496453
            ],
            [
              84.56381478587227,
              25.709957134633466
            ],
            [
              84.56348759159803,
              25.706824737798982
            ],
            [
              84.5635476754158,
              25.706129727342795
            ],
            [
              84.56358835831838,
              25.705651306233257
            ],
            [
              84.563612914665,
              25.70536251062193
            ],
            [
              84.56353490586402,
              25.70434462993008
            ],
            [
              84.56345449317138,
              25.703295370313185
            ],
            [
              84.56321658963974,
              25.700939270393803
            ],
            [
              84.56315653995793,
              25.699986367028828
            ],
            [
              84.56314173841699,
              25.699751476965638
            ],
            [
              84.5630909809085,
              25.698946025654628
            ],
            [
              84.56308319431162,
              25.69882245771444
            ],
            [
              84.56305382479171,
              25.69811091175238
            ],
            [
              84.56301929804377,
              25.697274395657097
            ],
            [
              84.56282143871258,
              25.69456174973086
            ],
            [
              84.562638394397,
              25.692065774271523
            ],
            [
              84.56233023901689,
              25.69085152728326
            ],
            [
              84.5619431226216,
              25.68806667292931
            ],
            [
              84.56180564984042,
              25.685813021134418
            ],
            [
              84.56180490873031,
              25.685800864156068
            ],
            [
              84.56146338542895,
              25.68541050929272
            ],
            [
              84.56132699062611,
              25.68525461325482
            ],
            [
              84.56088995035891,
              25.684858179278446
            ],
            [
              84.56072458039657,
              25.684708172841543
            ],
            [
              84.56067495566364,
              25.684401301641497
            ],
            [
              84.56066744844284,
              25.684360321844522
            ],
            [
              84.56064581790909,
              25.68424225914872
            ],
            [
              84.5606352501281,
              25.684184575672273
            ],
            [
              84.5608642935761,
              25.68407298037349
            ],
            [
              84.56102386401496,
              25.68399523187101
            ],
            [
              84.56100393129712,
              25.68396478512327
            ],
            [
              84.560929298365,
              25.683850782793694
            ],
            [
              84.56012267232529,
              25.683277188803814
            ],
            [
              84.55898291863889,
              25.681769239911876
            ],
            [
              84.55858615433748,
              25.681220800853957
            ],
            [
              84.55804223790766,
              25.68046894660577
            ],
            [
              84.55754000330703,
              25.679683686390614
            ],
            [
              84.55743011509328,
              25.679511871168387
            ],
            [
              84.55691201444813,
              25.679687574848177
            ],
            [
              84.5555584680123,
              25.680029119042107
            ],
            [
              84.55532292794814,
              25.68008855161827
            ],
            [
              84.55529802664847,
              25.680162606909636
            ],
            [
              84.55528804277243,
              25.6801922968566
            ],
            [
              84.55567180485842,
              25.680777457622625
            ],
            [
              84.55577070577793,
              25.680928262397828
            ],
            [
              84.55640787272415,
              25.681736397871283
            ],
            [
              84.55643472067304,
              25.681882970597066
            ],
            [
              84.55644757107318,
              25.68195312424608
            ],
            [
              84.55607609344867,
              25.682229617707392
            ],
            [
              84.55569016821946,
              25.682516861618435
            ],
            [
              84.55363230576998,
              25.683815715842996
            ],
            [
              84.55252602780264,
              25.684532874057595
            ],
            [
              84.55248237866299,
              25.68457100739586
            ],
            [
              84.5524788590637,
              25.684574081280473
            ],
            [
              84.55152437481979,
              25.68540791387402
            ],
            [
              84.55119045575735,
              25.685741738819452
            ],
            [
              84.55115971810326,
              25.685763790909814
            ],
            [
              84.55104590425171,
              25.685845445134305
            ],
            [
              84.55096625692367,
              25.685741583386196
            ],
            [
              84.551014965375,
              25.685354898832028
            ],
            [
              84.55104640461333,
              25.68510530838955
            ],
            [
              84.55090203816066,
              25.68501497929644
            ],
            [
              84.5508970336462,
              25.685017145660566
            ],
            [
              84.54975350973054,
              25.68551243569605
            ],
            [
              84.548091971408,
              25.6862320689994
            ],
            [
              84.54785541085772,
              25.686322342930204
            ],
            [
              84.54681645533273,
              25.68671881332075
            ],
            [
              84.54637286544877,
              25.68718344797163
            ],
            [
              84.5456747567937,
              25.68832952132661
            ],
            [
              84.54519148562873,
              25.68845558460196
            ],
            [
              84.54423111023324,
              25.68862439167058
            ],
            [
              84.54183708383138,
              25.689045165268755
            ],
            [
              84.53828011373403,
              25.689665992170617
            ],
            [
              84.53826099488984,
              25.689668980114448
            ],
            [
              84.53764918289257,
              25.689764629087644
            ],
            [
              84.53718031621315,
              25.68994317363205
            ],
            [
              84.53580232122857,
              25.690467907145216
            ],
            [
              84.53543455544285,
              25.69060794767454
            ],
            [
              84.53537712524842,
              25.690629816723153
            ],
            [
              84.53518778374273,
              25.690769661159713
            ],
            [
              84.53518267232874,
              25.690950165646996
            ],
            [
              84.53547049973231,
              25.692281796204394
            ],
            [
              84.5358155354464,
              25.693310688810108
            ],
            [
              84.53583836702767,
              25.693378777180133
            ],
            [
              84.53594566000858,
              25.694088922668275
            ],
            [
              84.53606137469528,
              25.694854793014724
            ],
            [
              84.53633786086834,
              25.697076548124226
            ],
            [
              84.53671739727926,
              25.699862209268286
            ],
            [
              84.53681810291421,
              25.70107855230125
            ],
            [
              84.53686641431017,
              25.7016620563338
            ],
            [
              84.53686018269704,
              25.701859056858684
            ],
            [
              84.53682246333658,
              25.703051431680265
            ],
            [
              84.53693662483614,
              25.70366083335486
            ],
            [
              84.53659368489159,
              25.703723369619638
            ],
            [
              84.53641846939375,
              25.703755320895024
            ],
            [
              84.53666662360108,
              25.705046207896945
            ],
            [
              84.53672938260179,
              25.70768211379797
            ],
            [
              84.53721814157484,
              25.71061146277635
            ],
            [
              84.5372655941814,
              25.710895856398167
            ],
            [
              84.53734935399682,
              25.711397844815345
            ],
            [
              84.53744161636638,
              25.711950786632038
            ],
            [
              84.53779878742165,
              25.714393495217617
            ],
            [
              84.53804773663803,
              25.716096008032483
            ],
            [
              84.53833295713062,
              25.71796176579114
            ],
            [
              84.53850218805205,
              25.7190687553124
            ],
            [
              84.53864641885913,
              25.720202445938394
            ],
            [
              84.53895546357138,
              25.722631535381584
            ],
            [
              84.53938680941799,
              25.725615080980333
            ],
            [
              84.53956047532199,
              25.72669388281667
            ],
            [
              84.53954184965286,
              25.726699274980426
            ],
            [
              84.5394358861786,
              25.7267299543885
            ],
            [
              84.53778284232537,
              25.725835718824932
            ],
            [
              84.53700529025984,
              25.72541508175466
            ],
            [
              84.53554780335577,
              25.724738416279212
            ],
            [
              84.53445507916945,
              25.72423108459599
            ],
            [
              84.53444023989925,
              25.724135546675125
            ],
            [
              84.53428964722333,
              25.723165956904676
            ],
            [
              84.53383332192364,
              25.720168170682555
            ],
            [
              84.53311651573424,
              25.71511721761042
            ],
            [
              84.53306346213185,
              25.714732264966596
            ],
            [
              84.53231987087565,
              25.709336683869505
            ],
            [
              84.53175737998072,
              25.70531736793136
            ],
            [
              84.53162551717847,
              25.704375090084287
            ],
            [
              84.53120981010267,
              25.700886035620883
            ],
            [
              84.53096239790375,
              25.698814223894487
            ],
            [
              84.53067992805254,
              25.696882337222387
            ],
            [
              84.53019461861018,
              25.693244271203362
            ],
            [
              84.5297774445855,
              25.68962613132479
            ],
            [
              84.52974328075693,
              25.68937184164306
            ],
            [
              84.52956617340708,
              25.68805355931358
            ],
            [
              84.52933363641097,
              25.686121702889707
            ],
            [
              84.52894779382676,
              25.682772493625535
            ],
            [
              84.52886831358538,
              25.682492635230936
            ],
            [
              84.5267329939005,
              25.680672374653728
            ],
            [
              84.52603624439644,
              25.68004451009952
            ],
            [
              84.524174807567,
              25.678449975139728
            ],
            [
              84.52401020117266,
              25.6782940432775
            ],
            [
              84.52383634392751,
              25.67812934729258
            ],
            [
              84.52305749110143,
              25.677499824223418
            ],
            [
              84.52288068558553,
              25.677356916046286
            ],
            [
              84.52275333502095,
              25.677246263210908
            ],
            [
              84.52089995158802,
              25.67563586118141
            ],
            [
              84.52075919995603,
              25.675524547719345
            ],
            [
              84.52012250732032,
              25.67502101389586
            ],
            [
              84.52004883558557,
              25.6749627503146
            ],
            [
              84.5198296502495,
              25.67504385735076
            ],
            [
              84.5169547404047,
              25.67672086587341
            ],
            [
              84.51542622910101,
              25.677569058314383
            ],
            [
              84.51468205932973,
              25.677981998399893
            ],
            [
              84.51388469492062,
              25.678424447711134
            ],
            [
              84.51309497697117,
              25.678857195622854
            ],
            [
              84.51082498365555,
              25.68010106134965
            ],
            [
              84.50984183956086,
              25.68064205739969
            ],
            [
              84.50822859107468,
              25.681529757620098
            ],
            [
              84.50774516809444,
              25.681854334327934
            ],
            [
              84.5076657372604,
              25.681718782318956
            ],
            [
              84.50762080802147,
              25.681642109016313
            ],
            [
              84.50714395801415,
              25.6803689386513
            ],
            [
              84.50712483378004,
              25.68032497333716
            ],
            [
              84.50690045258838,
              25.67980911438237
            ],
            [
              84.50653775958905,
              25.678865497209248
            ],
            [
              84.50618081041765,
              25.67824718692905
            ],
            [
              84.50605549813048,
              25.678030120258303
            ],
            [
              84.50573232291879,
              25.677465680781427
            ],
            [
              84.50569332615399,
              25.6773218609477
            ],
            [
              84.5056429809722,
              25.67713618914154
            ],
            [
              84.50540409558195,
              25.676919296132148
            ],
            [
              84.50530647206679,
              25.6768966173872
            ],
            [
              84.50517009073864,
              25.676864934172652
            ],
            [
              84.50498562798327,
              25.67709046821642
            ],
            [
              84.50456171569564,
              25.67761369823536
            ],
            [
              84.5043841268488,
              25.677639083347458
            ],
            [
              84.50436663126034,
              25.677641584211838
            ],
            [
              84.50192331968873,
              25.676257481752856
            ],
            [
              84.50002203898316,
              25.67506881634013
            ],
            [
              84.5000001129037,
              25.675057411212855
            ],
            [
              84.49933845608625,
              25.674682293078302
            ],
            [
              84.49783057998292,
              25.675706471893438
            ],
            [
              84.49782281943719,
              25.675711913324893
            ],
            [
              84.49665107135364,
              25.67653339093742
            ],
            [
              84.4960635075808,
              25.676737012723642
            ],
            [
              84.49567004818131,
              25.67667863339745
            ],
            [
              84.49195929369387,
              25.676487610679423
            ],
            [
              84.49229914523046,
              25.67927127519841
            ],
            [
              84.4923108080578,
              25.679366799746923
            ],
            [
              84.49243122811997,
              25.680350590222545
            ],
            [
              84.49265749038382,
              25.68245816696264
            ],
            [
              84.49291822010684,
              25.684213646114276
            ],
            [
              84.49312090339112,
              25.686199134281814
            ],
            [
              84.49315962167819,
              25.68657841930608
            ],
            [
              84.49332554859599,
              25.688162421142543
            ],
            [
              84.49360715067465,
              25.69083860906688
            ],
            [
              84.4897314457381,
              25.690394862060238
            ],
            [
              84.48872518978776,
              25.690346035249632
            ],
            [
              84.48583055563428,
              25.68974346092533
            ],
            [
              84.48285079712444,
              25.688884848304497
            ],
            [
              84.48283120037652,
              25.688879200235764
            ],
            [
              84.47971712935866,
              25.687893048345725
            ],
            [
              84.47833746171105,
              25.68800690837689
            ],
            [
              84.47831093715565,
              25.687739220679457
            ],
            [
              84.47829228723204,
              25.687551007782833
            ],
            [
              84.47811230437495,
              25.687549701191898
            ],
            [
              84.47546797858887,
              25.687530464188924
            ],
            [
              84.47080051742553,
              25.687244792345798
            ],
            [
              84.47003408470658,
              25.687985419327163
            ],
            [
              84.46823213701018,
              25.689548260161178
            ],
            [
              84.46588273711501,
              25.69167995294532
            ],
            [
              84.46575521227729,
              25.694329371336273
            ],
            [
              84.46606049215016,
              25.69534787029993
            ],
            [
              84.4664989688235,
              25.695508321842524
            ],
            [
              84.46871394032797,
              25.696362373073445
            ],
            [
              84.46866789268654,
              25.696522756062596
            ],
            [
              84.46893005791735,
              25.696615624653372
            ],
            [
              84.46828902641882,
              25.698529640321425
            ],
            [
              84.46540944623283,
              25.69822906431226
            ],
            [
              84.46249429904984,
              25.697667586054834
            ],
            [
              84.46248991437292,
              25.697666740971176
            ],
            [
              84.46253247834774,
              25.69774285594997
            ],
            [
              84.46399497066459,
              25.700358068938268
            ],
            [
              84.4642258152347,
              25.700770850698607
            ],
            [
              84.46349046781785,
              25.703402554024237
            ],
            [
              84.46311333799359,
              25.70537961193651
            ],
            [
              84.46269592681368,
              25.70686466330541
            ],
            [
              84.46246972833019,
              25.707489469390378
            ],
            [
              84.46221868873415,
              25.708182886300055
            ],
            [
              84.46217458864021,
              25.709275095110108
            ],
            [
              84.4580995223893,
              25.709412886084703
            ],
            [
              84.45692853517878,
              25.709070540685975
            ],
            [
              84.45566318174433,
              25.70918408989574
            ],
            [
              84.45447741006085,
              25.709157691676896
            ],
            [
              84.45289339994056,
              25.709429354685923
            ],
            [
              84.45280909484781,
              25.710038666238493
            ],
            [
              84.45274542226046,
              25.71170413006329
            ],
            [
              84.45280639630869,
              25.711906200049803
            ],
            [
              84.45329962799354,
              25.713540763115194
            ],
            [
              84.45340596426865,
              25.713938904031707
            ],
            [
              84.45350933879828,
              25.71432596113444
            ],
            [
              84.45273205892228,
              25.714154801291247
            ],
            [
              84.45160582128766,
              25.71374018662
            ],
            [
              84.45061946122422,
              25.71386262863541
            ],
            [
              84.45031992607755,
              25.712960069963522
            ],
            [
              84.4495577289152,
              25.712960446317386
            ],
            [
              84.44959251617456,
              25.712668112902413
            ],
            [
              84.44962218124022,
              25.712418834662888
            ],
            [
              84.44953470599278,
              25.71240530933344
            ],
            [
              84.44691660023318,
              25.71200044227978
            ],
            [
              84.44690564258336,
              25.711673381220372
            ],
            [
              84.44687608082397,
              25.710790978877885
            ],
            [
              84.446811876434,
              25.710787793166535
            ],
            [
              84.44480344827458,
              25.71068813037728
            ],
            [
              84.44425043909749,
              25.710647747235758
            ],
            [
              84.44425529718654,
              25.710283068085648
            ],
            [
              84.44427912140617,
              25.70849489414111
            ],
            [
              84.44415206728566,
              25.708494954845623
            ],
            [
              84.44143447670162,
              25.708496226402794
            ],
            [
              84.44041311917304,
              25.708361330380058
            ],
            [
              84.44038359783788,
              25.7092053290655
            ],
            [
              84.44028501132867,
              25.711055798121265
            ],
            [
              84.43897488136886,
              25.711286545350983
            ],
            [
              84.43704198535518,
              25.711445406844824
            ],
            [
              84.43653869433578,
              25.711256060256318
            ],
            [
              84.43615018824677,
              25.711423217870287
            ],
            [
              84.43590601896601,
              25.71142502601085
            ],
            [
              84.43587922042447,
              25.71142522430738
            ],
            [
              84.43356948743727,
              25.71144230208832
            ],
            [
              84.4321944380285,
              25.711411304700047
            ],
            [
              84.43083432221304,
              25.711357634311337
            ],
            [
              84.43040590397592,
              25.711425522966213
            ],
            [
              84.4296487176162,
              25.711615307964838
            ],
            [
              84.42981795392753,
              25.71103936212018
            ],
            [
              84.42986754811774,
              25.71087058440293
            ],
            [
              84.42998175183811,
              25.709909232067936
            ],
            [
              84.43051481033109,
              25.709922514865927
            ],
            [
              84.43069894520139,
              25.70948464390847
            ],
            [
              84.43154999472854,
              25.707679041319246
            ],
            [
              84.43139116719642,
              25.707568549395283
            ],
            [
              84.43104890727653,
              25.707330446401013
            ],
            [
              84.43101175565134,
              25.707304601401702
            ],
            [
              84.43099332581495,
              25.707323353616225
            ],
            [
              84.43060347764289,
              25.707720018757502
            ],
            [
              84.43031928392465,
              25.707219109946983
            ],
            [
              84.43002502638028,
              25.70653771197
            ],
            [
              84.42924710690383,
              25.704917715315457
            ],
            [
              84.42913307386334,
              25.704512629336264
            ],
            [
              84.42862336258462,
              25.702701928785196
            ],
            [
              84.42808470758743,
              25.70119471311421
            ],
            [
              84.42813897032215,
              25.700097928799828
            ],
            [
              84.42830169205105,
              25.696378906619426
            ],
            [
              84.42767788305315,
              25.693617041646508
            ],
            [
              84.4273879473036,
              25.693620347622623
            ],
            [
              84.42317974623602,
              25.693668263219216
            ],
            [
              84.42211937487465,
              25.695185032182323
            ],
            [
              84.41890192393728,
              25.69649944884949
            ],
            [
              84.4164114588981,
              25.697425722700547
            ],
            [
              84.41477282132708,
              25.69803514588813
            ],
            [
              84.41407049687838,
              25.69802629520164
            ],
            [
              84.41079768277007,
              25.698099401172247
            ],
            [
              84.40794186841326,
              25.69832547701858
            ],
            [
              84.4067378887773,
              25.69842077177986
            ],
            [
              84.40610629767409,
              25.699601804973813
            ],
            [
              84.40506987360153,
              25.70153979036512
            ],
            [
              84.40296851023442,
              25.705087661369255
            ],
            [
              84.40119240706875,
              25.708158293621143
            ],
            [
              84.40108606720035,
              25.708342134780857
            ],
            [
              84.40328874076859,
              25.710923312896497
            ],
            [
              84.40466422675858,
              25.712814160318473
            ],
            [
              84.40524232139,
              25.713667068403122
            ],
            [
              84.40638413940493,
              25.71569488299731
            ],
            [
              84.40654331278844,
              25.715977561611993
            ],
            [
              84.40561698084724,
              25.717431051099265
            ],
            [
              84.40445151827574,
              25.71912826228416
            ],
            [
              84.40394215105175,
              25.72008713160781
            ],
            [
              84.40360985883827,
              25.720712653291177
            ],
            [
              84.40339579030606,
              25.721064668794142
            ],
            [
              84.40103978240367,
              25.72415220908579
            ],
            [
              84.40058154459072,
              25.724924097212998
            ],
            [
              84.40002842132755,
              25.72494219922516
            ],
            [
              84.39851386984334,
              25.725551818969677
            ],
            [
              84.39851391925069,
              25.72587235714978
            ],
            [
              84.39851396955635,
              25.726210690379705
            ],
            [
              84.39885790393593,
              25.726928314253378
            ],
            [
              84.39904250862513,
              25.727880524398937
            ],
            [
              84.39971426430301,
              25.72888407333602
            ],
            [
              84.40003937089253,
              25.72936974983156
            ],
            [
              84.39576924625747,
              25.730304708361203
            ],
            [
              84.39482771841493,
              25.730723487107934
            ],
            [
              84.39304891311687,
              25.731514650681753
            ],
            [
              84.39251065607337,
              25.730941533995374
            ],
            [
              84.3890477467728,
              25.732277795011825
            ],
            [
              84.38900780408203,
              25.731867105183525
            ],
            [
              84.38806108038386,
              25.732264339106855
            ],
            [
              84.38756767262925,
              25.731163184834642
            ],
            [
              84.38746645495458,
              25.73121457960878
            ],
            [
              84.38473235064069,
              25.732602808711025
            ],
            [
              84.3843937926781,
              25.732774704298993
            ],
            [
              84.38620274723371,
              25.734940897245874
            ],
            [
              84.38692036280516,
              25.735681047771735
            ],
            [
              84.38782255431973,
              25.73760362261205
            ],
            [
              84.39011963723108,
              25.73691286065039
            ],
            [
              84.39083741270265,
              25.738627803077613
            ],
            [
              84.39181947342915,
              25.740866287720234
            ],
            [
              84.39246243271228,
              25.742048712067366
            ],
            [
              84.39336184034778,
              25.74370155875185
            ],
            [
              84.39363384841919,
              25.744201418180996
            ],
            [
              84.39265219103625,
              25.74472953739324
            ],
            [
              84.39170049516301,
              25.745162978790887
            ],
            [
              84.38947792840281,
              25.746043338699593
            ],
            [
              84.3871706792574,
              25.746115732249347
            ],
            [
              84.38578525610374,
              25.74684248676576
            ],
            [
              84.38495313587627,
              25.747505981655006
            ],
            [
              84.38297464137875,
              25.746289499244597
            ],
            [
              84.38293473192563,
              25.746264961375623
            ],
            [
              84.38286282538041,
              25.74617271735891
            ],
            [
              84.38211049171984,
              25.75177692981359
            ],
            [
              84.38122895067701,
              25.75043348066303
            ],
            [
              84.38094592566696,
              25.749426493699012
            ],
            [
              84.38001149631181,
              25.74828263760143
            ],
            [
              84.37925718635762,
              25.747315800016278
            ],
            [
              84.3785277642284,
              25.74634816484601
            ],
            [
              84.37805976262659,
              25.746478438885806
            ],
            [
              84.37728273787214,
              25.747020354993747
            ],
            [
              84.37674776327269,
              25.74737336226823
            ],
            [
              84.3762367790812,
              25.747699821860124
            ],
            [
              84.37543218682728,
              25.74816452909421
            ],
            [
              84.37503737995488,
              25.748253701752187
            ],
            [
              84.37423366625332,
              25.748744246055196
            ],
            [
              84.37404561293175,
              25.74906161791926
            ],
            [
              84.37393833701883,
              25.749558718373443
            ],
            [
              84.37418234460283,
              25.750149875819094
            ],
            [
              84.37424198555118,
              25.75043358180156
            ],
            [
              84.37431263535329,
              25.750789339601756
            ],
            [
              84.37464155079964,
              25.751218108977184
            ],
            [
              84.37536917809493,
              25.751777801213073
            ],
            [
              84.37573289876696,
              25.752174932173055
            ],
            [
              84.37611668420917,
              25.753088687901457
            ],
            [
              84.37613661513038,
              25.753136275326725
            ],
            [
              84.37635589389123,
              25.753732081772835
            ],
            [
              84.37635591634913,
              25.754458706356946
            ],
            [
              84.37632102578348,
              25.7558803471631
            ],
            [
              84.37650045617663,
              25.757536782947323
            ],
            [
              84.37701384515815,
              25.75822732791479
            ],
            [
              84.37778137472004,
              25.758227269662807
            ],
            [
              84.37839944797487,
              25.75809636530937
            ],
            [
              84.37982483987048,
              25.75766756332263
            ],
            [
              84.3810309557002,
              25.757171093085347
            ],
            [
              84.38267560389878,
              25.756475927867275
            ],
            [
              84.38377202465249,
              25.75644429577531
            ],
            [
              84.38552134275133,
              25.75640805684555
            ],
            [
              84.38737069724026,
              25.75871879460624
            ],
            [
              84.38540213721147,
              25.760501705216026
            ],
            [
              84.38239180723588,
              25.76242450215208
            ],
            [
              84.38073216795185,
              25.7635439199323
            ],
            [
              84.3788681340929,
              25.76481673416779
            ],
            [
              84.3779759147763,
              25.76528161065401
            ],
            [
              84.37705883907577,
              25.76557042899328
            ],
            [
              84.37614169420499,
              25.76543954810723
            ],
            [
              84.37548379773533,
              25.765696855358833
            ],
            [
              84.3751398965934,
              25.766062425926055
            ],
            [
              84.37491063844807,
              25.766658140815622
            ],
            [
              84.37476602406036,
              25.76756981277048
            ],
            [
              84.37505017196452,
              25.768138568682478
            ],
            [
              84.37571307205036,
              25.768580859878753
            ],
            [
              84.37705890734775,
              25.76897346501633
            ],
            [
              84.37774672041132,
              25.768449907076484
            ],
            [
              84.37866385090909,
              25.76785415992105
            ],
            [
              84.37906755918766,
              25.76782705473005
            ],
            [
              84.37949618942716,
              25.767827048258148
            ],
            [
              84.37967068986605,
              25.768269355177015
            ],
            [
              84.37972559130296,
              25.769569149116105
            ],
            [
              84.37952621471725,
              25.771049538246494
            ],
            [
              84.3800147769592,
              25.771852893708022
            ],
            [
              84.38118067431535,
              25.772981655788467
            ],
            [
              84.38123778111625,
              25.77303693971864
            ],
            [
              84.38116133987548,
              25.773075915925563
            ],
            [
              84.38267678787832,
              25.775260304727038
            ],
            [
              84.38376355533599,
              25.776975292052956
            ],
            [
              84.38451135699593,
              25.77790048432818
            ],
            [
              84.38683424131887,
              25.778157573658014
            ],
            [
              84.38795092177719,
              25.7783695766048
            ],
            [
              84.38866876013084,
              25.778703569337093
            ],
            [
              84.38881338260339,
              25.7795881247139
            ],
            [
              84.38895316585152,
              25.780860842912336
            ],
            [
              84.3892971559266,
              25.781614574970433
            ],
            [
              84.38975591476242,
              25.78223738406627
            ],
            [
              84.39099233256329,
              25.78335653083611
            ],
            [
              84.39065337574873,
              25.783744731260143
            ],
            [
              84.39094758927563,
              25.783988390234406
            ],
            [
              84.3916803890703,
              25.78444861661143
            ],
            [
              84.39294671987183,
              25.78530150070163
            ],
            [
              84.39361480233852,
              25.78589270340201
            ],
            [
              84.3941283709831,
              25.786393538639985
            ],
            [
              84.39492117015392,
              25.787124640094596
            ],
            [
              84.39539977816426,
              25.787557875754864
            ],
            [
              84.39603801859724,
              25.788049659381787
            ],
            [
              84.39699039180019,
              25.78894323324891
            ],
            [
              84.39776318908294,
              25.789674238909154
            ],
            [
              84.39835157571257,
              25.79031499015517
            ],
            [
              84.39867572918956,
              25.79072119103815
            ],
            [
              84.39940884429292,
              25.79182227674155
            ],
            [
              84.399603292721,
              25.792147172766494
            ],
            [
              84.3997329896851,
              25.792499215990816
            ],
            [
              84.40009705890346,
              25.79311297792328
            ],
            [
              84.40015198998478,
              25.793573277269317
            ],
            [
              84.40055086442881,
              25.793501054204548
            ],
            [
              84.4010693378748,
              25.793455826909213
            ],
            [
              84.40250623539258,
              25.793516733071712
            ],
            [
              84.40393097690793,
              25.793577110238633
            ],
            [
              84.40575075256945,
              25.793802409999405
            ],
            [
              84.40798929317204,
              25.79390121528974
            ],
            [
              84.40969433510716,
              25.79407236781536
            ],
            [
              84.41055740499114,
              25.7942209729124
            ],
            [
              84.41294007309453,
              25.794631196359195
            ],
            [
              84.41714316813804,
              25.795343123712204
            ],
            [
              84.41773137600295,
              25.795203068259376
            ],
            [
              84.41970573555518,
              25.795568072332618
            ],
            [
              84.42197450087382,
              25.796226264953532
            ],
            [
              84.42419336118516,
              25.79688446362539
            ],
            [
              84.42632240613776,
              25.7974388613152
            ],
            [
              84.42908999066232,
              25.79853457983885
            ],
            [
              84.43231107169174,
              25.799314187923834
            ],
            [
              84.43636474456414,
              25.799827055173516
            ],
            [
              84.4363301279847,
              25.800504022310704
            ],
            [
              84.43629138095153,
              25.802652370192163
            ],
            [
              84.43585892119398,
              25.805270294185547
            ],
            [
              84.43554965280123,
              25.806691910888873
            ],
            [
              84.4353267080157,
              25.807716697001077
            ],
            [
              84.43503370541777,
              25.81014044288138
            ],
            [
              84.43460172176732,
              25.813715080657847
            ],
            [
              84.43450233755418,
              25.814369583601554
            ],
            [
              84.43402954433869,
              25.816175031237425
            ],
            [
              84.43312248485358,
              25.817177407602898
            ],
            [
              84.43231483742942,
              25.81766060338744
            ],
            [
              84.43065970678977,
              25.818306651976723
            ],
            [
              84.42860556156896,
              25.81911979606336
            ],
            [
              84.42365473493408,
              25.821089384770485
            ],
            [
              84.42181984421956,
              25.821563790226183
            ],
            [
              84.41929170024412,
              25.821763186764105
            ],
            [
              84.41376661208913,
              25.82211228110931
            ],
            [
              84.41182190502607,
              25.82243327660607
            ],
            [
              84.40987718718326,
              25.822754157217954
            ],
            [
              84.40721450342602,
              25.823576150910004
            ],
            [
              84.40486586440387,
              25.824176930632223
            ],
            [
              84.40166966670785,
              25.82532397016986
            ],
            [
              84.3986878447678,
              25.82694016225416
            ],
            [
              84.39744147363359,
              25.828474868299192
            ],
            [
              84.39704770521364,
              25.82962130828124
            ],
            [
              84.39716761862599,
              25.83086250440144
            ],
            [
              84.39736754138738,
              25.833222850902686
            ],
            [
              84.39807605792332,
              25.835037115922024
            ],
            [
              84.39995175101637,
              25.83769962584485
            ],
            [
              84.40030594505481,
              25.83819149483254
            ],
            [
              84.40178753824952,
              25.839513577251562
            ],
            [
              84.40294975969951,
              25.840370873893928
            ],
            [
              84.40403725299593,
              25.841119901995572
            ],
            [
              84.40511965733629,
              25.841850841179095
            ],
            [
              84.40575316095273,
              25.842058261690855
            ],
            [
              84.40702009811706,
              25.8424325927228
            ],
            [
              84.40847654656866,
              25.842788841771796
            ],
            [
              84.41035201508288,
              25.843271288659164
            ],
            [
              84.41238708996858,
              25.84372663604295
            ],
            [
              84.41439723211353,
              25.84415486402426
            ],
            [
              84.4166467456373,
              25.844691342338383
            ],
            [
              84.4182380087552,
              25.845011366269308
            ],
            [
              84.41966456756235,
              25.845498341974785
            ],
            [
              84.42057752808054,
              25.84595386268822
            ],
            [
              84.42131092615323,
              25.846508742924286
            ],
            [
              84.42159026627398,
              25.84666669098834
            ],
            [
              84.42191946468961,
              25.846666546275557
            ],
            [
              84.4222485822569,
              25.846458819356183
            ],
            [
              84.42245296874698,
              25.84618347779065
            ],
            [
              84.42275711314936,
              25.84598023372045
            ],
            [
              84.42319105872039,
              25.84588533063856
            ],
            [
              84.42384937200836,
              25.8457948206379
            ],
            [
              84.42420337740059,
              25.84560967163066
            ],
            [
              84.42455743220013,
              25.845311662087425
            ],
            [
              84.4247368563051,
              25.844941566003307
            ],
            [
              84.42499098969897,
              25.844508220853943
            ],
            [
              84.42514062836406,
              25.844390833127083
            ],
            [
              84.42544481498724,
              25.84430044001909
            ],
            [
              84.42605828437623,
              25.844462688839847
            ],
            [
              84.42646240318491,
              25.844575380118282
            ],
            [
              84.42707085368642,
              25.844642858688243
            ],
            [
              84.42818804528612,
              25.844484506922324
            ],
            [
              84.42868175128145,
              25.844394057293236
            ],
            [
              84.4290907416539,
              25.844439033917173
            ],
            [
              84.42954471965578,
              25.844669048916597
            ],
            [
              84.42980426000935,
              25.84497133523121
            ],
            [
              84.43036303277732,
              25.845268971314454
            ],
            [
              84.43097154885584,
              25.845291326874648
            ],
            [
              84.4321137756042,
              25.845408214079576
            ],
            [
              84.43257267637384,
              25.845566001921483
            ],
            [
              84.43313156143122,
              25.84607129979658
            ],
            [
              84.43338609727036,
              25.84639609310203
            ],
            [
              84.43356091481454,
              25.847014415934506
            ],
            [
              84.433386959653,
              25.848278125765074
            ],
            [
              84.43356180414668,
              25.84871583559937
            ],
            [
              84.43421047940997,
              25.84926625810956
            ],
            [
              84.43438529875077,
              25.849726521924644
            ],
            [
              84.43441045696862,
              25.85027711920153
            ],
            [
              84.43454025184907,
              25.85041693409495
            ],
            [
              84.43479465922913,
              25.850439421263882
            ],
            [
              84.43519862981574,
              25.850321956964223
            ],
            [
              84.43575716902176,
              25.850141173277585
            ],
            [
              84.4361861963166,
              25.85041625016674
            ],
            [
              84.43652062921541,
              25.85075910384707
            ],
            [
              84.43684987344515,
              25.850944048346417
            ],
            [
              84.43740861207715,
              25.85101152409129
            ],
            [
              84.43786245802666,
              25.850921076220036
            ],
            [
              84.43819157559395,
              25.850780975740825
            ],
            [
              84.43887977044152,
              25.850595655877463
            ],
            [
              84.43958806509357,
              25.850622405834137
            ],
            [
              84.44047604166711,
              25.85096502204911
            ],
            [
              84.44128943830911,
              25.851537870928862
            ],
            [
              84.44180826389473,
              25.851767749243166
            ],
            [
              84.44348988136049,
              25.85282763515346
            ],
            [
              84.44447808925845,
              25.85388778480335
            ],
            [
              84.44465773434897,
              25.85410733608326
            ],
            [
              84.44483248990942,
              25.854320908844482
            ],
            [
              84.44666889967506,
              25.85566042094846
            ],
            [
              84.44838552358914,
              25.85692775693747
            ],
            [
              84.44954786361674,
              25.856999390003526
            ],
            [
              84.45043569825644,
              25.85696287382217
            ],
            [
              84.45112901529778,
              25.85684510639279
            ],
            [
              84.45247062222514,
              25.856645831215133
            ],
            [
              84.45346594837345,
              25.856261500976057
            ],
            [
              84.45446036003678,
              25.855877513861078
            ],
            [
              84.4564551032611,
              25.85514529679562
            ],
            [
              84.45738229039847,
              25.854273691053503
            ],
            [
              84.45824942875232,
              25.85313131613631
            ],
            [
              84.4591763401069,
              25.852002502661115
            ],
            [
              84.46002364994752,
              25.85110840369129
            ],
            [
              84.46059714340804,
              25.850823724347535
            ],
            [
              84.4624920110408,
              25.850168204669828
            ],
            [
              84.46497544855951,
              25.84948510493314
            ],
            [
              84.4670500556059,
              25.84909124180013
            ],
            [
              84.46979295532476,
              25.84856134472941
            ],
            [
              84.47302920710271,
              25.84761595383618
            ],
            [
              84.47437078258906,
              25.847416486054808
            ],
            [
              84.4754777190215,
              25.846986985255953
            ],
            [
              84.47581136319948,
              25.846377467146134
            ],
            [
              84.47611008806574,
              25.845790491348648
            ],
            [
              84.47733180224203,
              25.845437579768607
            ],
            [
              84.47877314192888,
              25.84535082634083
            ],
            [
              84.48021428668133,
              25.845006767733302
            ],
            [
              84.48210904741457,
              25.84444582261126
            ],
            [
              84.48327082779174,
              25.84410195378692
            ],
            [
              84.4846521124069,
              25.843708210167645
            ],
            [
              84.48593349178604,
              25.843314571147843
            ],
            [
              84.49001703184501,
              25.842011613835407
            ],
            [
              84.49202653528783,
              25.841545182778436
            ],
            [
              84.4932530626374,
              25.841097370204803
            ],
            [
              84.49496762132466,
              25.83999023329568
            ],
            [
              84.49560071620766,
              25.83968280028333
            ],
            [
              84.49634918082431,
              25.840047726314058
            ],
            [
              84.49666892357328,
              25.840616144169296
            ],
            [
              84.49786252856602,
              25.84270411002309
            ],
            [
              84.4982845049842,
              25.843436282042063
            ],
            [
              84.49826376018933,
              25.844162929306435
            ],
            [
              84.4983430436997,
              25.844700086694434
            ],
            [
              84.49828257899622,
              25.845295780685127
            ],
            [
              84.49852127214703,
              25.84589617689371
            ],
            [
              84.49860052601294,
              25.846478535093485
            ],
            [
              84.4988640324285,
              25.847205343144108
            ],
            [
              84.49906242895226,
              25.848306766379153
            ],
            [
              84.49914155885068,
              25.84894316312538
            ],
            [
              84.4992057111384,
              25.849561580971535
            ],
            [
              84.4992251192401,
              25.850125784047837
            ],
            [
              84.49936404639374,
              25.850744156905396
            ],
            [
              84.49953856300229,
              25.851784248214976
            ],
            [
              84.49958218339587,
              25.85204421524708
            ],
            [
              84.49966129173472,
              25.85266256837175
            ],
            [
              84.49984021278313,
              25.853281074285153
            ],
            [
              84.49995935723759,
              25.85386337995177
            ],
            [
              84.50012327462409,
              25.854517943020365
            ],
            [
              84.50022242527525,
              25.855064096072052
            ],
            [
              84.50048112929733,
              25.85569161671121
            ],
            [
              84.50076485499328,
              25.856310219953404
            ],
            [
              84.50100372511217,
              25.856802346220544
            ],
            [
              84.50132242761204,
              25.857402906313958
            ],
            [
              84.50146645629817,
              25.857949142235068
            ],
            [
              84.5017051701102,
              25.85860374816106
            ],
            [
              84.50178429641537,
              25.859357510976857
            ],
            [
              84.50181354017114,
              25.85992621191385
            ],
            [
              84.50226201329694,
              25.86037793677792
            ],
            [
              84.50397680464785,
              25.86157540991994
            ],
            [
              84.50450022601446,
              25.861927841679012
            ],
            [
              84.50519819722727,
              25.862275958251754
            ],
            [
              84.50570169306256,
              25.86266900792223
            ],
            [
              84.50649874485798,
              25.86368965976056
            ],
            [
              84.50716614640166,
              25.864755300780715
            ],
            [
              84.50755181111944,
              25.865299907901868
            ],
            [
              84.50794324481798,
              25.865852650681507
            ],
            [
              84.50859563730991,
              25.866999544801093
            ],
            [
              84.50925801098296,
              25.868146422131463
            ],
            [
              84.50978567329604,
              25.869324814321594
            ],
            [
              84.51008952035605,
              25.869848549662112
            ],
            [
              84.5103981671146,
              25.870476167208977
            ],
            [
              84.51065681903438,
              25.871275257193645
            ],
            [
              84.51089252888008,
              25.87140025083739
            ],
            [
              84.51087810193663,
              25.87139799896298
            ],
            [
              84.51119364595998,
              25.871809130220917
            ],
            [
              84.51259151167864,
              25.871985464337836
            ],
            [
              84.51437578142857,
              25.872392589354803
            ],
            [
              84.51451678009725,
              25.872424760330887
            ],
            [
              84.51657680119835,
              25.872751273984836
            ],
            [
              84.51837242475519,
              25.87319488975825
            ],
            [
              84.52045726540928,
              25.873643157866844
            ],
            [
              84.52124219713485,
              25.873791271070374
            ],
            [
              84.52225797971879,
              25.87398293905044
            ],
            [
              84.52457987140333,
              25.874508027785406
            ],
            [
              84.52526269432552,
              25.874647497988448
            ],
            [
              84.52741809764521,
              25.87508772974332
            ],
            [
              84.52988464503993,
              25.875581360380547
            ],
            [
              84.5313859823063,
              25.875943366131757
            ],
            [
              84.53283762656775,
              25.876215166950796
            ],
            [
              84.53337442834054,
              25.876287614356446
            ],
            [
              84.5339799727921,
              25.876369336366892
            ],
            [
              84.53460449864558,
              25.875196260023383
            ],
            [
              84.53536386791144,
              25.87378857065395
            ],
            [
              84.53560380343227,
              25.87313428727569
            ]
          ]
        ]
      }
    }
  ]
}