{
  "type": "FeatureCollection",
  "features": [
    {
      "type": "Feature",
      "properties": {
        "objectid": "09-159-00831",
        "stcode11": "09",
        "dtcode11": "159",
        "sdtcode11": "00831",
        "stname": "UTTAR PRADESH",
        "dtname": "Farrukhabad",
        "sdtname": "Amritpur",
        "st_area_sh": 0.0,
        "st_length_": 0.0,
        "remarks": "",
        "dist_lgd": 141,
        "state_lgd": 9,
        "subdt_lgd": 831,
        "ac_no": 193,
        "st_length(shape)": 184270.55977891406,
        "st_area(shape)": 450643772.9747722
      },
      "geometry": {
        "type": "Polygon",
        "coordinates": [
          [
            [
              79.64439848781379,
              27.636685046994614
            ],
            [
              79.64481319865799,
              27.636603958907997
            ],
            [
              79.64515841942504,
              27.636625215369605
            ],
            [
              79.64550339495203,
              27.63676963664226
            ],
            [
              79.64580244590672,
              27.636852327392358
            ],
            [
              79.64589431032265,
              27.636934643247955
            ],
            [
              79.6459865205899,
              27.636893793708946
            ],
            [
              79.64619411406554,
              27.636750700828916
            ],
            [
              79.64741889778517,
              27.635132512297385
            ],
            [
              79.64806631540706,
              27.634149163962718
            ],
            [
              79.64758365689312,
              27.633860883338617
            ],
            [
              79.64795346724443,
              27.63334873734757
            ],
            [
              79.64896573921224,
              27.63361770971364
            ],
            [
              79.64928846975783,
              27.633454293779902
            ],
            [
              79.64974956241677,
              27.633229645019366
            ],
            [
              79.65016392561296,
              27.6332305618371
            ],
            [
              79.65060144827544,
              27.633211046033402
            ],
            [
              79.65087015144489,
              27.632894121054786
            ],
            [
              79.65100885491803,
              27.632709722187492
            ],
            [
              79.65034664024678,
              27.630759158685507
            ],
            [
              79.6522149150522,
              27.62951175392142
            ],
            [
              79.65297678432948,
              27.628733726902812
            ],
            [
              79.65356747064625,
              27.628586133780537
            ],
            [
              79.65350746408357,
              27.628283548395327
            ],
            [
              79.65060865006906,
              27.627620643694435
            ],
            [
              79.65077121010118,
              27.627087547652856
            ],
            [
              79.65014986608041,
              27.627024637834957
            ],
            [
              79.64860817289825,
              27.62673392130982
            ],
            [
              79.64623627918837,
              27.625115778880232
            ],
            [
              79.64569005139333,
              27.624529020615697
            ],
            [
              79.6465456769385,
              27.623161286693712
            ],
            [
              79.6473922214145,
              27.621715820871596
            ],
            [
              79.64847240961103,
              27.619680184083396
            ],
            [
              79.64873471587737,
              27.619061611158415
            ],
            [
              79.64873636069265,
              27.618473410812012
            ],
            [
              79.64848736206893,
              27.615922566612387
            ],
            [
              79.64837388688224,
              27.61336255285969
            ],
            [
              79.65188804327312,
              27.613354796702286
            ],
            [
              79.65274866614622,
              27.61419261374398
            ],
            [
              79.65328544725773,
              27.61479751928867
            ],
            [
              79.65378503721817,
              27.61636428064384
            ],
            [
              79.65447087758137,
              27.616128442047366
            ],
            [
              79.65500835578557,
              27.61648562322056
            ],
            [
              79.6553039688877,
              27.61637797692149
            ],
            [
              79.65716552339644,
              27.615267424283843
            ],
            [
              79.65850505431719,
              27.614511826394832
            ],
            [
              79.659653000639,
              27.613941523304426
            ],
            [
              79.66059213177637,
              27.613525622279976
            ],
            [
              79.66081240497223,
              27.613324573632617
            ],
            [
              79.66001704829777,
              27.613270606062034
            ],
            [
              79.66048926030328,
              27.612064160165804
            ],
            [
              79.66017688284134,
              27.61197062982383
            ],
            [
              79.65976030529798,
              27.611861351259094
            ],
            [
              79.65899988230832,
              27.610451007686603
            ],
            [
              79.65785862663876,
              27.608575532606586
            ],
            [
              79.65714715823879,
              27.60779216191392
            ],
            [
              79.65525517958795,
              27.609020594096823
            ],
            [
              79.65509714436992,
              27.608523063209716
            ],
            [
              79.65400442557348,
              27.60799437496159
            ],
            [
              79.65312690988145,
              27.60742408172176
            ],
            [
              79.65226098065996,
              27.60770021362487
            ],
            [
              79.65193128188271,
              27.607575674787046
            ],
            [
              79.65152724212577,
              27.606968204324826
            ],
            [
              79.65139552664725,
              27.606614747844258
            ],
            [
              79.65013100684934,
              27.605404488004908
            ],
            [
              79.64921256840455,
              27.60465938177357
            ],
            [
              79.6482596553141,
              27.60382133022263
            ],
            [
              79.6475875421067,
              27.60319019575702
            ],
            [
              79.64774488741864,
              27.602819101310633
            ],
            [
              79.64793736673961,
              27.602308652242733
            ],
            [
              79.6479381482739,
              27.602029977620504
            ],
            [
              79.6472120544028,
              27.600836405609368
            ],
            [
              79.64434672329388,
              27.59619368863736
            ],
            [
              79.64406996043965,
              27.595775047665505
            ],
            [
              79.64395178796235,
              27.594582819074883
            ],
            [
              79.64379903573648,
              27.59326118189179
            ],
            [
              79.64348728889188,
              27.592966368774515
            ],
            [
              79.64348790423784,
              27.59274969074282
            ],
            [
              79.64384246928047,
              27.590196164086095
            ],
            [
              79.64402125288665,
              27.58862450708698
            ],
            [
              79.64383391372571,
              27.587323724934368
            ],
            [
              79.64319023129879,
              27.584343109984164
            ],
            [
              79.64282218434035,
              27.583336945660974
            ],
            [
              79.64280552688004,
              27.583104703340524
            ],
            [
              79.64289316023095,
              27.582810694163598
            ],
            [
              79.64263345638399,
              27.582531516131137
            ],
            [
              79.6412983361913,
              27.5814306608843
            ],
            [
              79.64159735929822,
              27.580501229004597
            ],
            [
              79.64170382942234,
              27.57971189370375
            ],
            [
              79.64149755018194,
              27.579280909383034
            ],
            [
              79.64014727181713,
              27.577838125341206
            ],
            [
              79.6386077624394,
              27.576432646284005
            ],
            [
              79.6405170947449,
              27.575292952302256
            ],
            [
              79.64149047325414,
              27.574969996019473
            ],
            [
              79.64308854919513,
              27.57474140123153
            ],
            [
              79.64503395155421,
              27.574529092980566
            ],
            [
              79.64671795404706,
              27.574641250667995
            ],
            [
              79.64954656562044,
              27.57526673114074
            ],
            [
              79.65175562621035,
              27.575766979338056
            ],
            [
              79.65373418897984,
              27.57612743968349
            ],
            [
              79.65557296221297,
              27.576797120771236
            ],
            [
              79.65815887684435,
              27.577282574736444
            ],
            [
              79.6589934521675,
              27.577538443075223
            ],
            [
              79.65779583889196,
              27.576708987638305
            ],
            [
              79.65727499658855,
              27.576661474037174
            ],
            [
              79.6563728769392,
              27.576380831157483
            ],
            [
              79.65677677655893,
              27.574709777220285
            ],
            [
              79.65632495361542,
              27.574832708296597
            ],
            [
              79.65516036959623,
              27.57527906615558
            ],
            [
              79.65500529342877,
              27.5748452671129
            ],
            [
              79.65496694884085,
              27.574356333782685
            ],
            [
              79.65202628411387,
              27.56721810387505
            ],
            [
              79.65181333578084,
              27.566324893127785
            ],
            [
              79.65315796643746,
              27.56612144774106
            ],
            [
              79.6548078077967,
              27.565985711360888
            ],
            [
              79.65815443018371,
              27.564558380016482
            ],
            [
              79.6588728407642,
              27.564328638297766
            ],
            [
              79.66038110673634,
              27.562984177640725
            ],
            [
              79.66057024701941,
              27.562599799995763
            ],
            [
              79.66048373925756,
              27.56226838162084
            ],
            [
              79.66015708756574,
              27.561858555950888
            ],
            [
              79.65810742403984,
              27.56043193466521
            ],
            [
              79.6569301629954,
              27.55953323894922
            ],
            [
              79.65559970595729,
              27.558880373379665
            ],
            [
              79.65718982282486,
              27.557480171358627
            ],
            [
              79.65888294142125,
              27.55578687735126
            ],
            [
              79.66034912491557,
              27.554835367391647
            ],
            [
              79.66159610959915,
              27.554175659694142
            ],
            [
              79.6638508001139,
              27.552446577882332
            ],
            [
              79.66586390220775,
              27.55116502864824
            ],
            [
              79.66887253167246,
              27.549876814068792
            ],
            [
              79.66989058879071,
              27.549586651156794
            ],
            [
              79.6699681223829,
              27.548593285902587
            ],
            [
              79.67019134744277,
              27.54670754964653
            ],
            [
              79.66616834574909,
              27.548137231658306
            ],
            [
              79.66582012281236,
              27.547668943334735
            ],
            [
              79.66531730610345,
              27.547823670268933
            ],
            [
              79.66444936465572,
              27.545620373894376
            ],
            [
              79.66415349373712,
              27.54561974467133
            ],
            [
              79.66407805771111,
              27.545619585374354
            ],
            [
              79.6627239165906,
              27.545538808238536
            ],
            [
              79.66136178405726,
              27.54521246775019
            ],
            [
              79.65972573812587,
              27.544390686772598
            ],
            [
              79.65863558312124,
              27.54364805735616
            ],
            [
              79.65772085741351,
              27.54263297660779
            ],
            [
              79.65724388343868,
              27.54132664079309
            ],
            [
              79.6577031893485,
              27.541136662802355
            ],
            [
              79.65864684440166,
              27.53950215637462
            ],
            [
              79.66016137881783,
              27.536758387208575
            ],
            [
              79.65953208021523,
              27.5364090719893
            ],
            [
              79.65890281844354,
              27.53532672264289
            ],
            [
              79.6575923013098,
              27.533913213962943
            ],
            [
              79.65799079935977,
              27.533376516626102
            ],
            [
              79.65799201837359,
              27.532928431101514
            ],
            [
              79.65779742531674,
              27.532187625657762
            ],
            [
              79.65690511077872,
              27.53103625798081
            ],
            [
              79.65810861161263,
              27.53022057965408
            ],
            [
              79.65946543689923,
              27.52921038869318
            ],
            [
              79.65999285397223,
              27.52873624430038
            ],
            [
              79.6595960196022,
              27.52737356984739
            ],
            [
              79.65940485810972,
              27.525366388642936
            ],
            [
              79.65949365837221,
              27.52484058897491
            ],
            [
              79.66179300593639,
              27.522566012624893
            ],
            [
              79.66196264020138,
              27.522445569935865
            ],
            [
              79.66212128986706,
              27.52233293113433
            ],
            [
              79.6617519601144,
              27.521775651375965
            ],
            [
              79.65944276521812,
              27.519627590329822
            ],
            [
              79.65907280574642,
              27.519120273212774
            ],
            [
              79.65916065379471,
              27.51894510134499
            ],
            [
              79.659502761001,
              27.518665662131088
            ],
            [
              79.65897984718252,
              27.517912377694095
            ],
            [
              79.65919435229596,
              27.517802517871758
            ],
            [
              79.65893847976368,
              27.517476043239537
            ],
            [
              79.65753406891983,
              27.5161807087987
            ],
            [
              79.65696403756644,
              27.514994924666972
            ],
            [
              79.6567001224174,
              27.51403421874136
            ],
            [
              79.65658327495515,
              27.513434937780026
            ],
            [
              79.65623911420013,
              27.512923348758324
            ],
            [
              79.65600287165346,
              27.512658549979164
            ],
            [
              79.65534207811697,
              27.51238409902769
            ],
            [
              79.65515531567446,
              27.512110588326898
            ],
            [
              79.65512649143193,
              27.511802236748554
            ],
            [
              79.65499136235532,
              27.511410153300936
            ],
            [
              79.65483373766737,
              27.511295257205116
            ],
            [
              79.65470555975445,
              27.5112245199864
            ],
            [
              79.65451802026921,
              27.511197654905576
            ],
            [
              79.65437993304035,
              27.511170989001798
            ],
            [
              79.65429131244093,
              27.511065062302226
            ],
            [
              79.65382056738427,
              27.509910157397137
            ],
            [
              79.6537034441392,
              27.50945481826616
            ],
            [
              79.65377336900093,
              27.50912904628969
            ],
            [
              79.65391269590486,
              27.508741785616593
            ],
            [
              79.6540627540832,
              27.508010984641526
            ],
            [
              79.65428232030493,
              27.507179564372358
            ],
            [
              79.65424433324651,
              27.50660690432292
            ],
            [
              79.65401099225822,
              27.505293959014203
            ],
            [
              79.65396730538932,
              27.504883697741583
            ],
            [
              79.65448670859163,
              27.50463432602592
            ],
            [
              79.65565293023958,
              27.50417884474698
            ],
            [
              79.65640352116849,
              27.504074743126466
            ],
            [
              79.65694661743642,
              27.50404955831527
            ],
            [
              79.65716368813831,
              27.50408521209576
            ],
            [
              79.6574487837651,
              27.504526310243378
            ],
            [
              79.65804841191219,
              27.505496478840133
            ],
            [
              79.65860022363502,
              27.50586769277562
            ],
            [
              79.66015860661686,
              27.506837621670858
            ],
            [
              79.66186314639376,
              27.507790946324782
            ],
            [
              79.66272595935956,
              27.506684565228852
            ],
            [
              79.66319107467432,
              27.505775111708985
            ],
            [
              79.66408439622377,
              27.503380691826038
            ],
            [
              79.66376154171064,
              27.502913619969856
            ],
            [
              79.66329996935136,
              27.502005311362545
            ],
            [
              79.66254665203557,
              27.500176649327813
            ],
            [
              79.66134958942732,
              27.498719532015087
            ],
            [
              79.66148100217356,
              27.497393403011056
            ],
            [
              79.66227207927402,
              27.49742614492587
            ],
            [
              79.66349803978669,
              27.49743904805843
            ],
            [
              79.66552165486428,
              27.497567907184823
            ],
            [
              79.66725654691797,
              27.496907490017318
            ],
            [
              79.66948108907349,
              27.4958018967533
            ],
            [
              79.6714361141859,
              27.495442835866054
            ],
            [
              79.67393819893329,
              27.49493955165492
            ],
            [
              79.67515253075454,
              27.494499912376952
            ],
            [
              79.67642698591949,
              27.494191199879285
            ],
            [
              79.6777013332866,
              27.49388257018623
            ],
            [
              79.6803309060408,
              27.493535152367897
            ],
            [
              79.68229724184093,
              27.493321216178323
            ],
            [
              79.68320906599031,
              27.493583937853828
            ],
            [
              79.68531121897654,
              27.493514368606373
            ],
            [
              79.68798557544258,
              27.493830903386712
            ],
            [
              79.69043755126512,
              27.494769605299517
            ],
            [
              79.6910355328003,
              27.495201396120716
            ],
            [
              79.69163348469107,
              27.49563316134292
            ],
            [
              79.69217789160102,
              27.496190178298566
            ],
            [
              79.69335122790599,
              27.496783964952815
            ],
            [
              79.69556460040926,
              27.497047204276914
            ],
            [
              79.69892579706347,
              27.497219635633503
            ],
            [
              79.70138038159355,
              27.49707905463461
            ],
            [
              79.70280500093804,
              27.496287857656828
            ],
            [
              79.70303398060564,
              27.495817855979393
            ],
            [
              79.70039242791883,
              27.493460988379248
            ],
            [
              79.69983826260993,
              27.491716825341705
            ],
            [
              79.69956762985923,
              27.488146939637073
            ],
            [
              79.69892227387092,
              27.48565545568932
            ],
            [
              79.69776651490109,
              27.48262346627906
            ],
            [
              79.69657003080789,
              27.478990304671242
            ],
            [
              79.69579144388314,
              27.473925187620484
            ],
            [
              79.69519248318431,
              27.471516783150616
            ],
            [
              79.69458951689762,
              27.47080999577084
            ],
            [
              79.69459183455103,
              27.46985542076436
            ],
            [
              79.69482600468437,
              27.46919177200088
            ],
            [
              79.69505916690794,
              27.468984695673804
            ],
            [
              79.69557083381902,
              27.468985681612047
            ],
            [
              79.69636060566735,
              27.46940225208304
            ],
            [
              79.69794817581112,
              27.470078663248582
            ],
            [
              79.69802316986598,
              27.470110601906157
            ],
            [
              79.69899986226032,
              27.470195420389334
            ],
            [
              79.69965138608137,
              27.470072180190968
            ],
            [
              79.7013680701826,
              27.471943159336277
            ],
            [
              79.70605512090734,
              27.476725006644553
            ],
            [
              79.70958325688068,
              27.479844378685776
            ],
            [
              79.71107517531127,
              27.478435880924838
            ],
            [
              79.71298915100846,
              27.475492602147117
            ],
            [
              79.71224726565296,
              27.47445363432689
            ],
            [
              79.71048632155768,
              27.471545071830946
            ],
            [
              79.71035154462065,
              27.46946957138374
            ],
            [
              79.70895916311682,
              27.468097287106975
            ],
            [
              79.7084023998801,
              27.46751520669594
            ],
            [
              79.70965627104862,
              27.465707561189323
            ],
            [
              79.71030820719642,
              27.464592267621907
            ],
            [
              79.71157084861707,
              27.4624321577866
            ],
            [
              79.71418021466724,
              27.4604031441034
            ],
            [
              79.71716176262109,
              27.45829169989415
            ],
            [
              79.71702642244038,
              27.456423700665006
            ],
            [
              79.71666220140675,
              27.452936572873416
            ],
            [
              79.71626597339959,
              27.450864970192672
            ],
            [
              79.71834134581057,
              27.449919040860316
            ],
            [
              79.7215743115512,
              27.44801050532789
            ],
            [
              79.7252765994171,
              27.447440876293122
            ],
            [
              79.72951055338724,
              27.446659486355696
            ],
            [
              79.73118571915266,
              27.446346617921613
            ],
            [
              79.73611719877127,
              27.44542546460405
            ],
            [
              79.73719678958813,
              27.444834693649963
            ],
            [
              79.73615284392173,
              27.44364997169552
            ],
            [
              79.73343856273121,
              27.44065700705828
            ],
            [
              79.73047743977197,
              27.43773889466747
            ],
            [
              79.72931755304342,
              27.43642942269793
            ],
            [
              79.72883103357037,
              27.435619215989973
            ],
            [
              79.7282954705744,
              27.435971076252056
            ],
            [
              79.7264104646468,
              27.436735764076015
            ],
            [
              79.72373516405139,
              27.43731218689648
            ],
            [
              79.72245627659885,
              27.43733070824511
            ],
            [
              79.72207559842919,
              27.43710275376612
            ],
            [
              79.72107639335553,
              27.43683117208909
            ],
            [
              79.72024012201314,
              27.436497584916033
            ],
            [
              79.71921871058561,
              27.43570716322186
            ],
            [
              79.71838310219992,
              27.435083074326982
            ],
            [
              79.71747318068233,
              27.434312680804123
            ],
            [
              79.7172696260322,
              27.43389816634884
            ],
            [
              79.71687560967725,
              27.43333714463418
            ],
            [
              79.71706427744647,
              27.432175232946054
            ],
            [
              79.71767146940823,
              27.430972634033633
            ],
            [
              79.71872012584,
              27.429916063631364
            ],
            [
              79.71999385965776,
              27.428432317633906
            ],
            [
              79.71927489481675,
              27.427600899624196
            ],
            [
              79.71843994309953,
              27.4267069802402
            ],
            [
              79.71791006194772,
              27.426136619302607
            ],
            [
              79.71755977198751,
              27.42523189106612
            ],
            [
              79.71648088275488,
              27.423131621838696
            ],
            [
              79.71649526298596,
              27.42300936563465
            ],
            [
              79.7176588876044,
              27.4224926529867
            ],
            [
              79.71689615594443,
              27.420498871011738
            ],
            [
              79.71766372772711,
              27.420152327090566
            ],
            [
              79.72031726843143,
              27.418745804369376
            ],
            [
              79.72266798435847,
              27.417567004650014
            ],
            [
              79.72506079713638,
              27.41637262591574
            ],
            [
              79.72582915135172,
              27.41583430472663
            ],
            [
              79.7253651849822,
              27.415397749392355
            ],
            [
              79.72487756956451,
              27.415137455355893
            ],
            [
              79.72438985623046,
              27.41487715831377
            ],
            [
              79.72339128087579,
              27.41439804492534
            ],
            [
              79.7225553796393,
              27.413960827623963
            ],
            [
              79.7216508821494,
              27.412983737641
            ],
            [
              79.72082418055972,
              27.411748064273183
            ],
            [
              79.71982618641503,
              27.41097842660727
            ],
            [
              79.71822457380678,
              27.409917115354194
            ],
            [
              79.7171566844448,
              27.409251057310918
            ],
            [
              79.71592797508738,
              27.40773387037152
            ],
            [
              79.71414306304204,
              27.40550989309418
            ],
            [
              79.71094894584417,
              27.401776133251545
            ],
            [
              79.71023014629317,
              27.400965318191517
            ],
            [
              79.70999900617731,
              27.400404555858948
            ],
            [
              79.71011770776231,
              27.399325531708925
            ],
            [
              79.71011975322622,
              27.399269138226835
            ],
            [
              79.71014254797655,
              27.398640748803107
            ],
            [
              79.709818455585,
              27.39803828662765
            ],
            [
              79.70916913802627,
              27.397372934608104
            ],
            [
              79.70814821797723,
              27.3965824051632
            ],
            [
              79.70696921599773,
              27.39494780010959
            ],
            [
              79.70567288056743,
              27.392662400705284
            ],
            [
              79.70535613459822,
              27.392851254954238
            ],
            [
              79.70460899679327,
              27.394240381097067
            ],
            [
              79.70402550957522,
              27.395277009693316
            ],
            [
              79.70335028370538,
              27.39575312338369
            ],
            [
              79.70258323294551,
              27.395751681379327
            ],
            [
              79.7008184835867,
              27.395001225629912
            ],
            [
              79.69947167361723,
              27.394417473155325
            ],
            [
              79.69858871862613,
              27.394291300965023
            ],
            [
              79.69798425844114,
              27.39431091024834
            ],
            [
              79.69725882393345,
              27.39447057830556
            ],
            [
              79.69659169457925,
              27.393457298639433
            ],
            [
              79.69617709063462,
              27.39187919939609
            ],
            [
              79.6958765475782,
              27.391235221122983
            ],
            [
              79.69513313598507,
              27.391047006981676
            ],
            [
              79.69453000261173,
              27.390568458671943
            ],
            [
              79.69388044969439,
              27.390048384726494
            ],
            [
              79.69355519578114,
              27.389964698664247
            ],
            [
              79.69292643077782,
              27.390461532334655
            ],
            [
              79.69255505915453,
              27.390253356726987
            ],
            [
              79.69220710211911,
              27.389982841909383
            ],
            [
              79.69164938756654,
              27.38991946297168
            ],
            [
              79.69109304923299,
              27.38929573989585
            ],
            [
              79.690305532156,
              27.38817350535629
            ],
            [
              79.69018962522985,
              27.388094817382648
            ],
            [
              79.6908648097772,
              27.38763951909987
            ],
            [
              79.69200576361278,
              27.386790890651984
            ],
            [
              79.69258865165459,
              27.386065569100708
            ],
            [
              79.69286919731445,
              27.3854019469106
            ],
            [
              79.69361221814044,
              27.385693991703352
            ],
            [
              79.69393842067461,
              27.385383258123404
            ],
            [
              79.69396223591113,
              27.38515508636199
            ],
            [
              79.69382368335498,
              27.38478115922569
            ],
            [
              79.69342962298252,
              27.38434453786278
            ],
            [
              79.69243196390946,
              27.383595466003168
            ],
            [
              79.69141100613118,
              27.382908541270307
            ],
            [
              79.69142630983036,
              27.38289283930427
            ],
            [
              79.69190576225706,
              27.38240088285638
            ],
            [
              79.6916279133397,
              27.381964481826188
            ],
            [
              79.69188438055666,
              27.381632943295763
            ],
            [
              79.69005221083914,
              27.38003117720338
            ],
            [
              79.68933784357577,
              27.379482881831517
            ],
            [
              79.68780213586834,
              27.378304160305625
            ],
            [
              79.6882922135682,
              27.377605581828064
            ],
            [
              79.68903886987616,
              27.376444816653276
            ],
            [
              79.68906371817523,
              27.37580145528801
            ],
            [
              79.68925055787287,
              27.37540748903404
            ],
            [
              79.68901925156868,
              27.37497117130042
            ],
            [
              79.68897581083817,
              27.373725789877454
            ],
            [
              79.6891854425912,
              27.373560823670996
            ],
            [
              79.68951136934257,
              27.373312479245314
            ],
            [
              79.68972110530015,
              27.37310534191905
            ],
            [
              79.68951336629745,
              27.37250304776243
            ],
            [
              79.6892129031911,
              27.371817514821533
            ],
            [
              79.68909779127398,
              27.371381423851744
            ],
            [
              79.68870363568013,
              27.371007076017833
            ],
            [
              79.6881231084109,
              27.370839908759493
            ],
            [
              79.687380033686,
              27.37061012586246
            ],
            [
              79.68682323361837,
              27.370214686025168
            ],
            [
              79.6867784606863,
              27.36988622831893
            ],
            [
              79.68677980276934,
              27.369346543947994
            ],
            [
              79.68720050717309,
              27.3683926823108
            ],
            [
              79.6876904627021,
              27.36764650366757
            ],
            [
              79.68799394055453,
              27.367065979024567
            ],
            [
              79.68822816009518,
              27.366319201877506
            ],
            [
              79.68850919803181,
              27.365448023184044
            ],
            [
              79.68905537282627,
              27.36463938064333
            ],
            [
              79.68971946138319,
              27.364127090172026
            ],
            [
              79.69060469540015,
              27.36323632571139
            ],
            [
              79.69107140432624,
              27.362469324607076
            ],
            [
              79.6911437187066,
              27.361390175305473
            ],
            [
              79.6913074124126,
              27.36085594809052
            ],
            [
              79.69144857637131,
              27.360150506681816
            ],
            [
              79.69179817642535,
              27.35971531996106
            ],
            [
              79.69245040183065,
              27.359073168199977
            ],
            [
              79.69270866028833,
              27.358815676003502
            ],
            [
              79.69321910099907,
              27.358306743814826
            ],
            [
              79.69366241959179,
              27.35758112225608
            ],
            [
              79.69380180039465,
              27.35760215661263
            ],
            [
              79.69421898430078,
              27.358059600221782
            ],
            [
              79.69426342755115,
              27.358869134930128
            ],
            [
              79.6943784442469,
              27.359346757640026
            ],
            [
              79.69519143485037,
              27.359493588810857
            ],
            [
              79.69593480781595,
              27.35957807979411
            ],
            [
              79.6968644275911,
              27.35953833829963
            ],
            [
              79.69751119483273,
              27.359315303138374
            ],
            [
              79.69858059426271,
              27.359130558722427
            ],
            [
              79.69883694739364,
              27.358819764110383
            ],
            [
              79.6985864072609,
              27.356702222621678
            ],
            [
              79.69965632232386,
              27.35624762493402
            ],
            [
              79.7010132976291,
              27.35580284300846
            ],
            [
              79.70265635221641,
              27.355215532687314
            ],
            [
              79.7030627590341,
              27.355104297241862
            ],
            [
              79.70346916585179,
              27.35499306088684
            ],
            [
              79.70408249420527,
              27.35453500062589
            ],
            [
              79.70410530871854,
              27.353977890941035
            ],
            [
              79.70378462184021,
              27.35317031835744
            ],
            [
              79.70259250355927,
              27.349007328175652
            ],
            [
              79.70275980759439,
              27.348810949834576
            ],
            [
              79.70350389112738,
              27.347937545251696
            ],
            [
              79.703646983769,
              27.347863665623265
            ],
            [
              79.70450758059096,
              27.34777771669
            ],
            [
              79.70500267807665,
              27.34765763765938
            ],
            [
              79.70504621402858,
              27.347608655214216
            ],
            [
              79.70550910691132,
              27.347530962922058
            ],
            [
              79.70647292644766,
              27.347523477668307
            ],
            [
              79.70701714740636,
              27.348488487157404
            ],
            [
              79.70780571910548,
              27.349112615777507
            ],
            [
              79.70878147815023,
              27.349197476929334
            ],
            [
              79.71106171764998,
              27.34781107031304
            ],
            [
              79.71137199305419,
              27.34766162564079
            ],
            [
              79.71286289189695,
              27.346943520967752
            ],
            [
              79.71210073336212,
              27.344887245326387
            ],
            [
              79.71138911404516,
              27.34211475292281
            ],
            [
              79.71120510673565,
              27.34132571826809
            ],
            [
              79.71099679281116,
              27.340951659823407
            ],
            [
              79.71064907742253,
              27.340618966689092
            ],
            [
              79.71051057068046,
              27.340224363744834
            ],
            [
              79.71055769540196,
              27.339954597230836
            ],
            [
              79.71086024709132,
              27.339747595397082
            ],
            [
              79.71093488092177,
              27.339684793353396
            ],
            [
              79.71367161190955,
              27.3397111871012
            ],
            [
              79.7149962020505,
              27.33960985010923
            ],
            [
              79.71548479214029,
              27.33929934864161
            ],
            [
              79.71616102591987,
              27.338221337340382
            ],
            [
              79.7159995447644,
              27.336466126999102
            ],
            [
              79.71595703019693,
              27.334743285615627
            ],
            [
              79.71630881136052,
              27.333270239198562
            ],
            [
              79.71773009436201,
              27.33144628060289
            ],
            [
              79.71884772074633,
              27.33036894467676
            ],
            [
              79.7211514475975,
              27.328671018690095
            ],
            [
              79.72201355358916,
              27.327510236156442
            ],
            [
              79.72231179156853,
              27.326671512871975
            ],
            [
              79.72275615580024,
              27.32534395870912
            ],
            [
              79.7226640712971,
              27.324928674235927
            ],
            [
              79.72162182793816,
              27.32349458305172
            ],
            [
              79.72169368507606,
              27.32253996183404
            ],
            [
              79.72174599667,
              27.31986251117763
            ],
            [
              79.72184059555761,
              27.31913625396576
            ],
            [
              79.72121583344718,
              27.31803504134044
            ],
            [
              79.72202957683889,
              27.317500249118392
            ],
            [
              79.7233325472259,
              27.316547783161955
            ],
            [
              79.72414797675536,
              27.3154698611151
            ],
            [
              79.72479887265405,
              27.314502275852245
            ],
            [
              79.72661620310137,
              27.31199389728837
            ],
            [
              79.72827134272416,
              27.30929841236362
            ],
            [
              79.7288073036738,
              27.30851060566536
            ],
            [
              79.72785478404546,
              27.307854662002303
            ],
            [
              79.72548943276578,
              27.306044773008328
            ],
            [
              79.72400537010233,
              27.304921291725226
            ],
            [
              79.72398267057342,
              27.304672246652405
            ],
            [
              79.72472886963891,
              27.303324321676822
            ],
            [
              79.72510434027481,
              27.301560705046157
            ],
            [
              79.72531498442918,
              27.3008553069045
            ],
            [
              79.72650280696642,
              27.29936286682664
            ],
            [
              79.72708011377537,
              27.298608572761065
            ],
            [
              79.72756914403962,
              27.298007390376036
            ],
            [
              79.72692078767824,
              27.297093025022924
            ],
            [
              79.72608795598507,
              27.295597072182087
            ],
            [
              79.72391233518161,
              27.292085377613596
            ],
            [
              79.72222730142282,
              27.28960059169761
            ],
            [
              79.72230870944882,
              27.28952805432008
            ],
            [
              79.72239011657649,
              27.2894556079053
            ],
            [
              79.72357513457341,
              27.289208584651096
            ],
            [
              79.72427227484461,
              27.289043767257432
            ],
            [
              79.72545782644085,
              27.288547628311427
            ],
            [
              79.72734130702905,
              27.28751304170154
            ],
            [
              79.72901630211454,
              27.28618753066053
            ],
            [
              79.7303436015744,
              27.284550003828816
            ],
            [
              79.73129889609868,
              27.283057102685135
            ],
            [
              79.73181135442555,
              27.282331427762603
            ],
            [
              79.73180956677813,
              27.281720837652525
            ],
            [
              79.73181265967767,
              27.28026784086545
            ],
            [
              79.73167543572978,
              27.279271278745714
            ],
            [
              79.73105152522227,
              27.27777567667653
            ],
            [
              79.72966261121539,
              27.2757183423268
            ],
            [
              79.72937311204709,
              27.27534423193273
            ],
            [
              79.72908371887998,
              27.274970030854107
            ],
            [
              79.7287587371563,
              27.274886498202005
            ],
            [
              79.72775861041114,
              27.275632002944675
            ],
            [
              79.72629342494507,
              27.276625801615562
            ],
            [
              79.72534050736303,
              27.276977083950786
            ],
            [
              79.72480697006802,
              27.276706282175002
            ],
            [
              79.72350947940424,
              27.27535483515789
            ],
            [
              79.72163207591893,
              27.273753154635095
            ],
            [
              79.72024880243372,
              27.272949909959305
            ],
            [
              79.7188098864015,
              27.272573736617822
            ],
            [
              79.71667467002291,
              27.27203026331037
            ],
            [
              79.71630557023896,
              27.27095019630144
            ],
            [
              79.7158938930055,
              27.268188684622594
            ],
            [
              79.71543368428883,
              27.266299004986557
            ],
            [
              79.71469343296884,
              27.265072889303596
            ],
            [
              79.71305433725703,
              27.26360567519627
            ],
            [
              79.71175620429783,
              27.262648403712966
            ],
            [
              79.71108476572525,
              27.261796103176586
            ],
            [
              79.71101629613428,
              27.261297848619005
            ],
            [
              79.71034305643956,
              27.261234313837555
            ],
            [
              79.70925217829112,
              27.26102473121039
            ],
            [
              79.70837159036083,
              27.260275865646513
            ],
            [
              79.70627763629815,
              27.262077872370902
            ],
            [
              79.70525433571362,
              27.262781760813766
            ],
            [
              79.70451240364574,
              27.26232368707983
            ],
            [
              79.70363967597415,
              27.262962697055066
            ],
            [
              79.69991841658778,
              27.26548810865276
            ],
            [
              79.69933984944252,
              27.26469823761904
            ],
            [
              79.69864459832837,
              27.264115625661972
            ],
            [
              79.69778684287766,
              27.26355355738129
            ],
            [
              79.69744126458113,
              27.262390504788954
            ],
            [
              79.69693343437459,
              27.261144071132115
            ],
            [
              79.69698260635661,
              27.26002321325491
            ],
            [
              79.6969401241285,
              27.258362514832136
            ],
            [
              79.6964578896194,
              27.257042151820308
            ],
            [
              79.69543954234531,
              27.25569088737928
            ],
            [
              79.69442141785343,
              27.25425663814089
            ],
            [
              79.69388995926,
              27.253196948704378
            ],
            [
              79.69377594777909,
              27.252345736895993
            ],
            [
              79.69387307632255,
              27.250581457909497
            ],
            [
              79.69392049299651,
              27.250234942161505
            ],
            [
              79.69517739058921,
              27.250362712661865
            ],
            [
              79.696316344775,
              27.25041287526112
            ],
            [
              79.69632876488213,
              27.250405670158845
            ],
            [
              79.69562735222343,
              27.250215546971635
            ],
            [
              79.69363407684624,
              27.24967532736329
            ],
            [
              79.69298989944758,
              27.249443431028716
            ],
            [
              79.69187380558913,
              27.24883606719992
            ],
            [
              79.6881548449916,
              27.247390219628993
            ],
            [
              79.6863625020822,
              27.246493217933978
            ],
            [
              79.6854781816519,
              27.24778848931532
            ],
            [
              79.68399155160336,
              27.249293801968467
            ],
            [
              79.68066136119953,
              27.250134781295
            ],
            [
              79.68062238060442,
              27.2502216300306
            ],
            [
              79.67570880620603,
              27.261168678866223
            ],
            [
              79.67537481617664,
              27.261658775381324
            ],
            [
              79.67197947096525,
              27.266640833005734
            ],
            [
              79.6705453420552,
              27.26703323907771
            ],
            [
              79.66961519856225,
              27.267529511627387
            ],
            [
              79.66868319286172,
              27.268731474847282
            ],
            [
              79.66816479756915,
              27.271594805814384
            ],
            [
              79.66750736912174,
              27.27433332634031
            ],
            [
              79.66675770884743,
              27.276822623942806
            ],
            [
              79.66573274637962,
              27.278024361310635
            ],
            [
              79.664379157723,
              27.280553798738094
            ],
            [
              79.66372414843863,
              27.28233748670969
            ],
            [
              79.6613050563454,
              27.28378531409499
            ],
            [
              79.66121051674659,
              27.284407825304697
            ],
            [
              79.66325495297586,
              27.284121564390293
            ],
            [
              79.66701883742243,
              27.283465304971052
            ],
            [
              79.67059717035555,
              27.28272559315746
            ],
            [
              79.66966505955213,
              27.283927542116686
            ],
            [
              79.66793980731973,
              27.2864977472974
            ],
            [
              79.66765464072601,
              27.288946458690223
            ],
            [
              79.6679057297294,
              27.290607547962527
            ],
            [
              79.66815682591931,
              27.292268541339332
            ],
            [
              79.66763883666526,
              27.29474164915501
            ],
            [
              79.66387484082753,
              27.295314850727504
            ],
            [
              79.66173846382557,
              27.295185690178926
            ],
            [
              79.65755522244815,
              27.296131538890787
            ],
            [
              79.6489097957296,
              27.298105161983578
            ],
            [
              79.64694471038435,
              27.303123745112696
            ],
            [
              79.64375552134415,
              27.30265164260603
            ],
            [
              79.63980864198932,
              27.302061516238826
            ],
            [
              79.63978486268545,
              27.30224826278122
            ],
            [
              79.63976108338154,
              27.302435009807645
            ],
            [
              79.64124541284463,
              27.30322712620253
            ],
            [
              79.64244820400945,
              27.304973361398996
            ],
            [
              79.64309057489608,
              27.307797675955733
            ],
            [
              79.64392424831068,
              27.308712883825716
            ],
            [
              79.64531545571647,
              27.309587718116212
            ],
            [
              79.64628528408373,
              27.31162401410709
            ],
            [
              79.64702217660289,
              27.31390877962345
            ],
            [
              79.64674108207237,
              27.31473840870241
            ],
            [
              79.6461125668007,
              27.31521442499347
            ],
            [
              79.64548404793574,
              27.315690348253405
            ],
            [
              79.64290399840483,
              27.324880597940247
            ],
            [
              79.64125894237115,
              27.3315186293798
            ],
            [
              79.6397669350073,
              27.335020223730698
            ],
            [
              79.63790300625125,
              27.336842458905082
            ],
            [
              79.63791332609723,
              27.336868274784734
            ],
            [
              79.63914875395464,
              27.33995859506517
            ],
            [
              79.64076477823501,
              27.343573725733403
            ],
            [
              79.64175792866367,
              27.34565154991437
            ],
            [
              79.64275111322833,
              27.34772927129469
            ],
            [
              79.64535394942473,
              27.347569112893172
            ],
            [
              79.6482820197714,
              27.34740963727725
            ],
            [
              79.65004763330951,
              27.347496618202264
            ],
            [
              79.65018211290419,
              27.348645594624113
            ],
            [
              79.64938631425858,
              27.35071929432103
            ],
            [
              79.64830919111382,
              27.353705634246516
            ],
            [
              79.6478829009856,
              27.356568913722825
            ],
            [
              79.64829562295976,
              27.358562312014328
            ],
            [
              79.64917203013073,
              27.360930311307424
            ],
            [
              79.64674074789907,
              27.361576214794326
            ],
            [
              79.64269485892862,
              27.36243885070196
            ],
            [
              79.64253091279598,
              27.362915878008458
            ],
            [
              79.64236686335714,
              27.363392813107904
            ],
            [
              79.64374891603185,
              27.367712901367018
            ],
            [
              79.64485123332709,
              27.37236446330654
            ],
            [
              79.64936206333917,
              27.371544342308937
            ],
            [
              79.65508111123873,
              27.370768262950275
            ],
            [
              79.66126516216363,
              27.36990991765997
            ],
            [
              79.66568265811603,
              27.36913065733683
            ],
            [
              79.66590313972102,
              27.371323036117097
            ],
            [
              79.66584130598508,
              27.377092670931532
            ],
            [
              79.66590144639673,
              27.382026545980107
            ],
            [
              79.66591770769999,
              27.38336061734583
            ],
            [
              79.66554367886009,
              27.384254326681887
            ],
            [
              79.66395920610744,
              27.385745228182124
            ],
            [
              79.66249258513358,
              27.386237199268127
            ],
            [
              79.66223778608806,
              27.386322667678805
            ],
            [
              79.65856318789248,
              27.38714495397518
            ],
            [
              79.65409952122947,
              27.387550333963105
            ],
            [
              79.64703051566364,
              27.388738444646453
            ],
            [
              79.63858830403204,
              27.389751111121125
            ],
            [
              79.63667209512307,
              27.393316420254884
            ],
            [
              79.63875917887044,
              27.394981564626683
            ],
            [
              79.64233282798764,
              27.397065139354606
            ],
            [
              79.64535558974843,
              27.39669830214133
            ],
            [
              79.64823907940253,
              27.39628975266957
            ],
            [
              79.64940117688496,
              27.396333771862697
            ],
            [
              79.64944424571293,
              27.39753760370396
            ],
            [
              79.64749121755543,
              27.397740801618188
            ],
            [
              79.64386530086175,
              27.397649705711206
            ],
            [
              79.6413549534104,
              27.39764402632129
            ],
            [
              79.6393042190927,
              27.399465629617996
            ],
            [
              79.63799856004805,
              27.4008324837135
            ],
            [
              79.63511575760512,
              27.40099186720329
            ],
            [
              79.63430374526699,
              27.401857196884865
            ],
            [
              79.633716619872,
              27.402482863631942
            ],
            [
              79.63317616465102,
              27.402937638230966
            ],
            [
              79.63194563171355,
              27.403973071147693
            ],
            [
              79.63148274691565,
              27.40536718306104
            ],
            [
              79.63110802637298,
              27.406320964303408
            ],
            [
              79.63426085879702,
              27.40931683432493
            ],
            [
              79.63262989463517,
              27.410558294952388
            ],
            [
              79.63257934643413,
              27.4119694339109
            ],
            [
              79.63062084843483,
              27.41391568867211
            ],
            [
              79.6256794981279,
              27.418262290927657
            ],
            [
              79.62395679082272,
              27.419888925648536
            ],
            [
              79.62222399992842,
              27.424035456693687
            ],
            [
              79.62050388875441,
              27.42390684887906
            ],
            [
              79.6191088248811,
              27.42394501796474
            ],
            [
              79.61523928867562,
              27.427256141710192
            ],
            [
              79.61499064039486,
              27.427470862345476
            ],
            [
              79.61011057585155,
              27.43168478431091
            ],
            [
              79.6063435607762,
              27.43547942623652
            ],
            [
              79.60615201839806,
              27.437263707365368
            ],
            [
              79.60586387658417,
              27.44016846087739
            ],
            [
              79.61134560485702,
              27.442049744683963
            ],
            [
              79.6103183813296,
              27.443375461183216
            ],
            [
              79.61142730483547,
              27.445702481221208
            ],
            [
              79.61023589802022,
              27.447463519833413
            ],
            [
              79.60904456127359,
              27.449224547870333
            ],
            [
              79.60680154616257,
              27.45389406926298
            ],
            [
              79.60239097172943,
              27.451392669700713
            ],
            [
              79.59714574381977,
              27.448183464644547
            ],
            [
              79.59254690226605,
              27.446511511363227
            ],
            [
              79.58678440016124,
              27.445209831013386
            ],
            [
              79.58620205290526,
              27.443435508149047
            ],
            [
              79.5860178955771,
              27.442853952070056
            ],
            [
              79.5855531548598,
              27.442769684166613
            ],
            [
              79.58340655233498,
              27.444963847886267
            ],
            [
              79.58275872777622,
              27.444007525610214
            ],
            [
              79.58005847737215,
              27.444871936311177
            ],
            [
              79.57938615485729,
              27.44517010435375
            ],
            [
              79.57671334259521,
              27.446355422236348
            ],
            [
              79.57810685956962,
              27.446857262230886
            ],
            [
              79.5791254251343,
              27.448229650645807
            ],
            [
              79.580610437317,
              27.449188206698096
            ],
            [
              79.58130616363991,
              27.44977112125982
            ],
            [
              79.58227851806977,
              27.451060403618445
            ],
            [
              79.58245553828303,
              27.453758675030624
            ],
            [
              79.58189045395184,
              27.455874004388757
            ],
            [
              79.58020901614914,
              27.45798627129007
            ],
            [
              79.5781169377688,
              27.459294223170033
            ],
            [
              79.57727671114421,
              27.460205048170707
            ],
            [
              79.57750736796643,
              27.46076596434635
            ],
            [
              79.57773802658532,
              27.4613268792624
            ],
            [
              79.57894266468638,
              27.46274126617202
            ],
            [
              79.58010206003647,
              27.46374046502697
            ],
            [
              79.58144975125326,
              27.46411757062473
            ],
            [
              79.58256507435718,
              27.464411096292846
            ],
            [
              79.58242304442255,
              27.465157782872545
            ],
            [
              79.58064752067025,
              27.467560357202746
            ],
            [
              79.57726073730183,
              27.47151762400831
            ],
            [
              79.57667815558554,
              27.47219830376305
            ],
            [
              79.57393039957428,
              27.475279635917698
            ],
            [
              79.57327576758233,
              27.476273968666103
            ],
            [
              79.57336581829966,
              27.477145740774425
            ],
            [
              79.57679291176986,
              27.481678952283286
            ],
            [
              79.57910904794835,
              27.48463188630343
            ],
            [
              79.58184153439645,
              27.488332916293462
            ],
            [
              79.58271147010409,
              27.489473227835177
            ],
            [
              79.58275596366013,
              27.490095909189602
            ],
            [
              79.5821002213505,
              27.491422254397587
            ],
            [
              79.57990543588876,
              27.49386515800417
            ],
            [
              79.57462342106989,
              27.49965110135886
            ],
            [
              79.57433804067715,
              27.50005278530157
            ],
            [
              79.57376808568053,
              27.50067720203243
            ],
            [
              79.5723424099173,
              27.50240221070612
            ],
            [
              79.57070841214471,
              27.504149234613887
            ],
            [
              79.56899688706818,
              27.50640990496282
            ],
            [
              79.56712565500885,
              27.507930453952905
            ],
            [
              79.56465824523144,
              27.509088843110025
            ],
            [
              79.56324428080457,
              27.509663030350612
            ],
            [
              79.56177036640887,
              27.510791608077266
            ],
            [
              79.55994734603254,
              27.512220139127233
            ],
            [
              79.55897387409848,
              27.51270640597614
            ],
            [
              79.55609860941915,
              27.514759639368318
            ],
            [
              79.55422241057461,
              27.51624471710811
            ],
            [
              79.55386754369805,
              27.51662219583879
            ],
            [
              79.55279703215375,
              27.517760901352876
            ],
            [
              79.55159165923077,
              27.51940427860864
            ],
            [
              79.55063596675285,
              27.520829632238744
            ],
            [
              79.54961135642459,
              27.52238972615151
            ],
            [
              79.5478913979642,
              27.525129513147448
            ],
            [
              79.54888047183809,
              27.525875118043178
            ],
            [
              79.54949603609833,
              27.526592187637636
            ],
            [
              79.5494951818005,
              27.526830654020518
            ],
            [
              79.54947715440939,
              27.527203186854745
            ],
            [
              79.54925835624721,
              27.527760795987234
            ],
            [
              79.5489038127641,
              27.528788155199628
            ],
            [
              79.54839758694867,
              27.53018766268882
            ],
            [
              79.54821167071918,
              27.530768328394583
            ],
            [
              79.54815982265592,
              27.53125999535358
            ],
            [
              79.54797240444324,
              27.532257972609365
            ],
            [
              79.54793714017846,
              27.532779539631616
            ],
            [
              79.54784564676677,
              27.534838761962504
            ],
            [
              79.54777334855608,
              27.536373520290656
            ],
            [
              79.54768419884897,
              27.53792319869576
            ],
            [
              79.54760051988191,
              27.53912603303953
            ],
            [
              79.54729525977196,
              27.539218671259064
            ],
            [
              79.5465087892323,
              27.539529380146995
            ],
            [
              79.54447501959872,
              27.541137855985394
            ],
            [
              79.54308441316587,
              27.54219195961818
            ],
            [
              79.54137530455745,
              27.543483592102973
            ],
            [
              79.53991787334891,
              27.544507709169537
            ],
            [
              79.53888324590693,
              27.545422173235846
            ],
            [
              79.53817613074285,
              27.546865678090363
            ],
            [
              79.53728837695151,
              27.54745923895241
            ],
            [
              79.53645075544125,
              27.548037970368593
            ],
            [
              79.53497648800766,
              27.549047105775852
            ],
            [
              79.53383795513173,
              27.54966967132044
            ],
            [
              79.53318560755557,
              27.549831620870112
            ],
            [
              79.5317755454103,
              27.549915635619293
            ],
            [
              79.53010422443427,
              27.550000057291737
            ],
            [
              79.5286497639544,
              27.550159694254283
            ],
            [
              79.52773056822981,
              27.550216567280366
            ],
            [
              79.52760926512374,
              27.551368187953276
            ],
            [
              79.52745408115841,
              27.552649408278764
            ],
            [
              79.52724763662802,
              27.554213574989006
            ],
            [
              79.52701019842367,
              27.555413250783086
            ],
            [
              79.52700374672332,
              27.55712709372889
            ],
            [
              79.52674787329273,
              27.55851235198776
            ],
            [
              79.5263094729762,
              27.559539280317818
            ],
            [
              79.5261729856469,
              27.560284009844207
            ],
            [
              79.5262041311361,
              27.560880248857973
            ],
            [
              79.526250023369,
              27.56191183926762
            ],
            [
              79.52635621771033,
              27.564773469286212
            ],
            [
              79.5264450592953,
              27.567017307940215
            ],
            [
              79.52663851598332,
              27.568880714693172
            ],
            [
              79.52714672258395,
              27.570456448198385
            ],
            [
              79.52840708138544,
              27.56967576818835
            ],
            [
              79.52867439216624,
              27.569721298021086
            ],
            [
              79.528974269571,
              27.569960647060054
            ],
            [
              79.52950297213313,
              27.57053135496459
            ],
            [
              79.52837397038239,
              27.571329335638115
            ],
            [
              79.52883767444385,
              27.571971957696228
            ],
            [
              79.52863853770828,
              27.5720519206857
            ],
            [
              79.52880010330541,
              27.57234257207278
            ],
            [
              79.52955514089498,
              27.573473163338758
            ],
            [
              79.53007214559548,
              27.57453047770306
            ],
            [
              79.53021429410772,
              27.575191794163928
            ],
            [
              79.52995532328605,
              27.576770645166395
            ],
            [
              79.5298568382865,
              27.578930213379042
            ],
            [
              79.52970646839279,
              27.580464370631727
            ],
            [
              79.52950067693759,
              27.582317370155973
            ],
            [
              79.5295853476447,
              27.583848913060173
            ],
            [
              79.52994349337207,
              27.584752530810597
            ],
            [
              79.53086485673141,
              27.586777324375934
            ],
            [
              79.53177047531881,
              27.58827702964186
            ],
            [
              79.53306200386406,
              27.591021001731804
            ],
            [
              79.53369709210868,
              27.592094886746242
            ],
            [
              79.53505534391994,
              27.593462894709404
            ],
            [
              79.53593052129727,
              27.59441080877816
            ],
            [
              79.53626173014254,
              27.594951963033672
            ],
            [
              79.53728733041423,
              27.5961839473387
            ],
            [
              79.53779442130727,
              27.59681241218249
            ],
            [
              79.53864022467313,
              27.597517181221793
            ],
            [
              79.53981925180543,
              27.598222823035147
            ],
            [
              79.54121080865588,
              27.598807642017732
            ],
            [
              79.5428446213755,
              27.5994605693272
            ],
            [
              79.54450939363308,
              27.59991103508528
            ],
            [
              79.54569831660655,
              27.600233362249966
            ],
            [
              79.54619824702846,
              27.600234796801473
            ],
            [
              79.5468807214043,
              27.600020625695233
            ],
            [
              79.54730550505779,
              27.599846312082644
            ],
            [
              79.54773010006501,
              27.599753011730495
            ],
            [
              79.54829078983781,
              27.599687010110006
            ],
            [
              79.5487605090184,
              27.59968834913755
            ],
            [
              79.54906462826796,
              27.599351662798885
            ],
            [
              79.54924751268341,
              27.59906854480516
            ],
            [
              79.5497328149392,
              27.59892140289661
            ],
            [
              79.55094420657458,
              27.599073369948893
            ],
            [
              79.55143459509156,
              27.599349397112686
            ],
            [
              79.55166216170923,
              27.599255526333035
            ],
            [
              79.55175309457219,
              27.599255784268028
            ],
            [
              79.55231310701524,
              27.599378890038185
            ],
            [
              79.55273889857845,
              27.598947931268874
            ],
            [
              79.55305859281839,
              27.59848966692586
            ],
            [
              79.55275650735466,
              27.598259185039545
            ],
            [
              79.55310670209344,
              27.597746998327185
            ],
            [
              79.55316890863023,
              27.59730150732248
            ],
            [
              79.55217099802887,
              27.596758504148298
            ],
            [
              79.55144486822518,
              27.596472808798254
            ],
            [
              79.55168797210398,
              27.596270963790825
            ],
            [
              79.55294730592773,
              27.595720842167907
            ],
            [
              79.55508540140683,
              27.595119082677463
            ],
            [
              79.55499345883752,
              27.593804142680277
            ],
            [
              79.55486539321397,
              27.591453920743287
            ],
            [
              79.55495833111661,
              27.590886899617285
            ],
            [
              79.55668822763904,
              27.59004101679624
            ],
            [
              79.5577334048957,
              27.589535628365283
            ],
            [
              79.55803609582394,
              27.589590484203985
            ],
            [
              79.55916998530816,
              27.590241944154428
            ],
            [
              79.56019809008286,
              27.59081199560473
            ],
            [
              79.5610900470914,
              27.591314151343074
            ],
            [
              79.56216372699369,
              27.591857311258046
            ],
            [
              79.56413042840818,
              27.59260555216446
            ],
            [
              79.56500011168923,
              27.592939164622756
            ],
            [
              79.56642026640675,
              27.594036933167853
            ],
            [
              79.5671152659926,
              27.594565608344574
            ],
            [
              79.56820782219397,
              27.594041820631507
            ],
            [
              79.56995236574707,
              27.593330859173168
            ],
            [
              79.57146934986908,
              27.59271368437906
            ],
            [
              79.57199988140114,
              27.592620604856634
            ],
            [
              79.57227256410731,
              27.59262134288193
            ],
            [
              79.57293630771119,
              27.59343345671789
            ],
            [
              79.57421808055241,
              27.592493220179776
            ],
            [
              79.57474751074997,
              27.592724274674605
            ],
            [
              79.5759302066019,
              27.59238979933683
            ],
            [
              79.57718944161098,
              27.59182598038784
            ],
            [
              79.57767445640592,
              27.591746170343484
            ],
            [
              79.57982545438743,
              27.59179249433112
            ],
            [
              79.58230075227137,
              27.591880062815893
            ],
            [
              79.5838003548909,
              27.591911018684474
            ],
            [
              79.58472492613414,
              27.59177842477042
            ],
            [
              79.58531627091602,
              27.591590850093723
            ],
            [
              79.58593526763893,
              27.592240767168573
            ],
            [
              79.5866724718735,
              27.593782233036798
            ],
            [
              79.5874696943488,
              27.595512972310786
            ],
            [
              79.58820354517238,
              27.597208357657255
            ],
            [
              79.58885342507648,
              27.597696220249126
            ],
            [
              79.58953369498663,
              27.598130148630755
            ],
            [
              79.58997211416778,
              27.598401329909944
            ],
            [
              79.59066873431439,
              27.59847073563792
            ],
            [
              79.59216933855551,
              27.5982179771553
            ],
            [
              79.59324959861726,
              27.597966604108624
            ],
            [
              79.59405261342951,
              27.597941661340357
            ],
            [
              79.59577908377744,
              27.5981081076987
            ],
            [
              79.59797577636252,
              27.59808669966496
            ],
            [
              79.59935483405407,
              27.597955175224783
            ],
            [
              79.60085562783969,
              27.597634822871445
            ],
            [
              79.60289615460084,
              27.596656038686135
            ],
            [
              79.605262923422,
              27.595554593603428
            ],
            [
              79.60634059723407,
              27.59489548418565
            ],
            [
              79.60743348132056,
              27.594182486980053
            ],
            [
              79.60802549714391,
              27.593805798641526
            ],
            [
              79.60876908211192,
              27.593388975687535
            ],
            [
              79.6095729449338,
              27.593080317235735
            ],
            [
              79.61138559965009,
              27.592266466776984
            ],
            [
              79.61170385029735,
              27.59219964380184
            ],
            [
              79.61196000130737,
              27.592645941334503
            ],
            [
              79.61227468743958,
              27.593767678088838
            ],
            [
              79.61240785369732,
              27.594780857717772
            ],
            [
              79.61240719702883,
              27.594993125970415
            ],
            [
              79.61240693561912,
              27.595077997808385
            ],
            [
              79.6123439179036,
              27.595888162057882
            ],
            [
              79.61198592399151,
              27.59783739221208
            ],
            [
              79.61148090641015,
              27.599483788206378
            ],
            [
              79.61117559689286,
              27.600225842397492
            ],
            [
              79.61067382402628,
              27.6008187946345
            ],
            [
              79.60973307142984,
              27.60130264801457
            ],
            [
              79.60786920735248,
              27.601695370666352
            ],
            [
              79.6072383313082,
              27.601828294897828
            ],
            [
              79.60619154876213,
              27.602284857604737
            ],
            [
              79.60355013980579,
              27.60399339978451
            ],
            [
              79.60145410704153,
              27.605662761657968
            ],
            [
              79.59977553216962,
              27.6068674670594
            ],
            [
              79.59824215109876,
              27.607862917338647
            ],
            [
              79.5973928856258,
              27.608369060282193
            ],
            [
              79.59755841369162,
              27.610447872982263
            ],
            [
              79.59453244494527,
              27.612340804937848
            ],
            [
              79.59526062380614,
              27.61332923337795
            ],
            [
              79.59348191462783,
              27.61518840022719
            ],
            [
              79.5914284233805,
              27.618103563664448
            ],
            [
              79.59118340788677,
              27.618899724807093
            ],
            [
              79.59121217014554,
              27.61934545194819
            ],
            [
              79.59137780870414,
              27.6196834267723
            ],
            [
              79.59202819615638,
              27.620022741720195
            ],
            [
              79.59336132658073,
              27.62010718266809
            ],
            [
              79.59477080122781,
              27.61998928179052
            ],
            [
              79.59703006865897,
              27.619481887981053
            ],
            [
              79.5982878807366,
              27.619417576106283
            ],
            [
              79.59962310693052,
              27.61919792576447
            ],
            [
              79.60047086413213,
              27.619058460781492
            ],
            [
              79.60200213865366,
              27.61876518560296
            ],
            [
              79.60456554958887,
              27.618420196365356
            ],
            [
              79.60736929579518,
              27.618211146182674
            ],
            [
              79.60994604311907,
              27.617879879148138
            ],
            [
              79.61274876883923,
              27.617994776753882
            ],
            [
              79.61289633059937,
              27.618126757101972
            ],
            [
              79.61444751717747,
              27.62120960588437
            ],
            [
              79.6154702940442,
              27.623683382368373
            ],
            [
              79.61587478116212,
              27.624374514890857
            ],
            [
              79.61614674880934,
              27.624631709130274
            ],
            [
              79.61668167040823,
              27.625093441728158
            ],
            [
              79.61760846138853,
              27.627009347121643
            ],
            [
              79.6200738526515,
              27.628222538246668
            ],
            [
              79.62092913683686,
              27.628913725680665
            ],
            [
              79.62175541981162,
              27.62968355311699
            ],
            [
              79.6234490729056,
              27.63204440896916
            ],
            [
              79.6244943588584,
              27.633011660248332
            ],
            [
              79.62530575674886,
              27.634777608363834
            ],
            [
              79.62598919322042,
              27.637200227749425
            ],
            [
              79.62677164829076,
              27.6373046687075
            ],
            [
              79.62836020658129,
              27.637328888662616
            ],
            [
              79.63135585359356,
              27.637433432954246
            ],
            [
              79.63245979683947,
              27.636825585370122
            ],
            [
              79.63342714495825,
              27.636725233690754
            ],
            [
              79.63400271262876,
              27.636726566694733
            ],
            [
              79.63455577570478,
              27.636522656684434
            ],
            [
              79.63563958321359,
              27.635950651364976
            ],
            [
              79.63619232738773,
              27.63589038401975
            ],
            [
              79.63658399913979,
              27.635788691304857
            ],
            [
              79.6368608158929,
              27.63560471273879
            ],
            [
              79.63734541117462,
              27.635215930881284
            ],
            [
              79.6375757113657,
              27.63517549373882
            ],
            [
              79.63776025407113,
              27.635052748922185
            ],
            [
              79.63796850421524,
              27.634683907217546
            ],
            [
              79.63813058005543,
              27.634376589114524
            ],
            [
              79.63870613694618,
              27.634377903842797
            ],
            [
              79.64022562287623,
              27.634381364156635
            ],
            [
              79.64058281189781,
              27.63454272464518
            ],
            [
              79.64065155457662,
              27.634665956291077
            ],
            [
              79.64065032208802,
              27.635096810343242
            ],
            [
              79.64064809067287,
              27.635876498388132
            ],
            [
              79.64110809277706,
              27.63604167187287
            ],
            [
              79.64143072360963,
              27.63591923601366
            ],
            [
              79.64221335744473,
              27.63596206275532
            ],
            [
              79.64297112681106,
              27.636661353732336
            ],
            [
              79.64347770027452,
              27.636662494943582
            ],
            [
              79.64379968971004,
              27.636765814304493
            ],
            [
              79.64391431743522,
              27.636930201766575
            ],
            [
              79.6438216984345,
              27.637114606255526
            ],
            [
              79.64340662197598,
              27.637359913658067
            ],
            [
              79.64386114525523,
              27.637859758268227
            ],
            [
              79.64435144573731,
              27.63705425917344
            ],
            [
              79.64439848781379,
              27.636685046994614
            ]
          ]
        ]
      }
    }
  ]
}